OBJECTID;X;Y;Name;addrln1;city;post_id;zip;latitude;longitude;POINT_X;POINT_Y
157192986;-118.253000055711027;33.807999967567568;Carson Refinery;;;4460;;33.808;-118.253;6484809.91739872;1752603.78706406
157192987;-118.419000055749251;33.915999967292066;El Segundo Refinery;;;4461;;33.916;-118.419;6434543.83092321;1792075.89742415
157192988;-118.295000056123712;33.77999996752493;Los Angeles Refinery;;;4462;;33.78;-118.295;6472020.60931598;1742448.6374269
157192989;-118.336000055496882;33.857999967160019;Torrance Refinery;;;4463;;33.858;-118.336;6459655.74657856;1770873.85747923
157192990;-118.155000056087019;33.899999966938687;Paramount Refinery;;;4464;;33.9;-118.155;6514633.53229205;1786024.43675806
157192991;-118.23800005645991;33.790999967728524;Shell Los Angeles Refinery;;;4465;;33.791;-118.238;6489352.20162122;1746405.90936798
157192992;-118.232000056582137;33.781999967049963;Wilmington Refinery;;;4466;;33.782;-118.232;6491167.7849323;1743126.30372247
157234319;-118.170994256991776;34.01858156730664;United States Choice Incorporated;4600 East Olympic Boulevard;Los Angeles;48517;90022;34.0185816;-118.1709942;6509853.2948053;1829186.65194264
157234320;-118.148183156028381;34.054555466953673;El Primo Foods Incorporated;608 Monterey Pass Road;Monterey Park;48518;91754;34.0545555;-118.1481831;6516785.12477364;1842267.27538764
157234321;-117.917909057553103;34.135881166757635;Cal Fresh;778 North Georgia Avenue;Azusa;48519;91702;34.1358812;-117.917909;6586511.82718347;1871840.29104464
157234322;-118.192095656769013;34.019625667066897;La Indiana Tamales;1142 South Indiana Street;Los Angeles;48520;90023;34.0196257;-118.1920956;6503459.58941689;1829578.16887614
157234323;-118.207297756799733;34.016987766592358;Sunrise Food Company;3348 East 14Th Street;Los Angeles;48521;90023;34.0169878;-118.2072977;6498850.92278121;1828627.33777256
157234324;-118.044583156962602;33.89842266689196;Golden Specialty Foods Incorporated;14605 Best Avenue;Norwalk;48522;90650;33.8984227;-118.0445831;6548140.74086805;1785417.15647656
157234325;-118.190830355889872;34.013364466586928;Contessa Premium Foods Incorporated;4000 Noakes Street;Commerce;48523;90023;34.0133645;-118.1908303;6503838.68741196;1827298.86569197
157234326;-118.361888855619938;34.058122166686225;Harvey'S Guss Meat Company;949 South Ogden Drive;Los Angeles;48524;90036;34.0581222;-118.3618888;6452057.75521289;1843729.49621648
157234327;-118.095383556389493;34.079653466871633;Yolanda Quality Foods Incorporated;414 East Valley Boulevard;San Gabriel;48525;91776;34.0796535;-118.0953835;6532786.97761239;1851381.5393113
157234328;-117.963489257416384;34.021904867546048;Zamora Brothers Meats Corporation;15378 Proctor Avenue;City Of Industry;48526;91745;34.0219049;-117.9634892;6572733.90395197;1830354.00590715
157234329;-117.949364456894074;34.016841066980462;San Miguel Meat Distribution Incorporated;16101 East Old Valley Boulevard;La Puente;48527;91744;34.0168411;-117.9493644;6577014.95706964;1828513.04305364
157234330;-118.349060656265408;33.875827767510955;Dianas Mexican Food Products Incorporated;4201 Redondo Beach Boulevard;Lawndale;48528;90260;33.8758278;-118.3490606;6455712.90013355;1777375.3057624
157234331;-118.150862456839505;34.052780166765331;Imperial Meat Company Incorporated;700 Monterey Pass Road;Monterey Park;48529;91754;34.0527802;-118.1508624;6515972.58571631;1841622.41709732
157234332;-117.962774456814842;34.021284166758385;Gaytan Foods;15430 Proctor Avenue;City Of Industry;48530;91745;34.0212842;-117.9627744;6572950.5879018;1830128.19992831
157234333;-118.242840956109674;33.999667967066252;Los Angeles Poultry Company Incorporated;4816 Long Beach Avenue;Los Angeles;48531;90058;33.999668;-118.2428409;6488064.71895997;1822348.4461309
157234334;-118.25479235638096;33.778151967529986;Juanita'S Foods;645 Eubank Avenue;Wilmington;48532;90744;33.778152;-118.2547923;6484237.89065564;1741742.68378632
157234335;-118.219663655982728;34.017510766577026;D And D Meat Company;2805 East Washington Boulevard;Los Angeles;48533;90023;34.0175108;-118.2196636;6495103.98768981;1828825.6260899
157234336;-118.209016556846279;33.988302567019318;Goldberg And Solvy Foods Incorporated;5925 Alcoa Avenue;Vernon;48534;90058;33.9883026;-118.2090165;6498308.35234405;1818189.30812372
157234337;-118.344219255970614;33.927482266995725;Victors Market Company Incorporated;11735 South Prairie Avenue;Hawthorne;48535;90250;33.9274823;-118.3442192;6457246.87606822;1796168.40564331
157234338;-118.23548165575653;33.975967767314877;M And C Unico Incorporated;2041 Hawkins Circle;Los Angeles;48536;90001;33.9759678;-118.2354816;6490275.12956539;1813718.16680355
157234339;-118.206803956257076;33.999135467432275;Papa Cantella'S Incorporated;3341 East 50Th Street;Vernon;48537;90058;33.9991355;-118.2068039;6498987.19744305;1822130.22871956
157234340;-118.149559256840462;33.979373566673992;Sterling Pacific Meat Company;6114 Scott Way;Commerce;48538;90040;33.9793736;-118.1495592;6516327.59123988;1814907.71396515
157234341;-118.252531456342652;33.877825766767351;Richandre Incorporated Doing Business As Ardellas;1170 Sandhill Avenue;Carson;48539;90746;33.8778258;-118.2525314;6485016.1161333;1778014.74083523
157234342;-118.185757856194726;33.999377066588657;Greenland Foods Company;2939 Sunol Drive;Vernon;48540;90058;33.9993771;-118.1857578;6505366.51375264;1822205.69510406
157234343;-118.223146556571081;33.843247667403759;Custom Food Products Limited Liability Company;20644 South Fordyce Avenue;Long Beach;48541;90810;33.8432477;-118.2231465;6493907.75484605;1765409.83822356
157234344;-118.234712056688892;34.035577066892849;Commercial Meats Packaging Company;1738 Industrial Street;Los Angeles;48542;90021;34.0355771;-118.234712;6490559.11554597;1835410.60176507
157234345;-118.251471156365596;33.77699306750835;E Street Cold Logistics Limited Liability Company;901 East E Street;Wilmington;48543;90744;33.7769931;-118.2514711;6485246.15996455;1741318.38673465
157234346;-118.237042056423533;33.977649166777169;Woodland Farms;6820 Wilson Avenue;Los Angeles;48544;90001;33.9776492;-118.237042;6489803.47860581;1814331.17377965
157234347;-118.249798955932647;34.035101266601131;East Olympic Poultry;940 Crocker Street;Los Angeles;48545;90021;34.0351013;-118.2497989;6485987.78315322;1835248.46527831
157234348;-117.747848157814204;34.060881867414892;West End Veal;338 North Gibbs Street;Pomona;48546;91767;34.0608819;-117.7478481;6638042.23494922;1844632.28771798
157234349;-118.402406756200037;34.282100866048125;Graciana Tamale Factory;12241 Foothill Boulevard;Sylmar;48547;91342;34.2821009;-118.4024067;6440111.65213664;1925285.46630631
157234350;-118.20755345607067;33.987598167147283;Orient Fishery Incorporated Markesa International;5970 Alcoa Avenue;Vernon;48548;90058;33.9875982;-118.2075534;6498751.35178614;1817932.04387447
157234351;-118.055654856343381;33.918578067082336;Viet Hung Paris Company Incorporated;12419 Shoemaker Avenue;Santa Fe Springs;48549;90670;33.9185781;-118.0556548;6544784.88406272;1792753.84619948
157234352;-118.22764345640185;34.067598266975381;City Glatt Incorporated;1600 Naud Street;Los Angeles;48550;90012;34.0675983;-118.2276434;6492727.09185305;1847058.7845054
157234353;-117.9386604570321;34.00466826736718;P And C Poultry Distribution Incorporated;1100 John Reed Court;City Of Industry;48551;91745;34.0046683;-117.9386604;6580261.40366071;1824084.92231673
157234354;-118.053449856243617;33.946888067230496;Bot-N-Bot;13005 Los Nietos Road;Santa Fe Springs;48552;90670;33.9468881;-118.0534498;6545459.35023347;1803056.12283897
157234355;-117.839951956884633;34.010707967544455;Golden State Foods Incorporated;21489 Baker Parkway;City Of Industry;48553;91789;34.010708;-117.8399519;6610174.89009348;1826315.83681814
157234356;-118.237104256484614;34.016038167414656;Florentynas Fresh Pasta Factory;1864 East 22Nd Street;Los Angeles;48554;90058;34.0160382;-118.2371042;6489817.57437813;1828301.72720331
157234357;-118.249167456554133;34.010383866710704;2 Sisters Food Group Incorporated;4020 Compton Avenue;Los Angeles;48555;90011;34.0103839;-118.2491674;6486156.81332697;1826252.86155039
157234358;-118.309372756417758;33.820509967180605;Michael B'S Limited Liability Company;22625 South Western Avenue;Torrance;48556;90501;33.82051;-118.3093727;6467698.17143856;1757204.39564498
157234359;-118.100460356879552;33.954886466740469;Quentin Meat Company;9469 Telegraph Road;Pico Rivera;48557;90660;33.9548865;-118.1004603;6531204.28031847;1805977.82828164
157234360;-118.209818556049271;33.840710367224247;Pacific Coast Container;2888 El Presidio Street;Carson;48558;90810;33.8407104;-118.2098185;6497953.11617789;1764477.73542897
157234361;-118.234826656655642;33.997951166560981;Huxtable'S Kitchens;2100 East 49Th Street;Vernon;48559;90058;33.9979512;-118.2348266;6490492.40668988;1821717.89719515
157234362;-118.21351565621022;33.997713767080263;T And T Foods Incorporated;3080 East 50Th Street;Vernon;48560;90058;33.9977138;-118.2135156;6496951.75696014;1821617.09719989
157234363;-118.19104275673098;33.997312867088532;Golden Oval Eggs Limited Liability Company;4767 East 49Th Street;Vernon;48561;90058;33.9973129;-118.1910427;6503763.21676239;1821457.49417265
157234364;-118.351699455985198;34.174483166306374;Judys Catering Incorporated;3803 1/2 West Burbank Boulevard;Burbank;48562;91505;34.1744832;-118.3516994;6455292.17394088;1886064.21600881
157234365;-117.791957356939889;34.008089867636507;Merchant Enterprises;931 South Pantera Drive;Diamond Bar;48563;91765;34.0080899;-117.7919573;6624722.20220613;1825389.69234498
157234366;-118.19071555591043;33.995241566690552;Premier Meat Company;5030 Gifford Avenue;Vernon;48564;90058;33.9952416;-118.1907155;6503860.96459839;1820703.5183184
157234367;-117.924060957634495;34.132001167020299;S And S Foods Incorporated Limited Liability Company;1120 West Foothill Boulevard;Azusa;48565;91702;34.1320012;-117.9240609;6584651.27217755;1870426.82471147
157234368;-118.309238256105189;34.174656666341626;Jacobellis Sausage Company Incorporated;410 South Varney Street;Burbank;48566;91502;34.1746567;-118.3092382;6468135.51997331;1886085.13164939
157234369;-118.237354256489539;33.991424166974213;Broadleaf Usa Incorporated;5600 South Alameda Street;Vernon;48567;90058;33.9914242;-118.2373542;6489720.66249847;1819344.39341198
157234370;-118.594413955602505;34.192768966326454;Eggology Incorporated;6728 Eton Avenue;Canoga Park;48568;91303;34.192769;-118.5944139;6381918.60349672;1893064.13114281
157234371;-118.229137656761537;34.013272167006932;K And M Food Service;2443 East 27Th Street;Vernon;48569;90058;34.0132722;-118.2291376;6492229.4973758;1827289.52745606
157234372;-118.223688656322935;34.00613346679679;Overhill Farms Incorporated;2727 East Vernon Avenue;Vernon;48570;90058;34.0061335;-118.2236886;6493875.0492028;1824687.89650448
157234373;-118.578362256194666;34.434056165706018;Mikailian Meat Products Incorporated;25310 Avenue Stanford;Valencia;48571;91355;34.4340562;-118.5783622;6387277.84441863;1980843.3358334
157234374;-118.148534455925017;33.960622466830472;Durango Foods;7777 South Scout Avenue;Bell Gardens;48572;90201;33.9606225;-118.1485344;6516628.2025153;1808083.33686589
157234375;-118.175435656922232;34.048339467157206;Dolores Canning Company Incorporated;1020 North Eastern Avenue;Los Angeles;48573;90063;34.0483395;-118.1754356;6508526.30205247;1840018.44359922
157234376;-117.747159357521639;34.059437367241344;Unistar Food Processing Incorporated;128 North Gibbs Street;Pomona;48574;91767;34.0594374;-117.7471593;6638252.18105164;1844107.13194415
157234377;-118.212570056456869;33.997067666935465;Protein Incorporated;5100 South Boyle Avenue;Vernon;48575;90058;33.9970677;-118.21257;6497237.87941939;1821381.36112282
157234378;-118.291416456446058;33.797111667003684;La Espanola Meat Incorporated;25020 Doble Avenue;Harbor City;48576;90710;33.7971117;-118.2914164;6473127.70683931;1748672.8592304
157234379;-118.223773855843433;33.99414406691529;E Hwa Food Products Company;2639 East 54Th Street;Huntington Park;48577;90255;33.9941441;-118.2237738;6493839.51384081;1820324.77629372
157234380;-117.88715565768274;34.090999467194571;Filmore Foods Incorporated;525 North Howard Avenue;Covina;48578;91723;34.0909995;-117.8871556;6595836.4259883;1855516.04088481
157234381;-118.438481356340418;34.278402766108421;Cucina Della Cucina;620 Celis Street;San Fernando;48579;91340;34.2784028;-118.4384813;6429208.46331313;1923985.25401172
157234382;-118.018723656435981;34.053911766871821;Myhall Food Corporation;2652 Durfee Avenue;El Monte;48580;91732;34.0539118;-118.0187236;6555998.83604422;1842000.46555381
157234383;-117.879543257284709;33.999358467547459;Great River Food Corporation;19355 East San Jose Avenue;City Of Industry;48581;91748;33.9993585;-117.8795432;6598181.21230923;1822168.78277631
157234384;-118.255836656058861;33.876044567510682;K T'S Kitchens Incorporated;1065 East Walnut Street;Carson;48582;90746;33.8760446;-118.2558366;6484011.19721138;1777369.05839956
157234385;-118.134994457609949;34.700725465508654;Harvest Farms Incorporated;45000 North Yucca Avenue;Lancaster;48583;93534;34.7007255;-118.1349944;6521095.8294068;2077416.60856573
157234386;-118.240826456987833;34.224412366494434;Harmony Farms;2824 Foothill Boulevard;La Crescenta;48584;91214;34.2244124;-118.2408264;6488871.26852797;1904135.46136232
157234387;-118.19908255611773;33.785606067360071;Olympic Gold Meats Incorporated;540 West 15Th Street;Long Beach;48585;90813;33.7856061;-118.1990825;6501173.67896247;1744417.21255797
157234388;-118.329115256108167;33.974726167408058;Money Saver'S Meat Incorporated;3233 West Florence Avenue;Los Angeles;48586;90043;33.9747262;-118.3291152;6461885.15091239;1813346.05173415
157234389;-118.288344156040338;34.166332266421087;Continental Gourmet Sausage Company;6406 San Fernando Road;Glendale;48587;91201;34.1663323;-118.2883441;6474446.61857155;1883036.95828381
157234390;-118.278721155908627;33.885120367072851;Lets Do Lunch Incorporated Doing Business As Integrated Food Service;310 West Alondra Boulevard;Gardena;48588;90248;33.8851204;-118.2787211;6477073.78851405;1780690.41855472
157234391;-118.264144755954661;33.736040267432621;Del Monte Corporation;1054 Ways Street;Terminal Island;48589;90731;33.7360403;-118.2641447;6481355.39084323;1726424.38699514
157234392;-118.035258556425845;34.107001767404988;Lucksen Trading Company;119 West Live Oak Avenue;Arcadia;48590;91007;34.1070018;-118.0352585;6550997.09014222;1861322.26942982
157234393;-118.213770456378882;34.004249367335255;Overhill Farms Incorporated;3055 East 44Th Street;Vernon;48591;90058;34.0042494;-118.2137704;6496879.58289188;1823995.69480489
157234394;-118.045250756972507;33.912537667058714;Nishimoto Trading Company Limited;13409 Orden Drive;Santa Fe Springs;48592;90670;33.9125377;-118.0452507;6547940.45714788;1790554.02251515
157234395;-118.215723256542574;33.998619767436061;Value Meats Doing Business As Charlies Pride Meats;2959 East 50Th Street;Vernon;48593;90058;33.9986198;-118.2157232;6496283.32128914;1821948.23728564
157234396;-118.360313556270214;33.918717267209566;First Class Foods Incorporated;12500 Inglewood Avenue;Hawthorne;48594;90250;33.9187173;-118.3603135;6452353.04333623;1792995.7548364
157234397;-118.221803056688785;33.849334167461663;New Zealand Lamb Cooperative Incorporated;19840 South Rancho Way;Compton;48595;90220;33.8493342;-118.221803;6494320.62049013;1767623.96174806
157234398;-118.303548355908674;33.90255876754096;Paisano Meat Incorporated;1529 West Rosecrans Avenue;Gardena;48596;90249;33.9025588;-118.3035483;6469557.50203747;1787058.46028057
157234399;-118.279939156341015;33.886523667248795;Lets Do Lunch Incorporated Doing Business As Integrated Food Service;345 West Alondra Boulevard;Gardena;48597;90248;33.8865237;-118.2799391;6476705.52809572;1781202.13833182
157234400;-118.210407956639202;33.866800566993113;Gourmet Foods Incorporated;2910 East Harcourt Street;Compton;48598;90221;33.8668006;-118.2104079;6497794.00330713;1773972.96709464
157234401;-118.574326956275584;34.234040466597435;Excelline Food Products Limited Liability Company;20232 Sunburst Street;Chatsworth;48599;91311;34.2340405;-118.5743269;6388078.69321063;1908048.0168574
157234402;-118.194346756282457;33.905050566795623;Mci Foods Incorporated Doing Business As Los Cabos Mexican Foods;12835 Atlantic Avenue;Compton;48600;90221;33.9050506;-118.1943467;6502696.82289781;1787883.21289614
157234403;-118.197943156744159;33.988695867307108;Golden Key Food Incorporated Doing Business As Aa Meat Products Corporation;3721 East Slauson Avenue;Maywood;48601;90270;33.9886959;-118.1979431;6501665.45816264;1818325.64282481
157234404;-118.600518556133835;34.200106466050393;Golden Farms Incorporated;7133 Remmet Avenue;Canoga Park;48602;91303;34.2001065;-118.6005185;6380088.53694689;1895745.30491431
157234405;-118.352109756435269;33.967339567285102;Goodman Food Products Incorporated Doing Business As Don Lee Farms;200 East Beach Avenue;Inglewood;48603;90302;33.9673396;-118.3521097;6454904.00772247;1810681.55181381
157234406;-117.9563760568237;34.02086016737816;O'Tasty Foods Incorporated;160 South Hacienda Boulevard;City Of Industry;48604;91745;34.0208602;-117.956376;6574889.5249688;1829974.67792565
157234407;-118.144754755949393;33.961395067295783;Ndk Foods Incorporated Doing Business As Unified Nutrimeals;7512 Scout Avenue;Bell Gardens;48605;90201;33.9613951;-118.1447547;6517774.7769938;1808362.83040139
157234408;-118.600415655827362;34.244345666578731;Nestle Usa;9601 Canoga Avenue;Chatsworth;48606;91311;34.2443457;-118.6004156;6380215.81621988;1911844.2766533
157234409;-118.065361456967167;33.830881267490746;Autentico Foods Corporation;21720 Hawaiian Avenue;Hawaiian Gardens;48607;90716;33.8308813;-118.0653614;6541819.18887864;1760840.62721765
157234410;-118.15015335676722;34.1617803668126;Gourmets Fresh Pasta;950 North Fair Oaks Avenue;Pasadena;48608;91103;34.1617804;-118.1501533;6516246.6324123;1881289.26296031
157234411;-118.29954745614603;33.793913067149667;Flying Food Group Limited Liability Company;25324 Frampton Avenue;Harbor City;48609;90710;33.7939131;-118.2995474;6470653.75935939;1747516.06790881
157234412;-117.950407656947405;34.01231146724345;Snak King Corporation;16150 East Stephens Street;City Of Industry;48610;91745;34.0123115;-117.9504076;6576699.63880263;1826864.47285998
157234413;-118.302954456378529;33.902396967088428;Paisano Meat Incorporated;1521 West Rosecrans Avenue;Gardena;48611;90249;33.902397;-118.3029544;6469737.54498447;1786999.03389023
157234414;-118.232453656821178;33.999969966727335;Cargill Meat Solutions Incorporated - Cargill Food Distribution;2350 East 48Th Street;Vernon;48612;90058;33.99997;-118.2324536;6491213.38064164;1822450.90622781
157234415;-118.050540256169768;33.907754967217286;Jbs Swift And Company;13215 Cambridge Street;Santa Fe Springs;48613;90670;33.907755;-118.0505402;6546334.65327288;1788814.25270073
157234416;-118.228661256704925;34.200768367051914;Schreiners Fine Sausages Incorporated;3417 Ocean View Boulevard;Glendale;48614;91208;34.2007684;-118.2286612;6492529.08896822;1895522.41723673
157234417;-118.225721056656141;34.044268566878827;Russak'S Cured And Smoked Products;1407 Boyd Street;Los Angeles;48615;90033;34.0442686;-118.225721;6493290.23672414;1838567.36283998
157234418;-118.166551356495987;33.880264067033039;Four Star Meat Company Incorporated;2240 East 69Th Street;Long Beach;48616;90805;33.8802641;-118.1665513;6511116.24011405;1778847.69094098
157234419;-118.600006355897193;34.249428165905805;Coo Coo Rico Off The Hook;21610 Lassen Street;Chatsworth;48617;91311;34.2494282;-118.6000063;6380350.55184281;1913693.11875615
157234420;-118.209345756207185;34.005003866855496;Culver City Meat Company;3450 East Vernon Avenue;Vernon;48618;90058;34.0050039;-118.2093457;6498221.21603538;1824267.44951072
157234421;-118.161723356880742;33.953796467108447;Los Angeles Inspection Service;8446 Garfield Avenue;Bell Gardens;48619;90201;33.9537965;-118.1617233;6512624.75743823;1805605.38348848
157234422;-118.309255555914746;33.982913166577887;Meadow Farms Sausage Company Incorporated;6215 South Western Avenue;Los Angeles;48620;90047;33.9829132;-118.3092555;6467915.6050588;1816306.33879256
157234423;-117.997253257142589;34.13347696732761;King Cheese Corporation;229 Railroad Avenue;Monrovia;48621;91016;34.133477;-117.9972532;6562501.55827497;1870955.22490139
157234424;-117.751665357305541;34.093051767275661;Lings;212 West Santa Fe Street;Pomona;48622;91767;34.0930518;-117.7516653;6636857.15759496;1856336.61306256
157234425;-118.101288656503996;34.097481067210964;Hsi Enterprises Incorporated;260 Clary Avenue;San Gabriel;48623;91776;34.0974811;-118.1012886;6531005.37520447;1857871.0857154
157234426;-118.29953195585766;33.804332867406721;Corn Maiden Foods Incorporated;24201 Frampton Avenue;Harbor City;48624;90710;33.8043329;-118.2995319;6470669.7688418;1751308.08788382
157234427;-118.052025556272625;33.96025136704381;Champ Meatball Company;12403 Slauson Avenue;Whittier;48625;90606;33.9602514;-118.0520255;6545893.84805214;1807919.09047523
157234428;-118.213465656280135;34.006053566701219;Real Mex Foods;3305 East Vernon Avenue;Vernon;48626;90058;34.0060536;-118.2134656;6496973.35763872;1824652.08194356
157234429;-118.224214255885741;33.835303167423334;Rose Foods;21304 South Alameda Street;Carson;48627;90810;33.8353032;-118.2242142;6493577.07965438;1762519.35942447
157234430;-118.348951555641463;33.971421967317802;Rocker Brothers Meat And Provision Incorporated;405 North Centinela Avenue;Inglewood;48628;90302;33.971422;-118.3489515;6455866.78762105;1812163.87562081
157234431;-118.236329655778988;33.978659367208301;Rogers Poultry Company;2020 East 67Th Street;Los Angeles;48629;90001;33.9786594;-118.2363296;6490020.32955006;1814698.29738922
157234432;-118.221037456901058;34.072735766734972;Al'S Wholesale Meats Incorporated;1915 North Broadway;Los Angeles;48630;90031;34.0727358;-118.2210374;6494731.8683553;1848923.94941023
157234433;-118.096059256792387;34.002989467012355;American Company;5201 Industry Avenue;Pico Rivera;48631;90660;34.0029895;-118.0960592;6532555.7060933;1823482.20928331
157234434;-118.315190156685475;34.18041396617916;Aries Prepared Beef Company;17 West Magnolia Boulevard;Burbank;48632;91502;34.180414;-118.3151901;6466341.83327197;1888185.89877331
157234435;-118.229018556458684;34.047415366811101;B And S Food Products;107 South Myers Street;Los Angeles;48633;90033;34.0474154;-118.2290185;6492293.90046223;1839714.80148998
157234436;-118.117565656504723;33.919741567386552;Florence Meat Packing Incorporated;9843 Everest Street;Downey;48634;90242;33.9197416;-118.1175656;6526001.89242931;1793193.45391606
157234437;-118.089063056390899;34.095986066921185;Del Mar Meats Incorporated;850 East Commercial Avenue;San Gabriel;48635;91776;34.0959861;-118.089063;6534706.17193672;1857323.52283414
157234438;-118.225246956287862;34.004917467313106;Camino Real Foods Incorporated;2638 East Vernon Avenue;Vernon;48636;90058;34.0049175;-118.2252469;6493401.77062181;1824246.42527457
157234439;-118.044055757305628;34.052341166753351;California Jerky Company;10415 Rush Street;South El Monte;48637;91733;34.0523412;-118.0440557;6548325.3379398;1841431.28952681
157234440;-118.334938055577112;33.986003166642256;Jolly Good Meat Products;5956 West Boulevard;Los Angeles;48638;90043;33.9860032;-118.334938;6460133.40441589;1817455.79712357
157234441;-118.191923556388574;34.003301166627296;Inland Cold Storage Incorporated;4100 Bandini Boulevard;Vernon;48639;90058;34.0033012;-118.1919235;6503500.3980623;1823637.26376323
157234442;-118.203454456030258;34.003197767032816;King Meat Incorporated;4215 Exchange Avenue;Vernon;48640;90058;34.0031978;-118.2034544;6500005.43589213;1823606.50791922
157234443;-118.000437257446009;34.136288867232935;Burnett And Son Meat Company Incorporated;1420 South Myrtle Avenue;Monrovia;48641;91016;34.1362889;-118.0004372;6561538.02673747;1871978.51583381
157234444;-118.218877956800597;34.005867066556441;Clougherty Packing Company;3049 East Vernon Avenue;Vernon;48642;90058;34.0058671;-118.2188779;6495332.85698272;1824587.73856831
157234445;-118.116966456887383;33.919348267115311;Fireside Custom Foods;9856 Everest Street;Downey;48643;90242;33.9193483;-118.1169664;6526183.5180503;1793050.1110269
157234446;-118.21438425582464;33.93866906691359;Bangkok Meatball Company;10501 Long Beach Boulevard;Lynwood;48644;90262;33.9386691;-118.2143842;6496642.64865448;1800130.0811189
157234447;-118.220227656002308;34.012391366787462;Square H Brands Incorporated;2731 South Soto Street;Los Angeles;48645;90023;34.0123914;-118.2202276;6494928.99296105;1826962.95166564
157234448;-118.224177856163763;34.041917767182262;R-Dub Foods;430 South Anderson Street;Los Angeles;48646;90033;34.0419178;-118.2241778;6493755.82634413;1837710.8166528
157234449;-118.2400705568284;34.107301767072173;Serv-Rite Meat Company Incorporated;2515 San Fernando Road;Los Angeles;48647;90065;34.1073018;-118.2400705;6488997.98152913;1861516.35368732
157234450;-118.490836856272878;34.024852566474628;J And T European Gourmet Food;1128 Wilshire Boulevard;Santa Monica;48648;90401;34.0248526;-118.4908368;6412941.81671263;1831787.84588723
157234451;-118.214369556044517;33.782022167335178;Weightmasters Murphy Incorporated;1601 West 12Th Street;Long Beach;48649;90813;33.7820222;-118.2143695;6496525.53176272;1743122.48712906
157234452;-118.223558856827225;34.040354867332333;R W Zant Company Doing Business As Commodity Sales Company;517 Clarence Street;Los Angeles;48650;90033;34.0403549;-118.2235588;6493942.08647031;1837141.63045523
157234453;-118.266504756284462;34.135074466294775;Konanyan Meat Company Incorporated;4525 Alger Street;Los Angeles;48651;90039;34.1350745;-118.2665047;6481022.8327813;1871643.48074272
157234454;-118.232972355811782;34.029878066904267;Pegasus Foods Incorporated;1111 South Mateo Street;Los Angeles;48652;90021;34.0298781;-118.2329723;6491081.38877964;1833335.40217531
157234455;-118.231783756416135;34.035296466764329;Sweety Novelty Incorporated Doing Business As Shine Food;684 South Mateo Street;Los Angeles;48653;90021;34.0352965;-118.2317837;6491446.07210539;1835306.42743273
157234456;-118.243105356240861;34.038449267169391;Sunny California Poultry;1001 East 7Th Street;Los Angeles;48654;90021;34.0384493;-118.2431053;6488018.71183413;1836461.89296956
157234457;-118.167963655972187;33.880297867505249;Paris Croissants Limited Liability Company;6890 Cherry Avenue;Long Beach;48655;90805;33.8802979;-118.1679636;6510687.57922597;1778860.70502256
157234458;-118.176079256036317;34.040312666837913;Rex Meat Company;4158 East Cesar E Chavez Avenue;Los Angeles;48656;90063;34.0403127;-118.1760792;6508326.22240014;1837097.67909956
157234459;-117.982112256794537;34.030964867530763;Lee Kum Kee Usa Foods Incorporated;14455 Don Julian Road;City Of Industry;48657;91746;34.0309649;-117.9821122;6567090.1389928;1833649.59314798
157234460;-117.95746375694263;34.012475467631184;D And D Poultry;16009 East Phoenix Drive;Industry;48658;91745;34.0124755;-117.9574637;6574561.21525797;1826923.17582656
157234461;-118.309284056619845;33.978938267241212;Finewell Foods Incorporated;6601 South Western Avenue;Los Angeles;48659;90047;33.9789383;-118.309284;6467902.51387763;1814859.82298481
157234462;-118.379281755995322;34.195097866980667;Eureka Sausage Incorporated;6835 North Tujunga Avenue;North Hollywood;48660;91605;34.1950979;-118.3792817;6446977.7296118;1893596.56019606
157234463;-118.138973456881146;33.966138766916785;Unibright Foods Incorporated;7101 Scout Avenue;Bell Gardens;48661;90201;33.9661388;-118.1389734;6519530.28923081;1810086.68850222
157234464;-118.378175156058106;34.193270066218481;Mediterranean Best Food;6745 Bakman Avenue;North Hollywood;48662;91606;34.1932701;-118.3781751;6447309.8549318;1892930.13436356
157234465;-118.33656915605161;34.025748567004669;Petes Food Products;3701 West Jefferson Boulevard;Los Angeles;48663;90016;34.0257486;-118.3365691;6459687.36659405;1831921.5290188
157234466;-118.04323875615168;33.916235167300933;Paloma Mexican Foods Corporation;13538 Imperial Highway;Santa Fe Springs;48664;90670;33.9162352;-118.0432387;6548551.51301238;1791899.35873523
157234467;-118.557601956268854;34.232221366635414;Barbara Radwin Corporation;19441 Business Center Drive;Northridge;48665;91324;34.2322214;-118.5576019;6393130.13816021;1907357.56056115
157234468;-118.236107056216809;33.992376967015154;Preferred Freezer Services - Vernon;2050 East 55Th Street;Vernon;48666;90058;33.992377;-118.236107;6490099.54264621;1819690.24573864
157234469;-118.230321756803164;34.06576586691947;Custom Processors Incorporated;1457 North Main Street;Los Angeles;48667;90012;34.0657659;-118.2303217;6491914.4251713;1846393.78846006
157234470;-118.22644375685006;33.994446866971963;Pacific Prime Incorporated;2534 East 53Rd Street;Huntington Park;48668;90255;33.9944469;-118.2264437;6493030.45705996;1820436.78361565
157234471;-118.148706956470576;33.971471067417838;Wei Chuan Usa Incorporated;6655 South Garfield Avenue;Bell Gardens;48669;90201;33.9714711;-118.1487069;6516581.73344813;1812031.44740798
157234472;-118.113284457114091;34.007439167431421;Huntington Meat Packing Incorporated;1100 West Olympic Boulevard;Montebello;48670;90640;34.0074392;-118.1132844;6527336.73982522;1825106.98129623
157234473;-118.236182756620437;34.03708256715872;Paramount Export Company;1305 Wholesale Street;Los Angeles;48671;90021;34.0370826;-118.2361827;6490114.82247131;1835959.52520789
157234474;-118.534363356158181;34.229332166534903;Ideal Meat And Provisions Incorporated;18425 Parthenia Place;Northridge;48672;91325;34.2293322;-118.5343633;6400148.55686614;1906267.99056181
157234475;-117.828110857665123;34.053892467361898;California State Polytechnic University - Animal Veterinary Sciences Department;3801 West Temple Avenue;Pomona;48673;91768;34.0538925;-117.8281108;6613736.60311438;1842037.43496805
157234476;-118.415516756217599;34.206027666479841;European Meat Specialities;12926 Saticoy Street;North Hollywood;48674;91605;34.2060277;-118.4155167;6436036.97655897;1897617.39729872
157234477;-118.231746856842577;34.020209866705542;Crave Foods Incorporated;2043 Imperial Street;Los Angeles;48675;90021;34.0202099;-118.2317468;6491444.59376189;1829816.10212731
157234478;-117.989712156757577;34.029367567570226;Pocino Foods Company;14250 Lomitas Avenue;City Of Industry;48676;91746;34.0293676;-117.9897121;6564787.51105213;1833067.98112223
157234479;-118.215804956454434;33.78394956778763;Marisa Foods Division Of Santa Fe Importers Incorporated;1401 Santa Fe Avenue;Long Beach;48677;90813;33.7839496;-118.2158049;6496090.8341413;1743824.85416265
157234480;-117.751448657507041;34.091809267118528;Coahuila Foods;181 Gentry Street;Pomona;48678;91767;34.0918093;-117.7514486;6636923.88449563;1855884.60740489
157234481;-118.212072756043241;33.842393467430995;Can Transport;2807 East El Presidio Street;Carson;48679;90810;33.8423935;-118.2120727;6497269.85901421;1765091.69384673
157234482;-118.096467456512528;34.002813367455552;Daniels Western Meat Packers;5220 Van Norman Road;Pico Rivera;48680;90660;34.0028134;-118.0964674;6532431.92320439;1823418.24156348
157234483;-118.212629856563723;34.010745567229627;Baker Cold Storage Incorporated Doing Business As Inland Cold Storage;3001 Sierra Pine Avenue;Vernon;48681;90058;34.0107456;-118.2126298;6497230.2826498;1826359.05556373
157234484;-118.206521456100432;33.995683367164979;Jobbers Meat Packing Company Incorporated;3336 East Fruitland Avenue;Los Angeles;48682;90058;33.9956834;-118.2065214;6499070.24320872;1820873.76502514
157234485;-118.049639557051918;34.058404867037545;Bach Cuc Beef Jerky Incorporated;2541 Edwards Avenue;South El Monte;48683;91733;34.0584049;-118.0496395;6546635.02898447;1843638.77559739
157234486;-118.065392656314813;33.970160166912997;Lao Khitsada Food Incorporated;11540 East Washington Boulevard;Whittier;48684;90606;33.9701602;-118.0653926;6541842.68555081;1811527.48122431
157234487;-118.367634456243522;34.032130566972796;Felbro Food Products Incorporated;5700 West Adams Boulevard;Los Angeles;48685;90016;34.0321306;-118.3676344;6450282.88212222;1834277.02266739
157234488;-117.876482456657968;34.093343267109596;Raandom Corporation;725 East Edna Place;Covina;48686;91723;34.0933433;-117.8764824;6599066.92018346;1856372.79278022
157234489;-118.356269656014078;34.048830167229575;Royal Frozen Food;5423 West Pico Boulevard;Los Angeles;48687;90019;34.0488302;-118.3562696;6453747.7633158;1840341.89833289
157234490;-118.321758456799202;34.184982166877838;R.C. Provision Incorporated;1016 Victory Place;Burbank;48688;91502;34.1849822;-118.3217584;6464360.59478039;1889854.63526523
157234491;-118.216688856020568;33.908831167542296;Conagra Foods Incorporated;1805 North Santa Fe Avenue;Compton;48689;90221;33.9088312;-118.2166888;6495920.20324896;1789272.91910623
157234492;-118.247429355936617;34.029703766595283;Peoples Sausage Company;1132 East Pico Boulevard;Los Angeles;48690;90021;34.0297038;-118.2474293;6486700.87359056;1833282.43837048
157234493;-118.213628056442928;34.009787767426239;C And H Meat Company;3017 Bandini Boulevard;Vernon;48691;90058;34.0097878;-118.213628;6496927.02571039;1826011.13499972
157234494;-118.209222156441484;33.99620256707442;Rbr Meat Company Incorporated;5151 Alcoa Avenue;Vernon;48692;90058;33.9962026;-118.2092221;6498252.01026514;1821064.40506381
157234495;-118.213096756862853;34.014967366822546;Preferred Freezer Services - Los Angeles;3100 East Washington Boulevard;Los Angeles;48693;90023;34.0149674;-118.2130967;6497092.04014413;1827895.7499969
157234496;-118.356342156457856;34.048865866773774;V D Sausage Factory;5425 West Pico Boulevard;Los Angeles;48694;90019;34.0488659;-118.3563421;6453725.84734914;1840354.96786056
157234497;-118.340854755630815;33.978667666533632;Royal Palate Foods Incorporated;960 East Hyde Park Boulevard;Inglewood;48695;90302;33.9786677;-118.3408547;6458330.70296881;1814792.29982589
157234498;-118.217409256258748;34.003398466704709;Ccp Poultry And Meat Corporation;2900 East 44Th Street;Vernon;48696;90058;34.0033985;-118.2174092;6495776.04671314;1823688.40080006
157234499;-118.213746256113225;34.020299667302567;Interstate Poultry Incorporated;3050-A East 11Th Street;Los Angeles;48697;90023;34.0202997;-118.2137462;6496899.33810171;1829836.69493389
157234500;-118.252077056404502;33.787916767739965;Preferred Freezer Services - Wilmington;900 East M Street;Wilmington;48698;90744;33.7879168;-118.252077;6485071.99167772;1745294.27773298
157234501;-117.730133057933415;34.060381967122424;Shelton Poultry Incorporated;204 North Loranne Avenue;Pomona;48699;91767;34.060382;-117.730133;6643408.27014889;1844464.29789647
157234502;-118.208447856061397;34.006201666960152;United Food Group Limited Liability Company;3501 East Vernon Avenue;Vernon;48700;90058;34.0062017;-118.2084478;6498494.25781214;1824702.78689465
157234503;-118.243706756185162;34.014809466852412;Mountain Meadow Productions Corporation Doing Business As Everest Meats;1617 East 25Th Street;Los Angeles;48701;90011;34.0148095;-118.2437067;6487815.65318514;1827859.36489905
157234504;-118.210312756433169;34.006026467353735;United Food Group Limited Liability Company;3425 East Vernon Avenue;Vernon;48702;90058;34.0060265;-118.2103127;6497928.91379847;1824640.20565498
157234505;-118.217084956756793;33.998473167136645;Randall Foods Incorporated;2905 East 50Th Street;Vernon;48703;90058;33.9984732;-118.2170849;6495870.46712796;1821895.77512023
157234506;-118.216807156404656;34.006344866718877;Americold Realty Limited Liability Company Doing Business As Americold Logistics - Vernon;3163 East Vernon Avenue;Vernon;48704;90058;34.0063449;-118.2168071;6495960.84883697;1824760.25922064
157234507;-118.118088056154065;34.009638366754153;Luck Nabeshima;1514 West Olympic Boulevard;Montebello;48705;90640;34.0096384;-118.118088;6525881.83328623;1825908.98953472
157234508;-118.21751625653927;33.950632267522472;South Gate Meat Company;9336 Long Beach Boulevard;South Gate;48706;90280;33.9506323;-118.2175162;6495702.06293721;1804485.78336547
157234509;-118.205660956280752;34.006174366980105;Yonekyu Usa Incorporated;3615 East Vernon Avenue;Vernon;48707;90058;34.0061744;-118.2056609;6499338.88604413;1824691.11204922
157234510;-118.343477055875582;33.816417366893248;Yamaya Usa Incorporated;3420 Kashiwa Street;Torrance;48708;90505;33.8164174;-118.343477;6457333.91690464;1755748.63904206
157234511;-118.204643456387956;33.986507867209134;Pontrelli And Laircchia Limited;6080 Malburg Way;Vernon;48709;90058;33.9865079;-118.2046434;6499632.69746439;1817533.45313622
157234512;-118.171690756575245;33.933151167510069;Southgate Foods Incorporated;10615 Ruchti Road;South Gate;48710;90280;33.9331512;-118.1716907;6509589.12965122;1798097.12881997
157234513;-118.214447855867036;33.997768066593167;Vie De France Corporation;3046 East 50Th Street;Vernon;48711;90058;33.9977681;-118.2144478;6496669.24112096;1821637.45936389
157234514;-118.218896756136658;34.011184166729201;Pilot Water Tower Cold Storage;2820 South Soto Street;Vernon;48712;90058;34.0111842;-118.2188967;6495331.37306181;1826522.74716547
157234515;-118.072115156955363;34.062117567419158;Phu Huong Food Company Incorporated;9008 East Garvey Avenue;Rosemead;48713;91770;34.0621176;-118.0721151;6539828.3687133;1844994.02124648
157234516;-118.057963257202189;34.047952266737234;Out Of Shell;9658 Remer Street;South El Monte;48714;91733;34.0479523;-118.0579632;6544111.67182647;1839836.22119464
157234517;-118.060763056578125;34.053258167198038;Chaur Fong Incorporated;2111 Chico Avenue;South El Monte;48715;91733;34.0532582;-118.060763;6543264.7023918;1841767.64220056
157234518;-117.976778557136925;34.035483666763199;Rice Field Corporation;14500 East Valley Boulevard;City Of Industry;48716;91746;34.0354837;-117.9767785;6568705.81227064;1835294.40416281
157234519;-118.327281855718596;33.865282966796208;Baehwawon Incorporated;3138 West 182Nd Street;Torrance;48717;90504;33.865283;-118.3272818;6462311.34166105;1773515.57430865
157234520;-118.218411256389501;33.859700067430865;Transfreight Express Company;18924 South Laurel Park Road;Compton;48718;90220;33.8597001;-118.2184112;6495358.72405697;1771394.10840723
157234521;-118.224322156754468;33.961703467498978;Golden Eagle Services;8329 Long Beach Boulevard;South Gate;48719;90280;33.9617035;-118.2243221;6493646.96566947;1808519.35895973
157234522;-118.225608456314063;34.205363966545541;Gelsinger Meats Incorporated;2209 Honolulu Avenue;Montrose;48720;91020;34.205364;-118.2256084;6493455.92897806;1897192.74886981
157234523;-118.2358928565898;33.978611467443301;Windsor Quality Food Company Limited;6711 Alameda Street;Los Angeles;48721;90001;33.9786115;-118.2358928;6490152.71642439;1814680.55464256
157234524;-118.432359056015343;34.257909566572337;Me Gusta Gourmet Tamales;13752 Van Nuys Boulevard;Pacoima;48722;91331;34.2579096;-118.432359;6431025.8737203;1916519.46218482
157234525;-118.003250757370381;34.141157167066389;Anderson Valley Ranch Beef Jerkey;1007 South Primrose Avenue;Monrovia;48723;91016;34.1411572;-118.0032507;6560686.69674721;1873750.19503322
157234526;-118.083033356173289;34.063349966927071;Bmc Cali Incorporated Doing Business As Golden Medallion Foods;8513 East Garvey Avenue;Rosemead;48724;91770;34.06335;-118.0830333;6536521.87532631;1845445.06693231
157234527;-117.78427145708234;34.058720767622809;Julita Incorporated Doing Business As Festival Foods;2037 Mount Vernon Avenue;Pomona;48725;91768;34.0587208;-117.7842714;6627012.03227213;1843820.14760998
157234528;-118.249578855873281;33.865488067481884;Two Chefs On A Roll Incorporated;18201 Central Avenue;Carson;48726;90746;33.8654881;-118.2495788;6485901.20819513;1773522.52639447
157234529;-118.493112355878111;34.199600966721512;Alfred Meat And Provision Company;7108 Gerald Avenue;Van Nuys;48727;91406;34.199601;-118.4931123;6412564.29679839;1895384.67243348
157234530;-118.116558056086234;34.007306767326156;Marquez Brothers International Incorporated;1328 Colegrove Avenue;Montebello;48728;90640;34.0073068;-118.116558;6526344.54069413;1825059.93250582
157234531;-118.165712756306306;33.953862167289422;Konoike-General Incorporated Doing Business As General Cold Storage;8457 South Eastern Avenue;Bell Gardens;48729;90201;33.9538622;-118.1657127;6511414.93899173;1805631.26368606
157234532;-118.241479456493252;33.794123067376532;Konoike-Pacific California Incorporated;1420 Coil Avenue;Wilmington;48730;90744;33.7941231;-118.2414794;6488297.69159114;1747545.01010814
157234533;-118.048977157013766;34.017874466955028;Einstein And Noah Restaurant Group - Whittier Bagel And Commissary;10050 Mission Mill Road;Whittier;48731;90601;34.0178745;-118.0489771;6546828.47708839;1828888.86743322
157234534;-117.938092556771821;34.093420967139792;Ready Pac Produce Incorporated;4401 Foxdale Street;Irwindale;48732;91706;34.093421;-117.9380925;6580413.63104655;1856383.86329615
157234535;-118.225600356648172;33.933998066943765;Mister Jays Tamales And Chili;11200 South Alameda Street;Lynwood;48733;90262;33.9339981;-118.2256003;6493236.73650305;1798437.65044865
157234536;-118.206478456870329;34.046685667084013;Alma Meat Company;2433 1/2 Cesar Estrada Chavez Avenue;Los Angeles;48734;90033;34.0466857;-118.2064784;6499121.40288331;1839434.45887481
157234537;-118.053499856882581;33.891928367413996;Day-Lee Foods Incorporated;13055 East Molette Street;Santa Fe Springs;48735;90670;33.8919284;-118.0534998;6545433.54090188;1783055.04833989
157234538;-118.241626756011044;34.00352696705361;Macsei Industries Corporation;1784 E Vernon Avenue;Los Angeles;48736;90058;34.003527;-118.2416267;6488436.12077622;1823751.92429507
157234539;-118.3710606567128;34.23670446614112;Glenoaks Food Incorporated;11030 Randall Street;Sun Valley;48737;91352;34.2367045;-118.3710606;6449519.62511855;1908728.57159865
157234540;-118.043873556726737;34.044190766741892;A1 Meat Solution;1457 Lidcombe Avenue;El Monte;48738;91733;34.0441908;-118.0438735;6548379.23415747;1838465.17603648
157234541;-117.950901356832503;34.011044067484704;Venus Foods Incorporated;770 Stimson Avenue;City Of Industry;48739;91745;34.0110441;-117.9509013;6576550.24507256;1826403.16702406
157234542;-118.186014856312255;33.890648266957498;Omni Foods Manufacturer;6305 Alondra Boulevard;Paramount;48740;90723;33.8906483;-118.1860148;6505215.39299189;1782637.10363773
157234543;-118.196582656776798;34.063854166485342;Ai Food Corporation;1700 North Soto Street;Los Angeles;48741;90033;34.0638542;-118.1965826;6502131.37291323;1845676.38667965
157234544;-118.114142756045325;34.007117967412093;Completely Fresh Foods Incorporated;1117 West Olympic Boulevard;Montebello;48742;90640;34.007118;-118.1141427;6527076.47886281;1824990.38441657
157234545;-118.212137456432757;34.005341866571236;Versacold Logistics Services Incorporated;3420 East Vernon Avenue;Vernon;48743;90058;34.0053419;-118.2121374;6497375.36011556;1824392.22813256
157234546;-118.242583455860796;33.807697067277779;Versacold Logistics Services Incorporated;1610 Sepulveda Boulevard;Carson;48744;90745;33.8076971;-118.2425834;6487974.16763188;1752485.75285131
157234547;-118.221661956128983;34.008297167031621;Clougherty Packing Company;2750 37Th Street;Vernon;48745;90058;34.0082972;-118.2216619;6494491.03451939;1825473.94841006
157216039;-118.408909356488621;34.707223465696373;Antelope Valley Sportsmans Club;45408 160Th Street West;Lancaster;30217;93536;34.7072235;-118.4089093;6438776.73256239;2080004.15588406
157216040;-118.306266156191271;33.817677267542479;Glencoe Farm And Kennels;22908 Lockness Ave;Torrance;30218;90501;33.8176773;-118.3062661;6468638.65938698;1756170.61621648
157216041;-118.282050356140616;34.074526366432551;Grisco, Ronald E.;237 N Dillon St;Los Angeles;30219;90026;34.0745264;-118.2820503;6476256.73338963;1849621.81809323
157216042;-118.292518056851193;34.759623165424465;Clutter Sr, Bob C.;48205 91St St W;Lancaster;30220;93536;34.7596232;-118.292518;6473812.34588997;2098952.01726648
157235123;-118.404923056042932;34.069886966444187;Sjs Usa, Inc.;468 N. Camden Dr.;Beverly Hills;49323;90210;34.069887;-118.404923;6439040.43118197;1848060.61649123
157235124;-118.242546055864523;33.807579966894409;Versacold (Us);1610 East Sepulveda Blvd.;Carson;49324;90745;33.80758;-118.242546;6487985.42679572;1752443.10956389
157235125;-117.974132056407186;34.0284279675124;Versacold (Us);14840 East Proctor Avenue;City Of Industry;49325;91746;34.028428;-117.974132;6569508.29098064;1832726.89125323
157235126;-118.221815056529422;33.849323967262407;Versacold (Us);19840 Rancho Way;Compton;49326;90220;33.849324;-118.221815;6494316.96859455;1767620.25768723
157235127;-118.236000056347777;34.004786966572915;U.S. Growers Cold Storage, Inc.;2035 E. Vernon Ave.;Los Angeles;49327;90058;34.004787;-118.236;6490142.58061789;1824206.41091889
157235128;-118.23536005608554;34.005339967329611;U.S. Growers Cold Storage, Inc.;2045 E. Vernon Ave.;Los Angeles;49328;90058;34.00534;-118.23536;6490337.02511089;1824407.2038244
157235129;-118.218688056300834;34.00419596685839;U.S. Growers Cold Storage, Inc.;2825 East 44Th St.;Los Angeles;49329;90058;34.004196;-118.218688;6495389.08882564;1823979.46747515
157235130;-118.217300056394549;34.004193967070421;U.S. Growers Cold Storage, Inc.;2851 East 44Th St.;Los Angeles;49330;90058;34.004194;-118.2173;6495809.7697428;1823977.82738656
157235131;-118.213074055937597;34.01491396704602;Preferred Freezer Services Of Los Angeles;3100 E. Washington Blvd.;Los Angeles;49331;90023;34.014914;-118.213074;6497098.87838505;1827876.30220114
157235132;-118.212422056329189;34.004223966581407;U.S. Growers Cold Storage, Inc.;3141 E. 44Th Street;Los Angeles;49332;90058;34.004224;-118.212422;6497288.24349189;1823985.5845889
157235133;-118.210235056400705;34.015736966711444;Aztlan Cold Storage, Inc.;3185 Washington Blvd.;Los Angeles;49333;90023;34.015737;-118.210235;6497959.8540253;1828173.99615955
157235134;-118.210388056401285;34.004297967362021;U.S. Growers Cold Storage, Inc.;3211 E. 44Th Street;Los Angeles;49334;90058;34.004298;-118.210388;6497904.7753953;1824011.21839589
157235135;-118.209267055952211;34.004407966916105;U.S. Growers Cold Storage, Inc.;3269 E. 44Th Street;Los Angeles;49335;90058;34.004408;-118.209267;6498244.6172353;1824050.54016764
157235136;-118.210451056435858;34.005258967305643;Versacold (Us);3420 East Vernon Avenue;Los Angeles;49336;90058;34.005259;-118.210451;6497886.4132273;1824360.98508482
157235137;-118.239265056405273;34.043447967154137;Los Angeles Cold Storage Co.;400 S. Central Ave;Los Angeles;49337;90013;34.043448;-118.239265;6489186.50378989;1838278.2213579
157235138;-118.238881056005468;34.043025966895335;Los Angeles Cold Storage Co.;410 South Central Avenue;Los Angeles;49338;90013;34.043026;-118.238881;6489302.46910913;1838124.37094381
157235139;-118.191935056680023;34.003449966932777;Castle & Cooke Cold Storage;4100 Bandini Blvd.;Los Angeles;49339;90023;34.00345;-118.191935;6503497.01585121;1823691.42179139
157235140;-118.203353056454645;33.999180966974166;Versacold (Us);4224 District Boulevard;Los Angeles;49340;90058;33.999181;-118.203353;6500033.21175522;1822144.6529033
157235141;-118.200022055987674;34.002775966946729;U.S. Growers Cold Storage, Inc.;4353 Exchange Avenue;Los Angeles;49341;90058;34.002776;-118.200022;6501045.45349714;1823450.91866347
157235142;-118.239018056366618;34.042349966996703;Los Angeles Cold Storage Co.;440 So. Central Ave.;Los Angeles;49342;90013;34.04235;-118.239018;6489260.38061063;1837878.46067448
157235143;-118.228863056720442;34.036066966677133;Rancho Cold Storage;670 Mesquit Street;Los Angeles;49343;90021;34.036067;-118.228863;6492331.60281463;1835584.79925132
157235144;-118.237104056723183;33.977643966660274;Glacier Cold Storage, Ltd.;6820 Wilson Avenue;Los Angeles;49344;90001;33.977644;-118.237104;6489784.67680614;1814329.32568623
157235145;-118.239199055857242;34.04393096704181;Los Angeles Cold Storage Co.;715 East Fourth Street;Los Angeles;49345;90013;34.043931;-118.239199;6489206.91647872;1838453.94640015
157235146;-118.201684056504988;33.997131967406389;Unicold Corporation;4339 Fruitland Avenue;Los Angeles (Vernon);49346;90058;33.997132;-118.201684;6500537.59558897;1821397.96213947
157235147;-118.113662056913441;33.975284966937643;L.A. Consolidation Cold Storage, Inc.;7820 Industry Ave.;Pico Rivera;49347;90660;33.975285;-118.113662;6527209.06783646;1813405.53816372
157235148;-118.234580055802383;33.992422966699785;Preferred Freezer Services Of Vernon;2050 E. 55Th Street;Vernon;49348;90058;33.992423;-118.23458;6490562.45838705;1819705.9022034
157235149;-118.234507056680442;33.992741966861864;Preferred Freezer Services Ultra Freeze;2100 E. 55Th Street;Vernon;49349;90058;33.992742;-118.234507;6490584.85729238;1819821.94101331
157235150;-118.231401056092054;33.991630966581042;Rdm Warehouse;2380 E 57Th Street;Vernon;49350;90058;33.991631;-118.231401;6491525.43841647;1819415.4441229
157235151;-118.215848056485044;33.997716967333922;Arctic Glacier Vernon Inc.;2970 E. 50Th St.;Vernon;49351;90058;33.997717;-118.215848;6496244.78822972;1821619.77173522
157235152;-118.21034805641078;34.014798966656663;Preferred Freezer Services Of Los Angeles #7;3050 E. Washington Blvd.;Vernon;49352;90058;34.014799;-118.210348;6497924.89576189;1827832.71140906
157235153;-118.211544055933047;34.010898966812988;Castle & Cooke Cold Storage;3100 Sierra Pine;Vernon;49353;90058;34.010899;-118.211544;6497559.46473423;1826414.18635897
157235154;-118.216726055946978;34.006251966653437;Americold Logistics Llc;3163 East Vernon Ave;Vernon;49354;90058;34.006252;-118.216726;6495985.35567772;1824726.39806789
157235155;-118.213124056330003;34.014918966998202;Preferred Freezer Services Of Washington Blvd.;3200 E Washington Blvd.;Vernon;49355;90589;34.014919;-118.213124;6497083.72979331;1827878.15390348
157235156;-118.176839056852288;33.99884996707349;Preferred Freezer Services Of Lbf;4900 Bandini Blvd.;Vernon;49356;90040;33.99885;-118.176839;6508069.49161439;1822008.99733473
157235157;-118.25217705593802;33.787938967122926;Preferred Freezer Services Of Wilmington;900 East M St.;Wilmington;49357;90744;33.787939;-118.252177;6485041.62526864;1745302.4329004
157235158;-118.251504055920094;33.776994967665253;E Street Cold Logistics, Llc;"""901 East """"E"""" Street""";Wilmington;49358;90744;33.776995;-118.251504;6485236.16326539;1741319.10326864
