OBJECTID;X;Y;org_name;Name;addrln1;city;post_id;description;zip;latitude;longitude;POINT_X;POINT_Y
157190665;-118.225636056872005;34.048543967288403;;Impacto Leadership Challenge - Elementary School Component Site;1300 Plaza Del Sol;Los Angeles;783;The agency provides business services, child care, community services, homeless support services, shelter for homeless, volunteer opportunities and youth services to low-income people in the Spanish-speaking community of East Los Angeles.;90033;34.048544;-118.225636;6493319.47911972;1840123.20290415
157190670;-118.2278710566423;34.048870967229242;;Impacto Leadership Challenge - Junior/High School College Prep. Component Site;135 N. Mission Rd.;Los Angeles;784;The agency provides business services, child care, community services, homeless support services, shelter for homeless, volunteer opportunities and youth services to low-income people in the Spanish-speaking community of East Los Angeles.;90033;34.048871;-118.227871;6492642.71210055;1840243.73153448
157190709;-118.244317055880742;34.048457967080687;;Little Tokyo Service Center - A Community Development Corporation;231 E. Third St.;Los Angeles;810;The agency provides child care, counseling services, services for older adults and youth services for Japanese immigrants and Japanese-Americans in Los Angeles County.;90013;34.048458;-118.244317;6487660.46681572;1840105.13437073
157191084;-118.09833905630002;34.093824966693404;www.lacasacommunitycenter.org;La Casa Community Center;203 E. Mission Rd.;San Gabriel;1075;The center provides child care and health services targeted, but not restricted, to the low-income Spanish-speaking community.;91776;34.093825;-118.098339;6531897.0597728;1856539.67597665
157191590;-118.474666056331174;34.41853696600851;www.scvbgc.org;Sierra Vista Branch;19425 Stillmore St.;Canyon Country;2018;The club provides child care and youth services for boys and girls ages 7 to 17.;91355;34.418537;-118.474666;6418518.23895872;1975031.86287631
157191594;-118.538194056615637;34.386395966032808;www.scvbgc.org;Santa Clarita Valley Boys And Girls Club;24909 Newhall Ave.;Newhall;2020;The club provides child care and youth services for boys and girls ages 7 to 17.;91321;34.386396;-118.538194;6399296.7009583;1963431.80208698
157191614;-118.042652856252502;33.982202537035107;www.ymcawhittier.org;YMCA Of Greater Whittier;12510 Hadley St;Whittier;;;;;;;
157191625;-118.251594056017694;33.974636967052334;www.childrenscollective.org;Children's Collective Inc - Florence - Firestone;7217 S. Mace Pl.;Los Angeles;2055;The agency provides child care, education services, family support services and services for people with developmental disabilities in the South Central Los Angeles area.;90001;33.974637;-118.251594;6485388.84045348;1813245.69760415
157191627;-118.267979056753589;34.011440967197451;www.childrenscollective.org;Children's Collective Inc - King - San Pedro;3817 S. San Pedro St.;Los Angeles;2056;The agency provides child care, education services, family support services and services for people with developmental disabilities in the South Central Los Angeles area.;90011;34.011441;-118.267979;6480456.74467464;1826652.22590914
157191629;-118.223365055620391;33.795030967760539;www.ccdlb.org;Comprehensive Child Development - Cabrillo Child Development Center;2205 San Gabriel Ave.;Long Beach;2057;The center provides child care and a State Preschool for income-eligible families.;90810;33.795031;-118.223365;6493802.4115528;1747862.69287173
157191632;-118.366850056193258;33.989118966692523;www.crystalstairs.org/;Crystal Stairs;5110 W. Goldleaf Circle;Los Angeles;2058;This agency provides child care information and referral, early childhood education, health insurance and technical assistance.;90056;33.989119;-118.36685;6450463.41588189;1818623.46506381
157191634;-118.267688055994924;34.070515967199903;NULL;Burlington Day Care Inc;420 N. Alvarado St.;Los Angeles;2060;The agency provides child care for children ages 1 to 5 who live in the Los Angeles County area.;90026;34.070516;-118.267688;6480602.18696906;1848150.46900181
157191636;-118.272747055638604;33.773714967073552;www.ccdlb.org;Comprehensive Child Development - New Harbor Vista Child Development Center;909 W. D St.;Wilmington;2061;The center provides child care and a State Preschool for income-eligible families.;90744;33.773715;-118.272747;6478777.01411022;1740142.25719714
157191638;-118.293202055448063;33.741383967278352;www.ccdlb.org;Comprehensive Child Development - Third Street Child Development Center;739 W. 3rd St.;San Pedro;2062;The center provides child care and a State Preschool for income-eligible families.;90731;33.741384;-118.293202;6472526.02300331;1728393.60713807
157191641;-118.349480055718814;34.013979966673354;www.childrenscollective.org;Children's Collective Inc - Mcalister High School Infant - Toddler Center;4525 Pinafore St.;Los Angeles;2069;The agency provides child care, education services, family support services and services for people with developmental disabilities in the South Central Los Angeles area.;90008;34.01398;-118.34948;6455760.39216456;1827652.07528739
157191653;-118.290247056487217;33.961119966999917;www.childrenscollective.org;Children's Collective Inc - Rita Walters Child Care Center;932 W. 85th St.;Los Angeles;2080;The agency provides child care, education services, family support services and services for people with developmental disabilities in the South Central Los Angeles area.;90044;33.96112;-118.290247;6473655.35539031;1808358.17982015
157191660;-118.287254056401437;33.990202966706903;www.childrenscollective.org;Children's Collective Inc - Hoover Street Childcare Center;5701 S. Hoover St.;Los Angeles;2088;The agency provides child care, education services, family support services and services for people with developmental disabilities in the South Central Los Angeles area.;90037;33.990203;-118.287254;6474593.20095555;1818939.44704339
157191687;-118.302988056025853;34.030270966716493;LA City Department Recreation and Parks;Loren Miller Recreation Center;2717 Halldale Ave.;Los Angeles;;;;;;;
157191715;-118.320520055962476;34.003814967045962;www.ywcagla.org;Ywca Of Greater Los Angeles - Angeles Mesa;2501 W. Vernon Ave.;Los Angeles;2151;The program provides adult education, child care, recreation programs and youth services for people of all ages who live in the South Central Los Angeles area.;90008;34.003815;-118.32052;6464524.8953048;1823923.59521157
157191731;-118.455821055832061;34.006309967181913;LA City Department Recreation and Parks;Penmar Recreation Center;1341 Lake St.;Venice;;;;;;;
157191900;-118.204483056860468;34.039139966872369;LA City Department Recreation and Parks;Evergreen Recreation Center;2844 E. 2nd St.;Los Angeles;;;;;;;
157191902;-118.186352056085042;34.142467966520819;LA City Department Recreation and Parks;Eagle Rock Recreation Center;1100 Eagle Vista Dr.;Los Angeles;;;;;;;
157191937;-117.720738957198975;34.061449567012133;www.pomonaymca.org;YMCA Pomona Valley;1460 E Holt Ave;Pomona;2673;The agency provides child care, and recreational programs for people who live, primarily, in the Pomona Valley.;91767;34.0614496;-117.7207389;6646252.4905103;1844860.58877055
157191946;-118.248847056266044;34.04237596718685;NULL;Las Familias Del Pueblo;307 E. 7th St.;Los Angeles;2679;This is a community center that provides child care and legal services for families who live and work in the Central City area of Los Angeles which is bounded by Alameda St.;90014;34.042376;-118.248847;6486282.73728772;1837895.14863323
157191947;-118.270380756823343;34.068954376549208;www.laparks.org/dos.htm;Lake Street Community Center;227 N Lake St;Los Angeles;2681;The department provides recreational programs through operation and maintenance of Los Angeles City parks, playgrounds, swimming pools, golf courses and recreation centers.;90057;34.06895441;-118.2703807;6479785.18761881;1847584.36088206
157191958;-118.57123305599012;34.222787965977716;LA City Department Recreation and Parks;Winnetka Recreation Center;8401 Winnetka Ave.;Winnetka;2690;The department provides recreational programs through operation and maintenance of Los Angeles City parks, playgrounds, swimming pools, golf courses and recreation centers.;91306;34.222788;-118.571233;6388990.55031081;1903947.76587155
157191964;-117.994574056645078;33.940274966861736;www.ymcawhittier.org;YMCA Of Greater Whittier-East Whittier Branch;15740 E. Starbuck St.;Whittier;2695;The center provides child care, recreational programs and services for people with disabilities for people of all ages who primarily live in La Habra Heights, La Mirada, Norwalk, Pico Rivera, Santa Fe Springs and Whittier.;90603;33.940275;-117.994574;6563316.13177705;1800645.20541672
157192036;-118.194571056646268;33.845065966956099;www.yhcc-lb.com;Young Horizons - Grisham Cdc Site;11A W. 49th St.;Long Beach;2771;The agency provides early childhood education services to low-income families who live or work in the City of Long Beach.;90805;33.845066;-118.194571;6502586.50520505;1766053.53247423
157192065;-118.147635057190385;34.1734969672058;NULL;Washington Children's Center;130 Penn St.;Pasadena;2800;The center provides child care services for people who live in the Pasadena Unified School District.;91103;34.173497;-118.147635;6517014.71880263;1885552.01362115
157192070;-118.17772425675706;34.169286916958796;www.lvcckids.org/;Linda Vista Children's Center;1259 Linda Vista Ave;Pasadena;2806;The center provides child care primarily for families who live in the Pasadena/San Gabriel Valley area.;91103;34.16928695;-118.1777242;6507910.84691855;1884034.63148531
157192076;-118.127386056946477;34.169636967200809;NULL;Longfellow Children's Center;1377 N. Mar Vista Ave.;Pasadena;2814;The center provides child care services for residents who live in the Pasadena Unified School District area.;91104;34.169637;-118.127386;6523137.71180597;1884138.91211665
157192165;-118.071865056103618;33.842956967110183;NULL;Artesia Children's Center;20650 Norwalk Blvd.;Lakewood;2904;The center provides child care for pre-school aged children of low-income families who live in the ABC Unified School District.;90715;33.842957;-118.071865;6539847.09964697;1765236.63253322
157192173;-118.587053055495844;34.200858966235842;www.ValleyVillage.org;Valley Village;20830 Sherman Way;Winnetka;2907;The agency provides adult day health care, out of home care, and services for people with developmental disabilities for people age 18 and older who live in the San Fernando Valley.;91306;34.200859;-118.587053;6384161.72040156;1895995.09640948
157192208;-118.193300055679572;33.801179966931862;www.yhcc-lb.com;Young Horizons - North Pacific Cdc Site;2418 Pacific Ave.;Long Beach;2942;The agency provides early childhood education services to low-income families who live or work in the City of Long Beach.;90806;33.80118;-118.1933;6502941.74662055;1750081.5453894
157192216;-117.951164057503064;34.139609966643093;www.maryvale-ca.org;Maryvale Infant, Preschool And Kindergarten Educational Center - Duarte;2500 E. Huntington Dr.;Duarte;2950;The center provides comprehensive child care services for children age nine months to six years.;91010;34.13961;-117.951164;6576447.89652397;1873190.71518107
157192221;-117.745500057501246;34.096371967339735;www.casacolina.org;Casa Colina Centers For Rehabilitation - Children's Services;255 E. Bonita Ave.;Pomona;2955;The center provides comprehensive rehabilitation services for children with disabilities, age 0 to 16.;91767;34.096372;-117.7455;6638720.72571822;1857549.56142406
157192298;-118.079098057038308;34.140577966910008;NULL;Willard Children's Center;345 S. Halstead;Pasadena;3039;The center provides child care services for people who live and work in the Pasadena Unified School District.;91107;34.140578;-118.079098;6537735.88110039;1873548.81354623
157192338;-118.118695057274323;34.153758966614831;NULL;Jefferson Children's Center;391 N. Sierra Bonita Ave.;Pasadena;3076;The center provides child care services for residents who live, work, or study in the Pasadena Unified School District.;91106;34.153759;-118.118695;6525759.80236231;1878357.4049789
157192404;-118.185354056066188;33.773235967690034;www.yhcc-lb.com;Young Horizons Child Development Centers;501 Atlantic Ave.;Long Beach;3134;The agency provides early childhood education services to low-income families who live or work in the City of Long Beach.;90802;33.773236;-118.185354;6505337.15259089;1739907.41317864
157192414;-118.193882055734974;33.773022967610416;www.yhcc-lb.com;Young Horizons - South Pacific State Preschool;507 Pacific Ave.;Long Beach;3138;The agency provides early childhood education services to low-income families who live or work in the City of Long Beach.;90802;33.773023;-118.193882;6502745.15843105;1739834.78569923
157192446;-118.311664055928631;34.096727966872088;www.assistanceleaguesocal.org;Assistance League Of Southern California - Children's Club;5620 De Longpre Ave.;Los Angeles;3169;The program provides child care services for children age 4 years 9 months to 12 years.;90028;34.096728;-118.311664;6467313.86348014;1857727.84650056
157192484;-118.184224056300181;33.79692796755387;www.ccdlb.org;Comprehensive Child Development - Long Beach Center For Child Development;622 E. Hill St.;Long Beach;3202;The center provides child care and a State Preschool for income-eligible families.;90806;33.796928;-118.184224;6505696.38612439;1748528.95072556
157192526;-118.103680056850081;34.055222967294945;www.maryvale-ca.org;Maryvale Infant, Preschool And Kindergarten Educational Center;7600 E. Graves Ave.;Rosemead;3242;The center provides comprehensive child care services for children age nine months to six years.;91770;34.055223;-118.10368;6530265.52136922;1842493.30380698
157242805;-118.2278710566423;34.048870967229242;www.proyectopastoral.org;Proyecto Pastoral At Dolores Mission;135 N. Mission Rd.;Los Angeles;57006;The agency provides business services, child care, community services, homeless support services, shelter for homeless, volunteer opportunities and youth services to low-income people in the Spanish-speaking community of East Los Angeles.;90033;34.048871;-118.227871;6492642.71210055;1840243.73153448
157242917;-117.862933156940841;34.07356337745091;www.optionscc.org;Options - A Child Care And Human Services Agency;885 S Village Oaks Dr;Covina;57082;The agency provides child care and family service programs for people who live in portions of the San Gabriel Valley and Northeast Los Angeles.;91724;34.07356341;-117.8629331;6603178.96412472;1849179.84030265
157242921;-118.556723056583081;34.407613965991573;www.ymcala.org/;YMCA Santa Clarita Valley Family;26147 McBean Pkwy.;Valencia;;;;;;;
157242926;-117.819785056989417;34.030206967047924;NULL;YMCA Diamond Bar / Walnut;22600 Sunset Crossing Rd.;Diamond Bar;57085;The agency provides child care and recreational programs for people of all ages who live primarily in Diamond Bar, Phillips Ranch and Walnut.;91767;34.030207;-117.819785;6616273.99009997;1833422.24747406
157242932;-118.190314056058156;33.774381967180901;www.lbymca.org;YMCA Downtown Long Beach;225 E. 6th St.;Long Beach;57087;The agency provides child care and recreational programs for people of all ages who live primarily in Long Beach.;90802;33.774382;-118.190314;6503830.49024989;1740327.29127589
157242936;-117.988384057294567;34.145859966498904;www.ymcala.org/santaanita;YMCA Santa Anita Family;501 S. Mountain Ave.;Monrovia;;;;;;;
157242940;-118.092275556911858;34.149237026572209;www.ymcala.org/pas;Pasadena YMCA;2844 E Foothill Blvd;Pasadena;57090;The agency provides child care and recreational programs for youth in the Altadena, Pasadena and Sierra Madre areas.;91107;34.14923706;-118.0922755;6533751.36479121;1876703.40139714
157242941;-118.258744056384757;34.068269966618914;www.laparks.org/dos/reccenter/facility/echoParkRC.htm;Echo Park Youth Center;515 Laveta Terrace;Los Angeles;57091;The agency provides youth services for children ages 5 to 13 who live in the Echo Park area.;90026;34.06827;-118.258744;6483308.72814389;1847326.0162544
157242943;-118.144461057494311;34.693545965637561;www.alav.org;Assistance League Of Antelope Valley;808 W. Newgrove St.;Lancaster;57093;The agency provides early childhood education services for families who live in the Antelope Valley.;93534;34.693546;-118.144461;6518246.75505248;2074807.72270739
157242945;-118.201436055894817;33.766325967747804;www.chs-ca.org/;Children's Home Society Of California;330 Golden Shore;Long Beach;57094;The agency provides child care information and referral for families and eligible low income families who live in Artesia, Avalon, Bellflower, Cerritos, Hawaiian Gardens, Lakewood, Long Beach, Norwalk, San Pedro, Signal Hill, and Wilmington areas.;90802;33.766326;-118.201436;6500444.44387239;1737402.07402922
157242948;-118.13371105604007;34.019214966772665;www.maof.org;Mexican American Opportunity Foundation;401 N. Garfield Ave.;Montebello;;;;;;;
157242952;-118.154410056794305;34.017944967448337;www.maof.org;Mexican American Opportunity Foundation - Goodrich Family Resource Center;972 S. Goodrich Blvd.;City of Commerce;57103;The agency provides child care information and referral, early childhood education, education services, home improvement services, services for older adults, and WIA programs.;90022;34.017945;-118.15441;6514878.5091643;1828946.8463199
157242958;-118.45690205594893;34.018399967096435;www.connectionsforchildren.org;Connections For Children;2701 Ocean Park Blvd.;Santa Monica;57106;The agency provides child care information and referral, financial assistance, and technical assistance to individuals on the Westside and South Bay communities of Los Angeles County.;90405;34.0184;-118.456902;6423213.65706131;1829391.16498506
157242959;-118.209663056372491;34.046523967360606;www.CaliforniaChildrensAcademy.org;California Children's Academy - Early Learning Center;233 N. Breed St.;Los Angeles;57107;The agency provides child care services and early education development for children ages 6 weeks to 5 years who live in Arleta, Belmont, Boyle Heights, Canoga Park, City Terrace, East Los Angeles, Lincoln Heights, Maywood, North Hollywood, Pacoima, Panorama City, Pico Union District, San Fernando, Sylmar, Van Nuys and Whittier.;90033;34.046524;-118.209663;6498156.56426181;1839377.61023523
157242960;-118.439113055719901;34.2463159668578;www.CaliforniaChildrensAcademy.org;California Children's Academy - Obeck Child Care;9700 Obeck;Arleta;57108;The agency provides child care services and early education development for children ages 6 weeks to 5 years who live in Arleta, Belmont, Boyle Heights, Canoga Park, City Terrace, East Los Angeles, Lincoln Heights, Maywood, North Hollywood, Pacoima, Panorama City, Pico Union District, San Fernando, Sylmar, Van Nuys and Whittier.;91331;34.246316;-118.439113;6428966.62226139;1912309.22782314
157242961;-118.181278056118657;34.046390966764548;www.CaliforniaChildrensAcademy.org;California Children's Academy - Guadalupe Terrace;895 N. Bonnie Beach Pl.;Los Angeles;57109;The agency provides child care services and early education development for children ages 6 weeks to 5 years who live in Arleta, Belmont, Boyle Heights, Canoga Park, City Terrace, East Los Angeles, Lincoln Heights, Maywood, North Hollywood, Pacoima, Panorama City, Pico Union District, San Fernando, Sylmar, Van Nuys and Whittier.;90063;34.046391;-118.181278;6506755.20979413;1839312.48766206
157242962;-118.387996056757075;34.212683966788688;www.CaliforniaChildrensAcademy.org;California Children's Academy - Tlc;7817 Lankershim Blvd.;North Hollywood;;;;;;;
157242963;-118.599210056222844;34.20549796639353;www.CaliforniaChildrensAcademy.org;California Children's Academy - Sydney Irmas Center;7445 Alabama Ave.;Canoga Park;;;;;;;
157242964;-118.452598055780214;34.208599966903705;www.CaliforniaChildrensAcademy.org;California Children's Academy - Saticoy Village;14649 Saticoy St.;Van Nuys;;;;;;;
157242965;-118.215207056618382;34.078554966808163;www.CaliforniaChildrensAcademy.org;California Children's Academy - Placita De Ninos;2661 Pasadena Ave.;Los Angeles;57113;The agency provides child care services and early education development for children ages 6 weeks to 5 years who live in Arleta, Belmont, Boyle Heights, Canoga Park, City Terrace, East Los Angeles, Lincoln Heights, Maywood, North Hollywood, Pacoima, Panorama City, Pico Union District, San Fernando, Sylmar, Van Nuys and Whittier.;90031;34.078555;-118.215207;6496502.06461805;1851037.83100922
157242966;-118.262584056196957;34.043044966521663;www.CaliforniaChildrensAcademy.org;California Children's Academy - Pueblo De Esperanza;1031 S. Hope St.;Los Angeles;57114;The agency provides child care services and early education development for children ages 6 weeks to 5 years who live in Arleta, Belmont, Boyle Heights, Canoga Park, City Terrace, East Los Angeles, Lincoln Heights, Maywood, North Hollywood, Pacoima, Panorama City, Pico Union District, San Fernando, Sylmar, Van Nuys and Whittier.;90015;34.043045;-118.262584;6482121.79186948;1838149.19668156
157242967;-118.17842405623577;34.037375966774803;www.CaliforniaChildrensAcademy.org;California Children's Academy - La Escuelita;133 N. Sunol Dr.;Los Angeles;57115;The agency provides child care services and early education development for children ages 6 weeks to 5 years who live in Arleta, Belmont, Boyle Heights, Canoga Park, City Terrace, East Los Angeles, Lincoln Heights, Maywood, North Hollywood, Pacoima, Panorama City, Pico Union District, San Fernando, Sylmar, Van Nuys and Whittier.;90063;34.037376;-118.178424;6507613.95676431;1836030.21043397
157242968;-118.196474655907096;33.990725847457959;www.CaliforniaChildrensAcademy.org;California Children's Academy - Maywood Early Education Center;3759 57Th St;Maywood;57116;The agency provides child care services and early education development for children ages 6 weeks to 5 years who live in Arleta, Belmont, Boyle Heights, Canoga Park, City Terrace, East Los Angeles, Lincoln Heights, Maywood, North Hollywood, Pacoima, Panorama City, Pico Union District, San Fernando, Sylmar, Van Nuys and Whittier.;90270;33.99072588;-118.1964746;6502112.06586522;1819063.51995797
157242969;-118.456420055763061;34.228403966641103;www.CaliforniaChildrensAcademy.org;California Children's Academy - Parthenia Court Center;14833 Parthenia St.;Panorama City;;;;;;;
157242970;-118.434077155693771;34.289953336385302;www.CaliforniaChildrensAcademy.org;California Children's Academy - Amanecer;623 N Hagar St;San Fernando;;;;;;;
157242971;-118.214122055976247;34.06614696733611;www.CaliforniaChildrensAcademy.org;California Children's Academy;2701 N. Main St.;Los Angeles;;;;;;;
157242972;-118.415459055900655;34.268285966651526;www.CaliforniaChildrensAcademy.org;California Children's Academy - San Fernando Gardens Center;10896 Lehigh Ave.;Pacoima;;;;;;;
157242973;-118.215927056408276;34.071736966720444;www.CaliforniaChildrensAcademy.org;California Children's Academy - Jardin De Ninos I & Ii;2422 Manitou Ave.;Los Angeles;57121;The agency provides child care services and early education development for children ages 6 weeks to 5 years who live in Arleta, Belmont, Boyle Heights, Canoga Park, City Terrace, East Los Angeles, Lincoln Heights, Maywood, North Hollywood, Pacoima, Panorama City, Pico Union District, San Fernando, Sylmar, Van Nuys and Whittier.;90031;34.071737;-118.215927;6496278.70712514;1848557.10401531
157242974;-118.233225056056867;33.88813096707451;NULL;Community Development Center - Compton;530 W. Alondra Blvd.;Compton;57123;The agency provides child care services for low-income families who live, primarily in the South Bay area.;90220;33.888131;-118.233225;6490885.13523513;1781750.88034455
157242975;-118.275382056341883;33.809416967651288;NULL;Community Development Center Inc;23734 S. Main St.;Carson;57124;The agency provides child care services for low-income families who live, primarily in the South Bay area.;90745;33.809417;-118.275382;6478011.78171681;1753137.34078698
157242976;-118.278256055516806;33.780515967431135;NULL;Community Development Center - Wilmington;931 Frigate Ave.;Wilmington;57125;The agency provides child care services for low-income families who live, primarily in the South Bay area.;90744;33.780516;-118.278256;6477109.57354747;1742621.91398323
157242978;-118.247293056578229;34.035517966914597;www.salvationarmy-socal.org;Salvation Army Los Angeles Day Care Center;836 Stanford Ave.;Los Angeles;57127;The agency provides child care services for people in Los Angeles County.;90021;34.035518;-118.247293;6486747.37677839;1835398.23302339
157242979;-118.169114756138512;33.859781847463616;www.childrentoday.org;Children Today Inc - Play House North;1900 South St;Long Beach;57128;The agency provides child care services to homeless children in the city of Long Beach.;90805;33.85978188;-118.1691147;6510325.61964805;1771395.01982273
157242980;-118.374935055694579;34.162853966406139;www.hands4hope.org;Hands For Hope;11210 Otsego St.;North Hollywood;57129;The agency provides child care services to individuals who live in Los Angeles County.;91601;34.162854;-118.374935;6448248.37208363;1881857.5708788
157242981;-118.129522557179484;34.097558286489708;www.optionscc.com;Options - Surround Care;304 N 1St St;Alhambra;57130;The agency provides child care services for children ages 5 to 12 at schools in the cities of Alhambra, Covina, East Whittier, La Habra, La Puente, Monrovia, Monterey Park, Rowland Heights, San Gabriel, South El Monte, Walnut and West Covina.;91801;34.09755832;-118.1295225;6522457.64984588;1857909.00066581
157242982;-118.144091056970296;34.153576966705735;www.pasadenanursery.org;Pasadena Day Nursery For Child Development;450 N. Garfield Ave.;Pasadena;57131;The agency provides child care services.;91101;34.153577;-118.144091;6518076.29115455;1878301.21513064
157242986;-118.265223855666193;33.930791037499169;www.drewcdc.org;Johnnie Tillmon Child Development Center;11427 Avalon Blvd;Los Angeles;57136;The agency provides child care services, family preservation, and mental health services primarily for people who live in South Central Los Angeles.;90061;33.93079107;-118.2652238;6481214.29073171;1797299.88960081
157242989;-118.208737056244942;33.902836037508976;www.drewcdc.org;Stellar Child Development Center;1007 N Long Beach Blvd;Compton;57138;The agency provides child care services, family preservation, and mental health services primarily for people who live in South Central Los Angeles.;90221;33.90283607;-118.208737;6498328.49272372;1787086.05110465
157242992;-118.381830356475618;33.989581026609478;www.westsidechildrens.org;Westside Children's Center;5721 W Slauson Ave;Culver City;57139;The agency provides child care services, family preservation, foster care services and school readiness for families in Los Angeles County.;90230;33.98958106;-118.3818303;6445922.94760063;1818808.52867006
157242997;-118.280919056057598;34.247546966616262;www.ymcafoothills.org;YMCA Verdugo Hills Family;6840 Foothill Blvd.;Tujunga;;;;;;;
157242998;-118.291332055738323;33.99673096688754;www.paralosninos.org;Para Los Ninos - Vermont Child Care;5054 S. Vermont Ave.;Los Angeles;57141;The agency provides child care, child abuse services, counseling services, family life education, school readiness for children, ages 0 to 5, and youth services to families who live in the Los Angeles area, including downtown Los Angeles, East Los Angeles, Pico Union, South Central Los Angeles.;90037;33.996731;-118.291332;6473363.89993647;1821318.66899098
157243002;-118.299211055792995;34.063448966598621;www.pathwaysla.org;Pathways;3550 W. Sixth St.;Los Angeles;57144;The agency provides child care and child care information and referral services to people who live in Los Angeles County.;90020;34.063449;-118.299211;6471047.95542139;1845605.58334357
157243005;-118.199014056463639;34.068231966938782;www.iilosangeles.org/;International Institute Of Los Angeles - Child Development Division;3845 Selig Pl.;Los Angeles;57147;The agency provides child care, early childhood education and school readiness for low-income families with children ages 0 to 5 in Los Angeles County.;90031;34.068232;-118.199014;6501398.13028522;1847270.9983198
157243009;-118.469299056468572;34.232021966013306;www.nvcsinc.org;North Valley Caring Services Inc;15453 Rayen St.;North Hills;57148;The agency provides education services, emergency food, holiday assistance, homeless support services and recreational programs for people who live in North Hills.;91343;34.232022;-118.469299;6419819.93254955;1907148.66006032
157243014;-118.513557256695137;34.413012465735839;www.childfamilycenter.org;Child And Family Center;21545 Centre Pointe Pkwy;Santa Clarita;57150;The agency provides family life education, mental health services, substance abuse services for adolescents, and welfare-to-work support services for people in the Santa Clarita Valley.;91350;34.4130125;-118.5135572;6406779.0678833;1973079.06658506
157243018;-118.453545055523662;33.989792966561716;www.ymcala.org/westchester/;YMCA Westchester Family - Coeur D' Alene Ave. School;810 Coeur D' Alene Ave.;Venice;57152;The agency provides child care, first aid and safety programs, health services, and recreational programs for people of all ages who primarily live in Westchester.;90291;33.989793;-118.453545;6424183.96056689;1818975.9922459
157243024;-118.445616055836197;34.195770966777644;www.ymcala.org/mv;YMCA Mid Valley Family;6901 Lennox Ave.;Van Nuys;;;;;;;
157243029;-118.494413055554602;34.018764967095457;www.ymcasm.org;YMCA Santa Monica Family;1332 6th St.;Santa Monica;57154;The agency provides child care, recreational programs and volunteer opportunities for people of all ages who live in the Santa Monica area.;90401;34.018765;-118.494413;6411847.30413789;1829577.7840344
157243033;-117.960522056476904;34.001828966936472;www.sgvymca.org;YMCA Puente Hills Family Program Center;1603 S. Stimson Ave.;Hacienda Heights;57155;The agency provides child care, recreational programs for residents of La Puente/Hacienda Heights/Rowland Heights areas.;91745;34.001829;-117.960522;6573635.90083563;1823048.31973115
157243317;-118.070608057065257;34.068736967012626;www.foundationheadstart.org;Foundation For Early Childhood Education - Head Start;3360 Flair Dr.;El Monte;57360;The agency provides early childhood education for children ages 3 to 5.;91731;34.068737;-118.070608;6540286.52560538;1847402.62338464
157243319;-117.87122305696623;34.084090967060128;www.covdevctr.org/;Covina Development Center;240 S. Grand Ave.;Covina;;;;;;;
157243324;-118.311075056035847;34.096570967213594;www.alsckids.com/;Assistance League Of Southern California - Learning Center For Young Children;1375 N. St. Andrews Pl.;Los Angeles;57367;The agency provides early childhood education for infants, toddlers, preschoolers and kindergartners who live in Los Angeles County.;90028;34.096571;-118.311075;6467492.00616847;1857670.15927997
157243356;-118.29775705673454;34.06632296692031;www.alexandriahouse.org;Families Anonymous;426 S. Alexandria Ave.;Los Angeles;57395;The agency provides education services for families in the community and shelter for single women and women with children in Los Angeles County.;90020;34.066323;-118.297757;6471491.42664731;1846650.17508639
157243384;-118.430051055983341;34.003191966998621;www.nyayouth.org;Neighborhood Youth Association - Mar Vista Learning Center;3877 Grandview Blvd.;Los Angeles;;;;;;;
157243989;-118.149810056934001;34.165784967218215;www.ywca-pasadena.org;Ywca Pasadena - Foothill Valley;1200 N. Fair Oaks Ave.;Pasadena;57933;The agency provides personal enrichment, recreational programs and youth services for women and girls of all ages who live in Pasadena and the surrounding areas.;91103;34.165785;-118.14981;6516352.65779081;1882746.45328739
157244041;-118.208699056162914;34.031040967134835;www.ymcala.org;YMCA Weingart East Los Angeles;2900 Whittier Blvd.;Los Angeles;;;;;;;
157244042;-117.884576057234895;34.09579596722579;www.sgvymca.org;YMCA San Gabriel Valley Family - Cypress School Portable;351 W. Cypress Ave.;Covina;57984;The agency provides child care and recreational programs for people of all ages who live, primarily, in the East San Gabriel Valley and the surrounding communities.;91723;34.095796;-117.884576;6596615.45133314;1857262.46324497
157244043;-117.925310057534958;34.055678967142192;www.sgvymca.org;YMCA San Gabriel Valley Family - Merlinda Elementary School Portable;1120 S. Valinda;West Covina;57986;The agency provides child care and recreational programs for people of all ages who live, primarily, in the East San Gabriel Valley and the surrounding communities.;91790;34.055679;-117.92531;6584293.90543821;1842651.46261139
157244044;-117.940159056788687;34.081487966908703;www.sgvymca.org;YMCA San Gabriel Valley Family - Monte Vista Elementary School Portable;1650 W. Eldred Ave.;West Covina;57987;The agency provides child care and recreational programs for people of all ages who live, primarily, in the East San Gabriel Valley and the surrounding communities.;91790;34.081488;-117.940159;6579790.55683339;1852040.84081423
157244048;-117.896456056658153;34.123774967479108;www.sgvymca.org;YMCA San Gabriel Valley Family - Azusa;171 N. Rockvale;Azusa;57990;The agency provides child care and recreational programs for people of all ages who live, primarily, in the East San Gabriel Valley and the surrounding communities.;91702;34.123775;-117.896456;6593008.24135597;1867440.6193978
157244057;-117.960522056476904;34.001828966936472;www.sgvymca.org;YMCA San Gabriel Valley Family - Puente Hills;1603 S. Stimson Ave.;Hacienda Heights;57995;The agency provides child care and recreational programs for people of all ages who live, primarily, in the East San Gabriel Valley and the surrounding communities.;91745;34.001829;-117.960522;6573635.90083563;1823048.31973115
157244061;-117.883464057380849;34.078295967354819;www.sgvymca.org;YMCA San Gabriel Valley;412 E. Rowland St.;Covina;;;;;;;
157244221;-118.270973055865966;34.081418966738539;www.salvationarmy-alegria.org;Salvation Army - Alegria;2737 W. Sunset Blvd.;Los Angeles;58165;The agency provides child care and shelter for two-parent families and single women or men with families with at least one member who tests HIV positive/symptomatic and child care.;90026;34.081419;-118.270973;6479618.03769064;1852120.9295648
157244433;-118.101385057113973;34.097838966596242;www.asianyouthcenter.org;Asian Youth Center Annex Building;232 W. Clary Ave.;San Gabriel;58379;The agency provides health services and youth services for youth and young adults, age 6 to 18, in the San Gabriel Valley and from satellites in Los Angeles and Lancaster.;91776;34.097839;-118.101385;6530976.3214568;1858001.36137348
157244544;-118.268712056123476;33.934708967380175;NULL;Locke Infant/Toddler Center;320 E. 111th St.;Los Angeles;58473;The center offers child care and education services for teen mothers to complete high school while their children are provided with child care.;90061;33.934709;-118.268712;6480159.95392963;1798728.5169929
157244545;-118.125303057148869;34.150589966453701;www.ceconline.org;Child Educational Center - Caltech Site;250 Michigan Ave.;Pasadena;58474;The center offers child care for children of JPL and Caltech employees and residents of the surrounding communities Monday through Friday, 6:45am to 6:00pm.;91106;34.15059;-118.125303;6523759.15150797;1877206.57525957
157244546;-118.179139057154316;34.194622966805412;www.ceconline.org;Child Educational Center - Caltech - Jpl Community;140 Foothill Blvd.;La Canada Flintridge;58475;The center offers child care for children of JPL and Caltech employees and residents of the surrounding communities Monday through Friday, 6:45am to 6:00pm.;91011;34.194623;-118.179139;6507499.31854214;1893255.62387006
157244551;-118.082528056421154;33.890952437167684;NULL;Bethany Manor Foundation Inc;15415 Pioneer Blvd;Norwalk;58477;The agency provides services for children age 18 months to 5 years with developmental disabilities as well as child care services for typically developing children.;90650;33.89095247;-118.082528;6536623.4085878;1782705.84497006
157244552;-118.124067057108078;34.140898967219243;http://www.ccc.caltech.edu;Children's Center At Caltech;286 S. Chester Ave.;Pasadena;58479;The center provides a child care program for children age 6 months to six years who are from Caltech-affiliated families and from the surrounding communities in the East San Fernando and West San Gabriel Valleys.;91106;34.140899;-118.124067;6524128.75772414;1873679.38218273
157244554;-118.255123056243178;34.08926796644797;NULL;Echo Park Silverlake Peoples' Child Care Center;1953 Lake Shore Ave.;Los Angeles;58480;The center provides a community-based day care program for children ages 2 to 5 who live, primarily, in the Echo Park-Silverlake area.;90039;34.089268;-118.255123;6484424.75412706;1854964.76016323
157244606;-118.215950056490357;34.041774966746551;www.laparks.org/dos/reccenter/facility/hollenbeckRC.htm;Hollenbeck Recreation Center;415 S. St. Louis St.;Los Angeles;58529;The center provides early childhood education, alcohol abuse services related to a meeting space and recreational programs for Los Angeles city residents of all ages.;90033;34.041775;-118.21595;6496248.31676596;1837653.3918989
157244618;-118.479525055275147;34.001810966520807;www.smmusd.org/CDS/index.html;Santa Monica - Malibu Unified School District - Child Development Services;2802 Fourth St.;Santa Monica;58539;The center provides child care and education services for children who live within or near the Santa Monica - Malibu Unified School District.;90405;34.001811;-118.479525;6416329.37817897;1823386.09300573
157244622;-118.135812056549227;33.936870966806005;www.ymcala.org/dow;YMCA Downey Family;11531 Downey Ave.;Downey;58540;The center provides child care and recreational programs for residents of Downey.;90241;33.936871;-118.135812;6520474.5097833;1799434.19832431
157244627;-118.147982057093131;34.663497966130166;www.ymcala.org/av;YMCA Antelope Valley;43001 10th St.;Lancaster;;;;;;;
157244632;-118.29962005546767;33.741329967692273;www.ymcala.org/san-pedro-peninsula;YMCA San Pedro And Peninsula;301 S. Bandini St.;San Pedro;;;;;;;
157244637;-118.340428055789758;34.01086896673349;www.ymcala.org/crenshaw/;YMCA Crenshaw Family;3820 Santa Rosalia Dr.;Los Angeles;;;;;;;
157244642;-118.405039055954191;34.002632967238675;www.ymcala.org/cp;YMCA Culver-Palms Family;4500 S. Sepulveda Blvd.;Culver City;58544;The center provides child care and recreational programs for residents of the Culver City/Palms area.;90230;34.002633;-118.405039;6438906.6788248;1823585.89739615
157244644;-118.072151056014846;33.878891967695061;NULL;Tracy Infant Center;12222 Cuesta Dr.;Cerritos;58547;The center provides child care and services for children with developmental disabilities for people who live within the ABC Unified School District, (or outside the district with a referral from a Regional Center).;90703;33.878892;-118.072151;6539769.6365473;1778314.32980298
157244646;-118.180831056179542;33.800744967572669;www.lbcil.org;Signal Hill Child Development Center;2399 California Ave.;Signal Hill;58548;The center provides child care for low-income families in the Long Beach and Signal Hill areas.;90755;33.800745;-118.180831;6506729.80072422;1749916.18745239
157244648;-118.182545056053215;33.797545966993027;www.lbcil.org;Long Beach Community Improvement League Child Development Center;2222 Olive Ave.;Long Beach;58549;The center provides child care for low-income families in the Long Beach and Signal Hill areas.;90806;33.797546;-118.182545;6506206.93530014;1748752.92665556
157244650;-118.31554005554662;33.945626966876873;www.girlsclubla.org;Girls Club Of Los Angeles - Faith Children's Center;2057 W. Century Blvd.;Los Angeles;58550;The center provides child care and youth services in the South Central Los Angeles area.;90047;33.945627;-118.31554;6465967.79005681;1802743.08015798
157244652;-118.300056055600535;33.955726166825229;www.girlsclubla.org;Youth Enrichment Center;9004 S Normandie Ave;Los Angeles;58551;The center provides child care and youth services in the South Central Los Angeles area.;90044;33.9557262;-118.300056;6470675.00767647;1806404.00229806
157244653;-118.513530055740588;34.202623966239933;sites.google.com/site/creativeworld00/;Creative World Day Care Center;7243 Encino Ave.;Van Nuys;58552;The center provides child care for children age 6 to eleven who live in Reseda and Van Nuys.;91406;34.202624;-118.51353;6406396.11818989;1896515.69641815
157244654;-118.193039056690395;33.844198967181939;www.bojlongbeach.com;Bundle Of Joy Day Care;4829-35 Long Beach Blvd.;Long Beach;58553;The center provides child care for families in Los Angeles County.;90805;33.844199;-118.193039;6503051.10893464;1765737.11283147
157244656;-118.311709055543332;33.912486967463288;NULL;Franklin Child Care Center Inc;13203 St. Andrews Pl.;Gardena;58554;The center provides child care for low-income families in the South Bay area.;90249;33.912487;-118.311709;6467092.32028805;1790679.12331481
157244657;-118.39856605603849;34.007803966512888;ocd.ccusd.org;Culver City Center For Early Education;10800 Farragut Dr.;Culver City;58555;The center provides child care services for children 3 to 12 years who are, primarily, in the Culver City and West Los Angeles areas.;90230;34.007804;-118.398566;6440876.03774697;1825459.87232272
157244659;-117.957064957091703;34.042986967556551;www.hlpschools.org/;Hacienda La Puente Unified School District - Amar Center;1000 N California Ave;La Puente;58556;The center provides child care services for low-income families who live in the Hacienda La Puente Unified School District and in the eight Service Planning Areas, Priority 1 zip code areas.;91744;34.042987;-117.9570649;6574677.3305113;1838026.96857956
157244660;-118.375967056516032;34.190428966699436;www.voala.org/;Maud Booth Family Center;11243 Kittridge St.;North Hollywood;58557;The center provides child care services for people who live in the North Hollywood Apartments and to low-income families in the North Hollywood area.;91606;34.190429;-118.375967;6447973.71580881;1891893.70927106
157244666;-118.337325055892748;33.823531967536923;www.ymcala.org/torrancesouth/;YMCA Torrance - South Bay;2900 W. Sepulveda Blvd.;Torrance;;;;;;;
157244669;-118.344785056221141;33.818130967293541;www.ymcala.org/torrancesouth/;YMCA Torrance - South Bay - Hull Middle School At Levy - Preschool Location;3420 W. 229th Pl.;Torrance;58561;The center provides child care, nutrition programs and recreational programs for residents of the Torrance/South Bay area.;90505;33.818131;-118.344785;6456938.73232755;1756373.62040365
157244673;-118.222640656064087;34.047576756983737;www.plazacs.org;Plaza Child Development And Observation Program;1605 E 1St St;Los Angeles;58566;The center provides child care, domestic violence services, family preservation, substance abuse services, and youth services in Los Angeles.;90033;34.04757679;-118.2226406;6494226.08065297;1839769.19376965
157244679;-118.148106056790127;33.8052729675534;www.alpertjcc.org;Alpert Jewish Community Center - Long Beach;3801 E. Willow St.;Long Beach;;;;;;;
157244683;-118.527692056149093;34.045487966815585;www.ymcala.org/pm;YMCA Palisades - Malibu;821 Via de la Paz;Pacific Palisades;;;;;;;
157244689;-118.563448056333797;34.2774009660587;www.ymcala.org/nv;YMCA North Valley Family Porter Ranch;11336 Corbin Ave.;Northridge;;;;;;;
157244694;-118.332602055719647;34.098937966333864;www.ymcala.org/hw;YMCA Hollywood Wilshire;1553 N. Schrader Blvd.;Hollywood;;;;;;;
157244918;-118.295296055636982;33.790997967222651;www.voala.org/our_programs;Volunteers Of America - Early Head Start;1081 W. 257th St.;Harbor City;58778;The centers provides early childhood education for low-income pregnant women and families living in the Harbor area who have children between birth and 3 years old.;90710;33.790998;-118.295296;6471942.41426238;1746451.36465764
157244999;-118.278469056229582;34.029747966946069;www.msmc.la.edu/pages/730.asp;Mt. St. Mary's College Child Development Center;17 Chester Pl.;Los Angeles;58862;The child development center provides child care and early childhood education for families in the Los Angeles area.;90007;34.029748;-118.278469;6477296.11516914;1833323.12595314
157245000;-118.327346356553036;33.941697786942619;iusd.net/schools-list/pre-k/child-development-center/;Inglewood Child Development Center;10409 S 10Th Ave;Inglewood;58863;The child development center provides child care for low income residents of the Inglewood School District whose parents are working or in school full-time or who are referred by protective services.;90303;33.94169782;-118.3273463;6462382.32249022;1801324.62367731
157245001;-118.476121655715403;34.238461486687875;NULL;Valley Presbyterian  School;9240 Haskell Ave;North Hills;58864;The school provides child care services for children who live in the San Fernando Valley.;91343;34.23846152;-118.4761216;6417768.84806906;1909501.78986847
157245323;-118.39208005566023;34.021995966874904;www.culvercity.org/Government/PRCS.aspx;City Of Culver City Parks, Recreation And Community Services - Linwood Howe School;4100 Irving Pl.;Culver City;59140;The department provides child care services, information and referral, recreational programs, services for older adults and youth services for people who live in Culver City and the surrounding areas.;90232;34.021996;-118.39208;6442861.89991698;1830616.85741556
157245325;-118.398229056484624;34.003970966440946;www.culvercity.org/Government/PRCS.aspx;City Of Culver City Parks, Recreation And Community Services - Lindberg Park;5401 Rhoda Way;Culver City;;;;;;;
157245328;-118.392389056179937;33.995461967295668;www.culvercity.org/Government/PRCS.aspx;City Of Culver City Parks, Recreation And Community Services - Blanco Park;5801 Sawtelle Blvd.;Culver City;;;;;;;
157245332;-118.40987405586165;34.013681966781675;www.culvercity.org/Government/PRCS.aspx;City Of Culver City Parks, Recreation And Community Services - La Ballona School;10915 Washington Blvd.;Culver City;59144;The department provides child care services, information and referral, recreational programs, services for older adults and youth services for people who live in Culver City and the surrounding areas.;90232;34.013682;-118.409874;6437457.63808772;1827612.75974923
157245334;-118.341407055557298;33.837038967552083;www.TorranceCa.Gov;City Of Torrance Community Services Department;3031 Torrance Blvd.;Torrance;;;;;;;
157245351;-118.188604055931478;33.980111967045531;www.cityofbell.org;City Of Bell Department Of Community Services - Bell Community Center;6250 Pine Ave.;Bell;59161;The department provides early childhood education, recreational programs and transportation for people who live in Bell.;90201;33.980112;-118.188604;6504490.66740721;1815196.3442934
157246074;-118.362042056314365;34.038540966608394;www.thejeffreyfoundation.com;Jeffrey Foundation - Parent / Child Training Center;5443 W. Washington Blvd.;Los Angeles;59902;The foundation provides child care, family life education and services for families with children who have developmental disabilities or multiple-disabilities.;90016;34.038541;-118.362042;6451985.68645939;1836603.72864389
157246177;-118.22399665662472;34.206523006242016;www.glendaleadventist.com;Glendale Adventist Community Children's Center;1911 Waltonia Dr;Montrose;60000;The medical center provides disaster services, hospital services, inpatient mental health services, residential treatment for substance abuse, safe haven services, and substance abuse services for people of all ages in Los Angeles.;91020;34.20652304;-118.2239966;6493944.20785713;1897613.45340897
157246224;-118.195976056671341;33.786652967836474;www.lbdn.org;Long Beach Day Nursery - West Branch;1548 Chestnut Ave.;Long Beach;60042;The nursery provides year-round full-day care for children, 6 weeks to 6 years, whose parents are employed or are attending school.;90813;33.786653;-118.195976;6502118.41526197;1744796.35320389
157246225;-118.129510056493515;33.831260966937727;www.lbdn.org;Long Beach Day Nursery - East Branch;3965 Bellflower Blvd.;Long Beach;60043;The nursery provides year-round full-day care for children, 6 weeks to 6 years, whose parents are employed or are attending school.;90808;33.831261;-118.12951;6522336.5749568;1760997.69416073
157246336;-118.449188056337348;34.052806967069841;www.salvationarmy.org/socal;Salvation Army Westwood Transitional Village - Bessie Pregerson Childcare Center;1341 S. Sepulveda Blvd.;Los Angeles;60127;The organization provides child care and shelter for homeless families and veterans with families in Los Angeles County.;90025;34.052807;-118.449188;6425607.19722173;1841901.8912759
157246339;-118.205252055800145;33.895712967453328;www.ywcagla.org;Ywca Of Greater Los Angeles - Compton Center;1600 E. Compton Blvd.;Compton;60129;The organization provides child care and youth services for people of all ages who live in the Compton and greater Los Angeles area.;90221;33.895713;-118.205252;6499380.73143288;1784491.62683156
157246515;-118.261660055807184;34.025022966720272;www.CatholicCharitiesLA.org;Catholic Charities Of Los Angeles - El Santo Nino Community Center;601 E. 23rd St.;Los Angeles;60284;The program provides adult education, child care, employment services, holiday assistance, personal goods, recreational programs and youth services for residents of South Central Los Angeles.;90011;34.025023;-118.26166;6482384.64009705;1831589.92666364
157246533;-118.120277056571055;34.021159966853808;www.ymcala.org/mc;YMCA Montebello Commerce;2000 W. Beverly Blvd.;Montebello;;;;;;;
157246535;-118.153873056300725;34.003811967070973;www.ymcala.org/mc;YMCA Montebello Commerce - Preschool And Child Development Center;2353 S. Commerce Way;Commerce;60297;The program provides child care and a variety of recreational and fitness activities and support services for people of all ages who live primarily in the City of Commerce, East Los Angeles, Montebello, Monterey Park, Pico Rivera and South San Gabriel Valley areas.;90040;34.003812;-118.153873;6515033.36646613;1823803.31756498
157246539;-118.11716205657909;33.892905967355972;www.lbymca.org/loscerritos;Los Cerritos YMCA;15530 S. Woodruff Ave.;Bellflower;60298;The program provides child care and recreational programs for people of all ages who live primarily in the Bellflower, Cerritos, Artesia, and Paramount areas.;90706;33.892906;-118.117162;6526112.95848013;1783427.2208239
157246543;-118.136688056523127;34.107572967324103;www.ymcala.org/southpasadena/;YMCA South Pasadena / San Marino;1605 Garfield Ave.;South Pasadena;60299;The program provides recreational programs for people of all ages who live primarily in the South Pasadena and San Marino areas.;91030;34.107573;-118.136688;6520293.26637939;1861556.39953898
157246544;-118.446290055621617;34.149652966194594;www.nurturypreschool.com;Nurtury, The;14401 Dickens St.;Sherman Oaks;60300;The program provides child care for children age two to five who live in the San Fernando Valley.;91423;34.149653;-118.44629;6426641.50191164;1877141.71023181
157246550;-118.118218056990614;34.090543967068122;www.wsgvymca.org;YMCA West San Gabriel Valley;401 E. Corto St.;Alhambra;;;;;;;
157246559;-118.291382056109242;33.946071966927235;www.ymcala.org;YMCA Weingart Wellness And Aquatic Center;9900 S. Vermont Ave.;Los Angeles;;;;;;;
157246563;-118.132071056608268;34.02145396720497;www.cityofmontebello.com;City Of Montebello Municipal Services Department - Parks And Recreation Division - Ashiya Park;2700 W. Beverly Blvd.;Montebello;60315;The program provides child care, recreational programs, and services for older adults in the City of Montebello.;90640;34.021454;-118.132071;6521649.70854838;1830214.19417889
157246565;-118.12005905697707;33.993560967013117;www.cityofmontebello.com;City Of Montebello Municipal Services Department - Parks And Recreation Division - Chet Holifield Park Community Center;1060 S. Greenwood Ave.;Montebello;60316;The program provides child care, recreational programs, and services for older adults in the City of Montebello.;90640;33.993561;-118.120059;6525277.50148964;1820058.80635323
157246568;-118.114110056047878;34.008593967251443;www.cityofmontebello.com;City Of Montebello Municipal Services Department - Parks And Recreation Division - Cathy Hensel Gymnasium And Youth Center;236 S. Taylor Ave.;Montebello;60317;The program provides child care, recreational programs, and services for older adults in the City of Montebello.;90640;34.008594;-118.11411;6527086.99918297;1825527.51916906
157246587;-117.969716056852775;34.051266967398952;www.bassett.k12.ca.us;Bassett Unified School District - Child Development;943 N. Sunkist Ave.;La Puente;60337;The program provides early childhood education for people who live in the Bassett Unified School District.;91746;34.051267;-117.969716;6570843.82702348;1841038.8260729
157246594;-118.174978055911183;33.789998967158169;www.lbcc.edu;Long Beach City College - Pacific Coast Campus - Child Development Center;1305 E. Pacific Coast Highway;Long Beach;;;;;;;
157246727;-118.251984055931075;34.147552966410366;www.glenymca.org;YMCA Of Glendale;140 N. Louise St.;Glendale;;;;;;;
157246906;-117.972332057349135;34.052350966959153;www.bassett.k12.ca.us;Bassett Unified School District;904 N. Willow Ave.;La Puente;60661;The school district administers a child care program, comprehensive education services for children in kindergarten through grade 12 who live in the Bassett/La Puente area.;91746;34.052351;-117.972332;6570051.29087889;1841433.08611114
157246918;-117.716480057386391;34.08304296714374;www.cusd.claremont.edu;Claremont Unified School District - Child Development Office;170 W. San Jose Ave.;Claremont;60671;The school district offers child care and K-12 education.;91711;34.083043;-117.71648;6647520.25044197;1852722.41983165
157246927;-117.951822056950064;34.137307966957366;www.duarte.k12.ca.us/pages/schools/childdevelopment/schools_child.html;Duarte Unified School District - Head Start / State Preschool And Extended Day Care;1433 Crestfield Dr.;Duarte;60679;The school district provides child care for students in kindergarten through sixth grade and early childhood education through the Head Start and State Preschool.;91010;34.137308;-117.951822;6576249.19022848;1872352.8792583
157246993;-118.263809955803396;33.843111126937259;www.goldenwingsacademy.com;Goldenwings Inc;20715 S Avalon Blvd;Carson;60738;The school provides child care services for children and youth.;90746;33.84311116;-118.2638099;6481559.45441148;1765390.05775131
157246994;-118.209998056574932;33.920638967148633;www.goldenwingsacademy.com;Easter's Nest Child Development Center, The;11815 Long Beach Blvd.;Lynwood;60739;The school provides child care services for children and youth.;90262;33.920639;-118.209998;6497959.37436748;1793565.72941823
157247165;-118.185716056253924;33.845674967075468;www.lbymca.org;YMCA Fairfield Family;4949 Atlantic Ave.;Long Beach;;;;;;;
157247224;-118.543059055835585;34.193696966506735;www.ymcala.org/westvalley/;YMCA West Valley Family;18810 Vanowen St.;Reseda;60901;This center provides child care and recreational programs for people of all ages who live in the San Fernando Valley area.;91335;34.193697;-118.543059;6397450.07440221;1893313.97349089
157247228;-118.11787105652688;33.833005967319195;www.lbymca.org/lakewood;YMCA Weingart - Lakewood Family;5835 E. Carson St.;Lakewood;60902;The center provides child care and recreational programs for people of all ages who live primarily in the Lakewood, Long Beach, and Hawaiian Gardens areas.;90713;33.833006;-118.117871;6525872.2233973;1761628.39499906
157247233;-118.123642056259996;33.787734967427475;www.lbymca.org;YMCA Los Altos;1720 Bellflower Blvd.;Long Beach;;;;;;;
157247237;-118.378831056572423;34.164252966758191;www.ymcala.org/;YMCA East Valley Family;5142 Tujunga Ave.;North Hollywood;;;;;;;
157247243;-118.291146056295787;33.872541966791154;www.ymcala.org;YMCA Gardena-Carson Family;1000 W. Artesia Blvd.;Gardena;;;;;;;
157247245;-118.423353056597676;34.296010966262145;www.ywcagla.org;Ywca Of Greater Los Angeles - North Valley;1200 N. Maclay St.;San Fernando;60906;This center provides child care for residents in the San Fernando Valley area.;91340;34.296011;-118.423353;6433805.56829214;1930373.55291489
157248118;-118.189758456033331;33.83675206738183;www.lbusd.k12.ca.us/cdc/cdc.html;Long Beach Unified School District - Child Development Centers;4310 Long Beach Blvd;Long Beach;61462;This office administers child care and early childhood education for children ages 3 to 5 and for children in kindergarten through grade 5 that live within the Long Beach Unified School District area.;90807;33.8367521;-118.1897584;6504042.19586322;1763025.10316364
157248172;-118.136080056741804;33.88217496707589;www.busd.k12.ca.us;Bellflower Unified School District - Child Development Center - Head Start / State Preschool;9301 Flower St.;Bellflower;61506;This school district administers comprehensive educational services for children in preschool through 12th grade and for adults in the Southeast area of Los Angeles County which includes Bellflower, Lakewood and Cerritos.;90706;33.882175;-118.13608;6520366.27082655;1779529.18990606
157249123;-118.069102056764876;33.99930934691001;LA County;Amigo Park;5700 S. Juarez Ave.;Whittier;59614;The Department Provides Recreational Programs Through Planning, Operating And Maintaining Local Parks And Recreation Areas For The County Of Los Angeles. South Area Park Services Are Offered At 22 Locations (See Site List For Details). There Are No Geogrpahic Restrictions.;90606;33.99930938;-118.069102;6540725.25307439;1822136.22641097
157249128;-118.335044455518769;33.896312176916439;LA County;Bodger Park;14900 S. Yukon Ave.;Hawthorne;59627;The Department Provides Recreational Programs Through Planning, Operating And Maintaining Local Parks And Recreation Areas For The County Of Los Angeles. South Area Park Services Are Offered At 22 Locations (See Site List For Details). There Are No Geogrpahic Restrictions.;90250;33.89631221;-118.3350444;6459992.3531888;1784815.55203673
157249235;-118.291881056051352;33.997319967408373;Boys and Girls Clubs;Boys and Girls Clubs;5029 S. Vermont Avenue ;Los Angeles;68751;;90037;33.99732;-118.291881;6473198.11385071;1821533.50025423
157249240;-118.297029056328739;33.943469966988637;Youth Services Unlimited ;Youth Services Unlimited ;1219 W. 103rd Street ;Los Angeles ;68764;;90044;33.94347;-118.297029;6471579.79622123;1801940.9967884
157249344;-118.298917056067893;33.82981796698288;www.childrensinstitute.org;Children's Institute Inc - South County Office;21810 Normandie Ave.;Torrance;;;;;;;
157249349;-118.18981305611814;33.836339967258098;www.childrensinstitute.org;Children's Institute Inc - Long Beach Office;4300 Long Beach Blvd.;Long Beach;;;;;;;
157249359;-118.268679912239605;34.070741897523234;;Children's Institute, Inc. - Otis Booth Campus;2121 W. Temple St.;Los Angeles;57066;The agency provides child abuse services, child care, family support services, foster care services, mental health services, school readiness, substance abuse services and welfare-to-work support services for people of all ages and their families in Los Angeles County.  Services are provided at multiple locations.;90026;34.07074193;-118.26867986;6480302.02812055;1848233.4904893
157249714;-118.244412001713869;33.904233077108863;City of Compton;Gonzalez Park;1101 W. Cressy St.;Compton;1901;Charles “Pop” Siler Community Center is equipped with a gymnasium (for multi-purpose use: volleyball court, etc.), two (2) junior baseball diamonds, children’s playground apparatus, outdoor/indoor cooking facilities, meeting rooms, picnic facilities for large groups and off-street parking. Gonzales Park is also the home of Jackie Robinson Stadium.;90222;33.90423311;-118.24441195;6487504.08458255;1787618.86631198
157249718;-118.219478186323585;33.897406463400344;City of Compton;Wilson Park;123 N. Rose Ave.;Compton;2472;Wilson Park Community Center is equipped with a gymnasium (for multi-purpose use: volleyball court, etc.), kitchen, auditorium, two (2) lighted tennis courts, a midget baseball diamond, children’s playground apparatus, a picnic area, barbecue pits and outdoor basketball courts.;90221;33.8974065;-118.21947813;6495064.75679713;1785117.04946522
157250000;-118.167682855941791;33.796642197798164;;City Of Signal Hill Community Services  And Parks And Recreation Department;2175 Cherry Ave;Signal Hill;;;;;;;
157250062;-118.278859856422883;34.069312117251151;;Children's Institute Inc - Vista Nueva Preschool;130 S Lafayette Park Pl;Los Angeles;70279;The agency provides child abuse services, child care, family support services, foster care services, mental health services, school readiness, substance abuse services and welfare-to-work support services for people of all ages and their families in Los Angeles County.;90057;34.06931215;-118.2788598;6477217.64911872;1847721.5646759
157250184;-118.278940656413084;34.071697457126412;;St. Anne's Residential Facility;155 N Occidental Blvd;Los Angeles;70344;The agency provides a maternity home for pregnant or parenting teens, or those who are at risk of becoming pregnant in Los Angeles County.;90026;34.07169749;-118.2789406;6477195.58781114;1848589.70007873
157250370;-118.21569455688234;34.132941097087098;;Pathways - Child Development Center - Eagle Rock;4824 Eagle Rock Blvd;Eagle Rock;70469;The agency provides child care and child care information and referral services to people who live in Los Angeles County.;90041;34.13294113;-118.2156945;6496396.91161314;1870830.23072881
157250414;-118.346476755656326;33.862420277353394;;Community Development Center - Torrance;4120 W 185Th St;Torrance;70578;The agency provides child care services for low-income families who live, primarily in the South Bay area.;90504;33.86242031;-118.3464767;6456480.42222056;1772493.30699623
157250449;-118.2162373564923;33.795740047452583;;City Of Long Beach Department Of Health And Human Services - West Facilities Center;2125 Santa Fe Ave;Long Beach;70593;This is the public health agency for the city of Long Beach.;90810;33.79574008;-118.2162373;6495968.66575047;1748116.01027848
157250472;-118.400286256030626;34.005379346589763;;City Of Culver City Parks, Recreation And Community Services - Culver City Middle School;4601 Elenda St;Culver City;70615;The department provides child care services, information and referral, recreational programs, services for older adults and youth services for people who live in Culver City and the surrounding areas.;90230;34.00537938;-118.4002862;6440351.1818413;1824579.58241664
157250671;-117.741325457078986;34.102289297644035;;City Of Pomona Community Services Department - Recreation Division - Willie White Park Community Center;3066 Battram St;Pomona;70729;The department provides recreational programs which offer a variety of services for residents of Pomona.;91767;34.10228933;-117.7413254;6639979.04997322;1859706.20802939
157250674;-117.756132557026447;34.056826767680221;;City Of Pomona Community Services Department - Recreation Division - Memorial Park;655 W 3Rd St;Pomona;70732;The department provides recreational programs which offer a variety of services for residents of Pomona.;91766;34.0568268;-117.7561325;6635536.63694206;1843150.37171856
157250724;-118.284354555756366;34.040690237221057;;Los Angeles Conservation Corps - Good Beginnings - Deleted;1839 S Hoover St;Los Angeles;70786;The agency provides child care and a preschool for low-income families who live in Central and South Central Los Angeles.;90006;34.04069027;-118.2843545;6475524.11838505;1837310.21082672
157250802;-117.889423157546716;34.073114667474456;;Options - Child Development Centers;100 N Citrus Ave;West Covina;70812;The agency provides child care and family service programs for people who live in portions of the San Gabriel Valley and Northeast Los Angeles.;91791;34.0731147;-117.8894231;6595157.05169089;1849006.66381173
157250810;-118.426451755822839;34.26269566624083;;Meet Each Need With Dignity - Van Nuys Blvd.;13460 Van Nuys Blvd;Pacoima;70815;The agency provides education services, emergency food, employment services, health services, holiday assistance, household goods, and personal goods for low-income people who live in the northeast part of the San Fernando Valley.;91331;34.2626957;-118.4264517;6432818.24119855;1918253.56993707
157251244;-118.209020755806932;33.782005247821019;;Children Today Inc - Play House West;1301 W 12Th St;Long Beach;71103;The agency provides child care services to homeless children in the city of Long Beach.;90813;33.78200528;-118.2090207;6498150.96486355;1743112.90643956
157251332;-117.964751357432405;34.087125677447666;;East Valley Boys And Girls Club;4100 Baldwin Park Blvd;Baldwin Park;71163;The agency provides child care and youth services for individuals in Los Angeles County.;91706;34.08712571;-117.9647513;6572343.13537656;1854088.98763657
157251335;-118.214121556083583;33.884931106888502;;City Of Compton Parks And Recreation Department - South Park;S Chester Ave & E Caldwell St;Compton;;;;;;;
157251668;-118.318964856211721;33.807327197086863;;Community Development Center - Lomita;2155 240Th St;Lomita;71410;The agency provides child care services for low-income families who live, primarily in the South Bay area.;90717;33.80732723;-118.3189648;6464769.35085264;1752415.96362081
157251882;-118.155969856244596;33.781960737234947;;City Of Long Beach Department Of Parks, Recreation And Marine - Freeman Community Center;1205 Freeman Ave;Long Beach;;;;;;;
157251989;-118.293033856692603;34.059316206412504;;Children's Institute Inc - Mid-Wilshire Office Building Two;711 S New Hampshire Ave;Los Angeles;;;;;;;
157251991;-117.764695357325564;34.08305576750864;;Fairplex Child Development Center;1101 W Mckinley Ave;Pomona;71634;The agency provides early childhood education services for children ages eight weeks to six years old in Los Angeles County.;91768;34.0830558;-117.7646953;6632920.6648118;1852689.39890032
157252029;-118.41860615641184;33.992364807185893;;Westside Children's Center - Early Care And Education Center;12120 Wagner St;Culver City;71655;The agency provides child care services, family preservation, foster care services and school readiness for families in Los Angeles County.;90230;33.99236484;-118.4186061;6434779.07520339;1819865.9822638
157252063;-118.224572356900964;34.049905136506759;;Plaza Child Development And Observation Program - Gabriel Garcia Marquez St. Site;255 Gabriel Garcia Marquez St;Los Angeles;71672;The center provides child care, domestic violence services, family preservation, substance abuse services, and youth services in Los Angeles.;90033;34.04990517;-118.2245723;6493642.80688514;1840617.83610123
157252074;-118.343661255772588;34.02541188669705;;Soledad Enrichment Action, Inc. - Crenshaw;4324 W Jefferson Blvd;Los Angeles;71683;The agency provides education services, family life education, and youth services for at risk youth and their families in Los Angeles County.;90022;34.02541192;-118.3436612;6457537.99654897;1831806.27629656
157252078;-118.197973856472586;34.106768296642571;;Soledad Enrichment Action, Inc. - Highland Park;5306 N Figueroa St;Highland Park;71684;The agency provides education services, family life education, and youth services for at risk youth and their families in Los Angeles County.;90042;34.10676833;-118.1979738;6501740.77920622;1861294.44796315
157252122;-118.193199555877783;33.88978044759336;;Children's Collective Inc - Casa Dominguez;15727 S Atlantic Ave;East Rancho Dominguez;71714;The agency provides child care, education services, family support services and services for people with developmental disabilities in the South Central Los Angeles area.;90221;33.88978048;-118.1931995;6503034.25365339;1782325.39724015
157252374;-118.266643555897929;34.036676096634068;;Hope Street Family Center;320 15Th St;Los Angeles;71895;The center provides early childhood education and education services for low-income families in Los Angeles.;90015;34.03667613;-118.2666435;6480885.8409293;1835834.68523447
157252421;-118.362822055615666;34.037614966401073;www.thejeffreyfoundation.com;Jeffrey Foundation;5470 W. Washington Blvd.;Los Angeles;59903;The foundation provides child care, family life education and services for families with children who have developmental disabilities or multiple-disabilities.;90016;34.037615;-118.362822;6451748.16167197;1836267.59316131
157252486;-118.29200185644477;33.967904967093382;Vermont Village Community Development Corporation Inc;Vermont Village Community Development Corporation Inc - Families Learning To Interact Positively (FLIP);7901 S Vermont Ave;Los Angeles;71882;The agency provides substance abuse services to adolescents, age 12 to 17.;90044;33.967905;-118.2920018;6473130.40138772;1810828.91733272
157252491;-118.353741055571177;33.962721966883691;A-MAN Inc. Science Center;A-MAN Inc. Science Center;101 S. La Brea Avenue;Inglewood;68777;;90301;33.962722;-118.353741;6454403.45524588;1809002.85536806
157252500;-118.295233456280968;33.930935567246323;Juvenile Justice Crime Prevention;Juvenile Justice Crime Prevention;1130 W. Imperial High Way;Los Angeles;68758;;90044;33.9309356;-118.2952334;6472111.01235038;1797377.86582281
157252696;-80.328076139795925;40.775204004924369;Loving Your Disabled Children;Loving Your Disabled Children;3407 7th Avenue;Los Angeles ;72134;;90018;40.775204;-80.328076;16810102.5387538;6236590.5940069
157252716;-118.352038955984597;33.912780667450122;Liberators Liberators, Inc. - Parenting Empowerment;Liberators Liberators, Inc. - Parenting Empowerment;;Hawthorne;68767;Academic Support / Tutoring;90250;33.9127807;-118.3520389;6454855.9382648;1790826.40812522
157252832;-118.29925805580254;33.959685966583123;Mark Taper Foundation Center;Mark Taper Foundation Center;1328 W. Manchester Blvd.;Los Angeles;72842;;90044;33.959686;-118.299258;6470921.29950672;1807844.33111031
157252839;-118.26434505589728;34.060699967183581;Para Los Ninos  Family Center;Para Los Ninos Family Center;234 S. Loma Dr.;Los Angeles;805;The agency provides child care, child abuse services, counseling services, family life education, school readiness for children, ages 0 to 5, and youth services to families who live in the Los Angeles area, including downtown Los Angeles, East Los Angeles, Pico Union, South Central Los Angeles.;90026;34.0607;-118.264345;6481605.20333572;1844575.5709679
157252911;-118.277123456540451;34.028632566762099;Crystal Stairs, Inc. Childcare Referrals;Crystal Stairs, Inc. Childcare Referrals;650 W. Adams Blvd.;Los Angeles;68710;;90007;34.0286326;-118.2771234;6477702.70261055;1832916.08444439
157253092;-118.304176678609679;34.023424876195442;LA City Department Recreation and Parks;Denker Recreation Center;1550 W. 35th Pl.;Los Angeles;;;;;;;
157253096;-118.260765056450722;34.070136967222666;LA City Department Recreation and Parks;Echo Park Recreation Center;1632 Bellevue Ave.;Los Angeles;60913;This center provides recreational programs for children, adolescents and adults who live, primarily, in the Downtown Los Angeles, Echo Park, Glendale and Silverlake areas of Los Angeles.;90026;34.070137;-118.260765;6482698.42457446;1848007.03293698
157253108;-118.417373920191523;34.033508665248903;LA City Department Recreation and Parks;Palms Recreation Center;2950 Overland Ave.;Los Angeles;;;;;;;
157253111;-118.305757048387775;33.74957814997731;LA City Department Recreation and Parks;Peck Park and Community Center;560 N. Western Ave.;San Pedro;;;;;;;
157253128;-118.318842692289394;33.990589941208896;LA City Department Recreation and Parks;Van Ness Recreation Center;5720 2nd Ave.;Los Angeles;;;;;;;
157253147;-118.372937483596999;34.187199850520123;LA City Department Recreation and Parks;Victory-Vineland Recreation Center;11112 Victory Blvd.;North Hollywood;;;;;;;
157253155;-118.254138055968426;34.052070967170273;www.ymcala.org/ket;YMCA Stuart M. Ketchum Downtown;401 S. Hope St.;Los Angeles;;;;;;;
157253224;-118.233130056242871;34.116748966572416;LA City Department Recreation and Parks;Glassell Park and Recreation Center;3650 Verdugo Rd.;Los Angeles;;;;;;;
157253237;-118.280593056391126;33.740872967258049;www.ywcaharbor.org;YWCA Harbor Area And South Bay - YWCA Worldtots LA;100 W. 5th St.;San Pedro;60309;The programs provide child care, health services, personal goods, recreational programs, services for older adults, and thrift shops for people who live in the Harbor and South Bay Areas.;90731;33.740873;-118.280593;6476359.09834239;1728196.69775498
157253239;-118.313297956369411;33.736677737419726;www.ywcaharbor.org;YWCA Harbor Area And South Bay - YWCA Worldtots San Pedro;1648 W 9Th St;San Pedro;60308;The programs provide child care, health services, personal goods, recreational programs, services for older adults, and thrift shops for people who live in the Harbor and South Bay Areas.;90731;33.73667777;-118.3132979;6466410.80262221;1726699.30836131
157253244;-118.286570056370181;33.735912967734023;www.ywcaharbor.org;YWCA Harbor Area And South Bay;437 W. 9th St.;San Pedro;60310;The programs provide child care, health services, personal goods, recreational programs, services for older adults, and thrift shops for people who live in the Harbor and South Bay Areas.;90731;33.735913;-118.28657;6474536.71550421;1726396.73744415
157253269;-118.271952856764969;34.067164377281848;;Regis House Community Center;2212 Beverly Blvd;Los Angeles;70347;The center provides education services and recreational programs for people who live in Los Angeles zip codes 90017, 90026 and 90057.;90057;34.06716441;-118.2719528;6479307.31390263;1846934.23258914
157253290;-118.364188564470552;34.023658485759618;LA City Department Recreation and Parks;Baldwin Hills Recreation Center;5401 Highlight Pl.;Los Angeles;;;;;;;
157253301;-118.422808903724075;34.232369899257051;LA City Department Recreation and Parks;Branford Park;13306 Branford St.;Arleta;;;;;;;
157253380;-118.299274056392221;33.798364967222476;LA City Department Recreation and Parks;Harbor City Park;24901 Frampton Ave.;Harbor City;;;;;;;
157253388;-118.407426056815027;34.281821966754727;LA City Department Recreation and Parks;Hubert H. Humphrey Memorial Park;12560 Fillmore St.;Pacoima;;;;;;;
157253413;-118.532319055692057;34.255327966303319;LA City Department Recreation and Parks;Northridge Recreation Center;18300 Lemarsh;Northridge;2666;The department provides recreational programs through operation and maintenance of Los Angeles City parks, playgrounds, swimming pools, golf courses and recreation centers.;91325;34.255328;-118.532319;6400816.58046447;1915724.92177914
157253425;-118.384696288192785;34.049489125180095;LA City Department Recreation and Parks;Robertson Recreation Center;1641 Preuss Rd.;Los Angeles;;;;;;;
157253439;-118.267864868078703;33.997383350355314;LA City Department Recreation and Parks;South Park;345 E. 51st St.;Los Angeles;;;;;;;
157253453;-118.550649659105076;34.174558196546805;LA City Department Recreation and Parks;Tarzana Recreation Center;5665 Vanalden Ave.;Tarzana;2672;The department provides recreational programs through operation and maintenance of Los Angeles City parks, playgrounds, swimming pools, golf courses and recreation centers.;91356;34.17455823;-118.5506496;6395116.55511914;1886361.62092581
157253480;-118.256534975941761;33.790715354365915;LA City Department Recreation and Parks;Banning Park;1331  Eubank Ave.;Wilmington;2638;The department provides recreational programs through operation and maintenance of Los Angeles City parks, playgrounds, swimming pools, golf courses and recreation centers.;90744;33.79071539;-118.25653492;6483719.9710878;1746316.18513797
157253522;-118.250295656534433;33.782666187235662;LA City Department Recreation and Parks;East Wilmington Greenbelt Community Center;918 Sanford Ave;Wilmington;;;;;;;
157253534;-118.317912756396566;34.035008336625246;LA City Department Recreation and Parks;South Seas House;2301 W 24th St;Los Angeles;71594;"<span style=""color: #000000";;;;;
157260315;-117.718931857440424;34.087690416975214;;Abilityfirst - Claremont Center;480 N Indian Hill Blvd;Claremont;70862;The center provides socialization and recreation activities for children and adults with mild-to-severe developmental disabilities.;91711;34.08769045;-117.7189318;6646773.11742181;1854411.62314615
157260317;-118.244546056446154;33.953186967390401;www.drewcdc.org;92Nd And Maie Child Development Center;9200 S. Maie St.;Los Angeles;804;The agency provides child care services, family preservation, and mental health services primarily for people who live in South Central Los Angeles.;90002;33.953187;-118.244546;6487506.74796306;1805434.33264948
157260342;-118.184452256117567;34.03755120684027;;Abilityfirst - East Los Angeles;154 N Gage Ave;Los Angeles;70210;The center provides programs and services for children with developmental disabilities.;90063;34.03755124;-118.1844522;6505787.73731963;1836097.28018172
157260355;-118.25683805642926;34.026071967001663;;All Peoples Christian Center;822 E. 20th St.;Los Angeles;;;;;;;
157260369;-118.15227505619815;34.10208596717726;www.redesignlearning.org;Almansor Center;1955 Fremont Ave.;South Pasadena;2120;The center provides services for people with disabilities ages 3 to 22, including developmental, learning and communication disabilities.;91030;34.102086;-118.152275;6515571.87720014;1859566.36185239
157260371;-118.291940056428132;34.017387866682249;Behavioral Health Services, Inc.;Behavioral Health Services, Inc.;3787 S. Vermont Avenue;Los Angeles;68762;;90007;34.0173879;-118.29194;6473201.44094381;1828836.63820697
157260375;-118.251069056025415;33.924430966753874;Boys and Girls Clubs;Boys and Girls Clubs;1339 E. 120th Street ;Los Angeles;;;;;;;
157260380;-118.241028055906582;33.925252966700825;Charles Drew Child Development Corp.;Charles Drew Child Development Corp.;1770 E. 118th St. ;Los Angeles;68753;;90059;33.925253;-118.241028;6488549.27573363;1795265.98389173
