OBJECTID;X;Y;Name;addrln1;city;post_id;zip;latitude;longitude;POINT_X;POINT_Y
157191586;-118.294858055807524;33.988911967374698;Vermont Slauson Economic Development Corporation;1130 W. Slauson Ave.;Los Angeles;2009;90044;33.988912;-118.294858;6472286.78069964;1818476.30197231
157191672;-118.068886056338982;34.072745966866783;Career Partners - Rosemead Worksource Center;3505 N. Hart Ave.;Rosemead;;;;;;
157191678;-118.309115055616303;33.98406096707194;Vermont Slauson Economic Development Corporation - Satellite Center;6109 S. Western Ave.;Los Angeles;;;;;;
157191689;-118.116942756775359;34.581921536060356;Los Angeles County Community And Senior Services - Workforce Investment Act - South Valley Worksource Center;38510 Sierra Hwy;Palmdale;;;;;;
157191812;-118.264869855763848;33.845238157454482;Force Of Hope Economic Development Corporation;20501 S Avalon Blvd;Carson;2489;;;;;
157191978;-118.266024856467851;34.051400936949072;City Of Los Angeles Workforce Investment Board;1200 W 7Th St;Los Angeles;2708;90017;34.05140097;-118.2660248;6481087.4684788;1841192.8277334
157192005;-118.193040556063707;33.768907167338092;City Of Long Beach Department Of Community Development - Neighborhood Services - Business Services;100 W Broadway;Long Beach;2738;90802;33.7689072;-118.1930405;6502998.03259721;1738336.43830223
157192038;-118.266024856467851;34.051400936949072;City Of Los Angeles Housing Department - Homeownership And Preservation Division;1200 W 7Th St;Los Angeles;2774;90017;34.05140097;-118.2660248;6481087.4684788;1841192.8277334
157192265;-118.290834056780696;34.063824966689516;Los Angeles County Community And Senior Services - Workforce Investment Act - Worksource Centers;3175 W. Sixth St.;Los Angeles;2995;90020;34.063825;-118.290834;6473585.49529381;1845734.96989581
157192301;-118.151848656377993;34.08390433672659;San Gabriel Valley Council Of Governments;1000 S Fremont Ave;Alhambra;3041;91803;34.08390437;-118.1518486;6515690.96652889;1852949.53650339
157192384;-118.195582156486509;33.768134057162406;City Of Long Beach Department Of Community Development - Neighborhood Services;333 W Ocean Blvd;Long Beach;3108;90802;33.76813409;-118.1955821;6502224.99772596;1738056.57501681
157192387;-118.253733056728748;34.056275156939634;California Community Foundation;221 S Figueroa St;Los Angeles;3109;90012;34.05627519;-118.253733;6484815.30649555;1842957.0190869
157192391;-118.368368055692855;34.154864966748598;California State Employment Training Panel;4640 Lankershim Blvd.;North Hollywood;3114;91602;34.154865;-118.368368;6450224.29824989;1878942.90282364
157242402;-118.448976256407491;34.196396006380134;New Economics For Women - Familysource Center - South Valley;6931 Van Nuys Blvd;Van Nuys;56653;91406;34.19639604;-118.4489762;6425904.75436939;1894155.80054739
157242405;-118.26573705642663;34.059912966473107;New Economics For Women;303 S. Loma Dr.;Los Angeles;56654;90017;34.059913;-118.265737;6481182.8363983;1844290.27888756
157242406;-118.597831055771096;34.20810605648542;New Economics For Women - Familysource Center - Canoga Park Dennis P. Zine Community Center;21400 Saticoy St;Canoga Park;56655;91304;34.20810609;-118.597831;6380918.47459146;1898651.60487598
157242747;-118.404974055851625;34.233427966910533;El Proyecto Del Barrio - Sun Valley Worksource Of California;9024 Laurel Canyon Blvd.;Sun Valley;56955;91352;34.233428;-118.404974;6439264.76570706;1907575.77108273
157242792;-118.573438756163071;34.40583104575343;Worksource California Antelope Valley One-Stop Career Center - Santa Clarita Worksource Center;26455 Rockwell Canyon Rd;Santa Clarita;56997;91355;34.40583108;-118.5734387;6388703.80383706;1970563.29799455
157242793;-118.033353057062271;34.072685967150377;National Center For American Indian Enterprise Development;11138 Valley Mall;El Monte;57001;91731;34.072686;-118.033353;6551569.76813072;1848833.90595515
157242795;-118.253987056374783;33.935575967164233;Watts Labor Community Action Committee - Southeast Los Angeles - Watts Worksource Center;10956 S. Central Ave.;Los Angeles;57002;90059;33.935576;-118.253987;6484627.38331497;1799032.42320922
157242797;-118.448896556196871;34.163873576461285;Valley Economic Development Center;5121 Van Nuys Blvd;Van Nuys;57003;91403;34.16387361;-118.4488965;6425875.99950564;1882320.30945465
157242820;-118.257033056854183;34.048833966796771;Operation Hope Inc;707 Wilshire Blvd.;Los Angeles;57017;90017;34.048834;-118.257033;6483808.8232723;1840251.5737104
157242823;-118.186683056190191;33.987307966915296;Hope Center - Maywood;4449 E. Slauson Blvd.;Maywood;;;;;;
157242826;-118.355834056442689;34.018992967061195;Hope Center - La Brea;3721 S. La Brea Ave.;Los Angeles;57020;90016;34.018993;-118.355834;6453841.27789256;1829483.15134965
157242828;-118.264486056652473;33.917356967186052;Los Angeles Urban League - Worksource California Business And Career Center;12700 S. Avalon Blvd.;Los Angeles;57022;90061;33.917357;-118.264486;6481425.23880063;1792410.35508856
157242830;-117.74660905787114;34.060509967409381;Los Angeles Urban League - City Of Pomona Worksource Center;264 E. Monterey Rd.;Pomona;57025;91766;34.06051;-117.746609;6638417.87461789;1844497.89034897
157242835;-118.328982056448069;33.959851966895215;Community Centers, Inc. - South Los Angeles;7518-26 S. Vermont Ave.;Los Angeles;57028;90044;33.959852;-118.328982;6461907.8198303;1807932.90967332
157242839;-118.262774056480438;34.052300967009046;Pacific Asian Consortium In Employment - Business Development Center;1055 Wilshire Blvd.;Los Angeles;57030;90017;34.052301;-118.262774;6482073.03802997;1841517.77491814
157242843;-118.262774056480438;34.052300967009046;Pacific Asian Consortium In Employment - Los Angeles Office;1055 Wilshire Blvd.;Los Angeles;57031;90017;34.052301;-118.262774;6482073.03802997;1841517.77491814
157242849;-117.93402605756927;34.107017967032704;L A Works;5200 Irwindale Ave.;Irwindale;57034;91706;34.107018;-117.934026;6581641.5685513;1861332.84847689
157242860;-118.594465055395773;34.238192966143615;Build Rehabilitation Industries - Chatsworth - Northridge Worksource Center;9207 Eaton Ave.;Chatsworth;57043;91311;34.238193;-118.594465;6382000.91304338;1909594.54788506
157242864;-118.101899056927635;33.865486967443957;Southeast Los Angeles County Workforce Investment Board - Cerritos Career Center;10900 E. 183rd St.;Cerritos;57045;90703;33.865487;-118.101899;6530734.99352738;1773443.74308747
157242866;-118.101899056927635;33.865486967443957;Southeast Los Angeles County Workforce Investment Board;10900 E. 183rd St.;Cerritos;57046;90703;33.865487;-118.101899;6530734.99352738;1773443.74308747
157242869;-118.099411056768261;33.872563307231161;Uaw - Labor Employment And Training Corporation;11010 Artesia Blvd;Cerritos;57048;90703;33.87256334;-118.099411;6531492.86766781;1776018.23892273
157242871;-118.155416057256645;34.703581545744868;Uaw - Labor Employment And Training Corporation - Antelope Valley One-Stop Career Center;1420 W Ave I;Lancaster;57049;93534;34.70358158;-118.155416;6514959.43879247;2078464.89124607
157242873;-118.291694056351417;34.012665966702293;Uaw - Labor Employment And Training Corporation - Southeast Los Angeles / Crenshaw Worksource Center;3965 S. Vermont Ave.;Los Angeles;57050;90037;34.012666;-118.291694;6473271.00150022;1827118.03436072
157243572;-118.265334056458656;33.845101967176859;Human Potential Consultants, Llc;500 E. Carson Plaza Dr.;Carson;57531;90746;33.845102;-118.265334;6481098.54588448;1766115.79087989
157243858;-118.496559056016778;34.014654966494682;Community Corporation Of Santa Monica;1423 Second St.;Santa Monica;;;;;;
157244193;-118.254849056204151;34.150491967077137;United States Small Business Administration - Los Angeles District Office;330 N. Brand Blvd.;Glendale;58128;91203;34.150492;-118.254849;6484564.20365131;1877245.02662623
157244206;-118.255457456616028;34.051886246454742;Los Angeles County Economic Development Corporation;444 S Flower St;Los Angeles;58139;90071;34.05188628;-118.2554574;6484288.9325483;1841361.13743615
157244415;-118.573068356190802;34.429320046093189;Hands On Santa Clarita;25201 Ave Tibbitts;Valencia;58362;91355;34.42932008;-118.5730683;6388864.26053713;1979110.64901006
157244609;-118.573438756163071;34.40583104575343;City Of Santa Clarita Worksource Center;26455 Rockwell Canyon Rd;Santa Clarita;58532;91355;34.40583108;-118.5734387;6388703.80383706;1970563.29799455
157244611;-118.206722056233829;33.900842967335699;City Of Compton Careerlink Center;700 N. Bullis Rd.;Compton;58533;90221;33.900843;-118.206722;6498938.45771113;1786359.46430323
157244612;-118.329106056574091;34.103858966303044;Thai Community Development Center;6376 Yucca St.;Los Angeles;58534;90028;34.103859;-118.329106;6462041.80217388;1860339.76778589
157244963;-118.160256056099556;33.894282967106754;Paramount Chamber Of Commerce;15357 Paramount Blvd.;Paramount;58827;90723;33.894283;-118.160256;6513035.21396638;1783946.39006114
157244978;-118.140024256682253;33.851206857197056;Greater Lakewood Chamber Of Commerce;24 Lakewood Center Mall;Lakewood;;;;;;
157245124;-118.237400056217652;34.055556966736063;Los Angeles County Children And Families First - Proposition 10 Commission;750 N. Alameda St.;Los Angeles;58962;90012;34.055557;-118.2374;6489761.90027688;1842683.57048681
157245149;-118.195582156486509;33.768134057162406;City Of Long Beach Development Services - Housing;333 W Ocean Blvd;Long Beach;58982;90802;33.76813409;-118.1955821;6502224.99772596;1738056.57501681
157245151;-118.295557055931667;34.0619179671111;Managed Career Solutions Inc;3333 Wilshire Blvd.;Los Angeles;58985;90010;34.061918;-118.295557;6472153.00504856;1845045.15139356
157245154;-118.35313605619038;33.929360396916621;Hawthorne / South Bay Workforce Investment Board;11539 S Hawthorne Blvd;Hawthorne;;;;;;
157245156;-118.309626056141212;33.879022967419957;Hawthorne / South Bay Workforce Investment Board - South Bay One Stop Business And Career Center - Gardena;16801 S. Western Ave.;Gardena;;;;;;
157245158;-118.353109955551446;33.962749256955519;Hawthorne / South Bay Workforce Investment Board - South Bay One Stop Business And Career Center - Inglewood;110 S La  Brea Ave;Inglewood;;;;;;
157245160;-118.388412755988227;33.820220687052235;Hawthorne / South Bay Workforce Investment Board - South Bay One Stop Business And Career Center - Beach Cities;1611 S Catalina Ave;Redondo Beach;;;;;;
157245162;-118.259511056605746;33.832890967058681;Hawthorne / South Bay Workforce Investment Board - South Bay One Stop Business And Career Center - Carson;1 Civic Plaza Dr.;Carson;58992;90745;33.832891;-118.259511;6482855.29138672;1761667.29288715
157245219;-118.255530056110047;34.049055026640644;United States Department Of Housing And Urban Development;611 W 6Th St;Los Angeles;59048;90017;34.04905506;-118.25553;6484264.32203323;1840330.86062531
157246326;-117.982531657328337;34.100220056743495;San Gabriel Valley Economic Partnership;4900 Rivergrade Rd;Irwindale;60122;91706;34.10022009;-117.9825316;6566958.68387514;1858852.86656022
157246329;-118.223265456372175;34.077926756739217;Goodwill Southern California - Metro North Los Angeles Worksource Center;342 N San Fernando Rd;Los Angeles;;;;;;
157246331;-118.025651056891306;34.067367966676507;Goodwill Southern California - Central San Gabriel Valley Worksource Center;11635 Valley Blvd.;El Monte;;;;;;
157246450;-118.185828056286908;33.819789967593756;Pacific Gateway Workforce Investment Network;3447 Atlantic Ave.;Long Beach;60208;90807;33.81979;-118.185828;6505224.41429931;1756849.93244314
157246456;-118.202065056491691;33.75147596771113;Port Of Long Beach;925 Harbor Plaza;Long Beach;60214;90802;33.751476;-118.202065;6500242.39736047;1731998.11830173
157247078;-118.243172156114341;34.054045806831652;City Of Los Angeles Department Of Public Works - Office Of Community Beautification;200 N Spring St;Los Angeles;60813;90012;34.05404584;-118.2431721;6488012.20495738;1842137.81107965
157247152;-118.125227056499995;34.144848967264927;Foothill Workforce Investment Board - Foothill Employment And Training Connection;1207 E. Green St.;Pasadena;60846;91106;34.144849;-118.125227;6523779.54319946;1875117.29367697
157247153;-118.243771056553513;34.048149966583324;Asian Pacific Islander Small Business Program;231 E. 3rd St.;Los Angeles;60847;90013;34.04815;-118.243771;6487825.59181355;1839992.64575057
157247356;-118.240027056108858;34.062133966921657;Chinatown Worksource Center;767 N. Hill St.;Los Angeles;61113;90012;34.062134;-118.240027;6488971.89923222;1845078.95086664
157249164;-118.25421305616635;33.936705967011569;Maxine Waters Employment Preparation Center;10925 South  Central Ave;Los Angeles;12900;90059;33.936706;-118.254213;6484559.86999856;1799443.82724206
157249169;-118.29176325583002;33.967739466954512;Vermont Slauson Economic Development ;7901 S. Vermont Avenue;Los Angeles ;68551;90044;33.9677395;-118.2917632;6473202.57414363;1810768.47847722
157249513;-118.292128499929262;33.961196617827596;LA City Housing Department - Council District #8 Office;8475 S. Vermont Ave;Los Angeles;2534;90044;33.96119665;-118.29212844;6473084.90607189;1808387.72733323
157249676;-118.308125856175934;34.03250879700942;Fame Renaissance - Buissness  Development;1968 W. Adams Blvd.;Los Angeles;;;;;;
157249702;-118.281555856002669;33.74102022714299;Port Of Los Angeles;425 S. Palos Verdes St.;San Pedro;60215;90731;33.74102026;-118.2815558;6476066.52051547;1728251.1084073
157249969;-118.116942756775359;34.581921536060356;Goodwill Southern California - South Valley Worksource Center;38510 Sierra Hwy;Palmdale;;;;;;
157250730;-118.382801056306732;34.05197196691271;Educational Communication Inc;P.O. Box 351419;Los Angeles;70787;90035;34.051972;-118.382801;6445715.16061464;1841514.79854615
157250909;-118.590891155753226;34.193589226126399;Canoga Park - West Hills Worksource Center - Rescare Workforce Services;21010 Vanowen St;Canoga Park;70871;91303;34.19358926;-118.5908911;6382985.64631014;1893356.35234314
157250912;-118.302258556521537;34.061567997062042;Wilshire - Metro Worksource Center;3550 Wilshire Blvd;Los Angeles;70872;90010;34.06156803;-118.3022585;6470122.89985681;1844923.82683305
157250919;-118.22313505660415;33.979328477357917;Uaw - Labor Employment And Training Corporation - Hub Cities Office;2677 Zoe Ave;Huntington Park;;;;;;
157250957;-118.22313505660415;33.979328477357917;Hub Cities Career Center Worksource California;2677 Zoe Ave;Huntington Park;70922;90255;33.97932851;-118.223135;6494021.17915988;1814932.65748481
157250975;-118.161890456005224;34.050468926654013;Managed Career Solutions Inc - West San Gabriel Valley Worksource Center;1000 Corporate Center Dr;Monterey Park;70931;91754;34.05046896;-118.1618904;6512630.74167822;1840786.5096484
157251124;-118.155549756646565;34.020557877125896;East Los Angeles Employment And Business Center;5301 Whittier Blvd;Los Angeles;;;;;;
157251254;-118.312876856466772;34.032855516713134;La84 Foundation;2141 W Adams Blvd;Los Angeles;;;;;;
157251279;-118.209020755806932;33.782005247821019;Help Me Help You;1301 W 12Th St;Long Beach;71130;90813;33.78200528;-118.2090207;6498150.96486355;1743112.90643956
157251350;-118.144843156366804;34.148668136572226;City Of Pasadena Planning Department;175 N Garfield Ave;Pasadena;71172;91101;34.14866817;-118.1448431;6517846.17317647;1876515.13110439
157251375;-118.149964256518487;33.966577527506047;Southeast Community Development Corporation;6423 Florence Pl;Bell Gardens;;;;;;
157251484;-118.208173356416083;34.113066186980816;Women Organizing Resources Knowledge And Services;795 N Ave 50;Los Angeles;71250;90042;34.11306622;-118.2081733;6498657.99304897;1863592.60019098
157252809;-118.333688055934573;34.002900967105916;LA Urban  League Buisness Development Center;3450 Mount Vernon Dr. ;Los Angeles;68543;90008;34.002901;-118.333688;6460532.75630747;1823603.96133639
157258986;-118.217754056131213;34.073741966502411;City Of Los Angeles Housing Department - East Regional Office;2215 N. Broadway Ave.;Los Angeles;2926;90031;34.073742;-118.217754;6495726.99759863;1849287.95360348
157259026;-118.266024856467851;34.051400936949072;City Of Los Angeles Housing Department;1200 W 7Th St;Los Angeles;2775;90017;34.05140097;-118.2660248;6481087.4684788;1841192.8277334
157259135;-118.302258556521537;34.061567997062042;City Of Los Angeles Housing Department - Central Regional Office;3550 Wilshire Blvd;Los Angeles;3055;90010;34.06156803;-118.3022585;6470122.89985681;1844923.82683305
157259138;-118.448444056207151;34.191883966603676;City Of Los Angeles Housing Department - North Regional Office;6640 Van Nuys Blvd.;Van Nuys;3219;91405;34.191884;-118.448444;6426058.35937713;1892513.08565697
157260145;-118.446221408246103;33.970666822195419;Los Angeles County Department Of Beaches And Harbors;13837 Fiji Way;Marina Del Rey;;90292;33.97066686;-118.44622135;6426373.1172778;1812005.71911298
157260240;-118.384113056202608;34.081843967177754;West Hollywood AJCC;625 N San Vicente Blvd;West Hollywood;57015;90069;34.081844;-118.384113;6445359.28304556;1852387.22988522
157260331;-118.286806855579925;33.738633727130058;City of Los Angeles Economic and Workforce Development Department - Businesssource Center - Harbor Region;455 W 6Th St;San Pedro;71746;90731;33.73863376;-118.2868068;6474467.54044572;1727387.10587023
157260332;-118.540377855852853;34.201308116011248;City of Los Angeles Economic and Workforce Development Department - Businesssource Center - West Valley Region;18645 Sherman Way;Reseda;71745;91335;34.20130815;-118.5403778;6398275.74794772;1896079.39873432
157260333;-118.448686655920071;34.220640366559508;City of Los Angeles Economic and Workforce Development Department - Businesssource Center - South Valley Region;8248 Van Nuys Blvd;Panorama City;71744;91402;34.2206404;-118.4486866;6426031.70916797;1902978.28224623
157260334;-118.29485825596808;33.988912257177596;City of Los Angeles Economic and Workforce Development Department - Businesssource Center - South Los Angeles Region, Slauson Ave.;1130 W Slauson Ave;Los Angeles;71743;90044;33.98891229;-118.2948582;6472286.72033231;1818476.40761514
157260335;-118.151422256567301;34.031089126704309;City of Los Angeles Economic and Workforce Development Department - Businesssource Center - East Los Angeles Region, Beverly Blvd.;5271 E Beverly Blvd;Los Angeles;71742;90022;34.03108916;-118.1514222;6515791.12577739;1833728.88564031
157260456;-118.266025055852523;34.051400967161847;City Of Los Angeles Economic and Workforce Development Department - Administration;1200 W. 7th St.;Los Angeles;2772;90017;34.051401;-118.266025;6481087.40811147;1841192.83888823
157260465;-118.262897056349431;34.052320826874414;City Of Los Angeles Economic and Workforce Development Department - Businesssource Center - Central/West Region;1055 Wilshire Blvd;Los Angeles;2730;90017;34.05232086;-118.262897;6482035.79893123;1841525.09970665
157260466;-118.309115055616303;33.98406096707194;City Of Los Angeles Economic and Workforce Development Department - Businesssource Center - South Los Angeles Region, Western Ave.;6109 S. Western Ave.;Los Angeles;3191;90047;33.984061;-118.309115;6467959.48390806;1816723.91440098
157260494;-118.218104255902887;34.046611017054673;City Of Los Angeles Economic and Workforce Development Department - Businesssource Center - East Los Angeles Region, First St.;1852 E 1St St;Los Angeles;2144;90033;34.04661105;-118.2181042;6495599.5221318;1839414.73023973
157260504;-118.266024856467851;34.051400936949072;City Of Los Angeles Economic and Workforce Development Department - Economic Development Division;1200 W 7Th St;Los Angeles;2773;90017;34.05140097;-118.2660248;6481087.4684788;1841192.8277334
157260511;-118.266024856467851;34.051400936949072;City Of Los Angeles Economic and Workforce Development Department - Workforce Development Division;1200 W 7Th St;Los Angeles;59839;90017;34.05140097;-118.2660248;6481087.4684788;1841192.8277334
157260512;-118.419825256415407;34.267529426460428;City Of Los Angeles Economic and Workforce Development Department - Businesssource Center - North Valley Region;13172 Van Nuys Blvd;Pacoima;70335;91331;34.26752946;-118.4198252;6434827.76867555;1920004.21965098
157260668;-118.294262056642481;34.083730967033205;Managed Career Solutions Inc - Hollywood Worksource Center;4311 Melrose Ave.;Los Angeles;58984;90029;34.083731;-118.294262;6472568.46747223;1852982.13420723
157260811;-118.155657455759723;34.703569071548131;Antelope Valley AJCC - Lancaster Site;1420 W Ave I;Lancaster;;;;;;
157260813;-118.116519757080084;34.581781866218698;Antelope Valley AJCC - South Valley (Palmdale) Site;38510 Sierra Highway;Palmdale;83273;93550;34.5817819;-118.1165197;6526598.48441197;2034122.73911689
