OBJECTID;X;Y;Name;addrln1;city;post_id;description;zip;latitude;longitude;POINT_X;POINT_Y
157190492;-118.132931056265278;34.16395996711595;Planned Parenthood Pasadena And San Gabriel Valley - Pasadena Health Center;1045 N. Lake Ave.;Pasadena;;;;;;;
157190499;-118.301215055882409;33.797948967317474;Providence Little Company Of Mary Medical Center - Women's And Children's Clinic;1403 Lomita Blvd.;Harbor City;587;The facility provides health education, health services, hospital services, and self help groups for people of all ages in Los Angeles County.;90710;33.797949;-118.301215;6470151.46705689;1748986.35072939
157190501;-118.359716055466691;33.839398966732034;Providence Little Company Of Mary Medical Center - Transitional Care Center;4320 Maricopa St.;Torrance;588;The facility provides health education, health services, hospital services, and self help groups for people of all ages in Los Angeles County.;90503;33.839399;-118.359716;6452431.0218548;1764129.44478698
157190502;-118.304108455686517;33.738063127696869;Providence Little Company Of Mary Medical Center - Pavilion - San Pedro;1300 W 7Th St;San Pedro;589;The facility provides health education, health services, hospital services, and self help groups for people of all ages in Los Angeles County.;90732;33.73806316;-118.3041084;6469206.4253118;1727194.91071656
157190504;-118.226176655960444;33.982736647378715;Altamed - Senior Buenacare - Rugby;6330 Rugby Ave;Huntington Park;594;The program provides health services for people age 55 and older, services for older adults age 55 and older, and services for people with disabilities in Los Angeles.;90255;33.98273668;-118.2261766;6493101.83191723;1816175.01982948
157190506;-118.243764056583487;34.060731967256928;Altamed - Senior Buenacare - Grand Plaza;701 W. Cesar E. Chavez;Los Angeles;595;The program provides health services for people age 55 and older, services for older adults age 55 and older, and services for people with disabilities in Los Angeles.;90012;34.060732;-118.243764;6487838.81619656;1844571.46139605
157190511;-118.537467055510291;34.199489966682833;Tarzana Treatment Center - Reseda;7101 Baird Ave.;Reseda;598;The center provides domestic violence services, health services, HIV/AIDS services, mental health services for adults, residential treatment for substance abuse, shelter, substance abuse services, and welfare-to-work support services for people of all ages who live in Los Angeles and Ventura Counties.;91335;34.19949;-118.537467;6399152.34330739;1895413.03195681
157190514;-118.205327055950505;34.059666827299431;Violence Intervention Program - Forensic Medical Clinic;2010 Zonal Ave;Los Angeles;600;The agency provides adult protective services, child abuse services, domestic violence services, health services for foster children, and mental health services for victims of child abuse/neglect, domestic violence, sexual assault, elder abuse and dependent adult abuse in Los Angeles County.;90031;34.05966686;-118.205327;6499479.84836064;1844157.83098973
157190516;-118.348693055671404;33.814967967534557;Family Planning Associates Medical Group - Torrance;3655 Lomita  Blvd.;Torrance;601;The agency administers clinics which provide family planning services for women age 12 years and older who live in Los Angeles County.;90505;33.814968;-118.348693;6455747.65334488;1755226.62236956
157190518;-118.465492056107166;34.039447966334535;Family Planning Associates Medical Group - West Los Angeles;12304 Santa Monica Blvd.;Los Angeles;;;;;;;
157190522;-118.292348056109276;33.803531967285195;Casa De Los Angelitos;954 Koleeta Dr.;Harbor City;604;The agency operates a maternity home for women age 18 and older.;90710;33.803532;-118.292348;6472851.45017397;1751010.19412264
157190524;-118.260450056190095;34.158329966351701;Family Planning Associates Medical Group - Glendale;372 W. Arden Ave.;Glendale;606;The agency administers clinics which provide family planning services for women age 12 years and older who live in Los Angeles County.;91203;34.15833;-118.26045;6482876.98130397;1880101.75155582
157190526;-118.467233055889963;34.255481966528258;Family Planning Associates Medical Group - Mission Hills;10200 Sepulveda Blvd.;Mission Hills;;;;;;;
157190528;-118.189546056252695;33.807803967530184;Family Planning Associates Medical Group - Long Beach;2777 Long Beach Blvd.;Long Beach;609;The agency administers clinics which provide family planning services for women age 12 years and older who live in Los Angeles County.;90806;33.807804;-118.189546;6504086.83455347;1752490.02285589
157190530;-118.288600056290804;34.063469967053422;Family Planning Associates Medical Group - Mid-Wilshire;601 S. Westmoreland Ave.;Los Angeles;611;The agency administers clinics which provide family planning services for women age 12 years and older who live in Los Angeles County.;90025;34.06347;-118.2886;6474261.73377071;1845603.82908198
157190538;-118.067834956553156;34.070432937048054;Los Angeles County Department Of Public Health - Office Of Women's Health;3400 Aerojet Ave;El Monte;622;The agency provides health referral services to low income women in Los Angeles County.;91731;34.07043297;-118.0678349;6541126.78212696;1848019.24091782
157190558;-118.181267056946382;34.140718967044911;Planned Parenthood Pasadena And San Gabriel Valley - Eagle Rock Express Center;1578 W. Colorado Blvd.;Los Angeles;647;The agency provides family planning services for people of all ages in Los Angeles County.;90041;34.140719;-118.181267;6506820.44489989;1873640.16408531
157190561;-118.12446005709144;34.091942966484957;Planned Parenthood Pasadena And San Gabriel Valley - Alhambra Health Center;320 S. Garfield;Alhambra;648;The agency provides family planning services for people of all ages in Los Angeles County.;91801;34.091943;-118.12446;6523987.78064388;1855863.54543914
157190567;-118.241167056765633;34.044534966579455;Homeless Health Care Los Angeles - Center For Harm Reduction;512 E. 4th St.;Los Angeles;;;;;;;
157190569;-118.396381055987106;33.955497967275051;Spirit Home Health Care - Ccam Inc;8929 S. Sepulveda Blvd.;Westchester;652;The agency provides in-home health services for people of all ages who live in the Los Angeles County area.;90045;33.955498;-118.396381;6441463.18421046;1806422.15186806
157190570;-118.269311056420236;34.074171966619865;City Help Inc;2301 Bellvue Ave.;Los Angeles;653;The agency provides health services for homeless and uninsured people in the City of Los Angeles.;90026;34.074172;-118.269311;6480114.2342048;1849482.26522273
157190572;-118.209021056321617;33.782004967831888;Children's Clinic, The - Long Beach Multiservice Center;1301 W. 12th St.;Long Beach;655;The clinic provides health services for low-income children and families, including those who are homeless, who live in the Long Beach and surrounding areas.;90813;33.782005;-118.209021;6498150.8733283;1743112.80473372
157190582;-118.486272055615359;34.027547966446875;Ucla Medical Center - Santa Monica - Rape Treatment Center;1250 16th St.;Santa Monica;672;The agency provides sexual assault services for people of all ages in Los Angeles.;90404;34.027548;-118.486272;6414329.7319158;1832762.02143231
157190584;-118.307015056107545;33.738964967256841;Providence Little Company Of Mary Medical Center - Peninsula Diagnostic Center;1360 W. 6th St.;San Pedro;675;The facility provides health education, health services, hospital services, and self help groups for people of all ages in Los Angeles County.;90731;33.738965;-118.307015;6468323.6810143;1727525.80244322
157190594;-118.194080056103914;33.805907967762423;Pacific Hospital Of Long Beach - Family Health Clinic;2683 Pacific Ave.;Long Beach;693;The hospital provides health services, mental health services, and safe haven services for people of all ages in Los Angeles and Orange County.;90806;33.805908;-118.19408;6502708.0886233;1751802.64693406
157190596;-118.157135056734305;33.810465966984644;Family Planning Associates Medical Group - Administration - Downey;3050 Airport Way;Long Beach;695;The agency administers clinics which provide family planning services for women age 12 years and older who live in Los Angeles County.;90806;33.810466;-118.157135;6513934.70330913;1753441.81557173
157190600;-118.348169056349462;33.835651967486541;Providence Little Company Of Mary Medical Center - Del Amo Diagnostic Center;3531 Fashion Way;Torrance;697;The facility provides health education, health services, hospital services, and self help groups for people of all ages in Los Angeles County.;90503;33.835652;-118.348169;6455932.90133397;1762753.47608222
157190601;-118.145310055889482;33.806588967229253;Scan Health Plan;3800 Kilroy Airport Way;Long Beach;699;The agency provides health insurance for Medicare recipients who qualify for Medicare Advantage programs in Los Angeles and surrounding counties.;90806;33.806589;-118.14531;6517524.94711289;1752025.46801072
157190603;-118.166899056083977;33.827400967438066;Miller Family Health Education Center;3820 Cherry Ave.;Long Beach;701;The Department of Health and Human Services' (DHHS) Miller Family Health Education Center (MFHEC) provides community health education and health promotion programs for residents of Long Beach;;;;;
157190614;-118.187170056171297;33.80635096736421;Pediatric And Family Hiv Clinic;501 E. 27th St.;Long Beach;706;The medical center provides HIV/AIDS services, hospital services, and safe haven services for people of all ages in Los Angeles County.;90806;33.806351;-118.18717;6504807.67071022;1751959.88513665
157190617;-118.149367056486156;34.033506967103548;Altamed - Senior Buenacare - Pace;5425 E. Pomona Blvd.;Los Angeles;708;The program provides health services for people age 55 and older, services for older adults age 55 and older, and services for people with disabilities in Los Angeles.;90022;34.033507;-118.149367;6516415.13502805;1834607.85304248
157190631;-118.287035655859427;34.099221856506396;Avalon Medical Development Corporation;1530 Hillhurst. Ave.;Los Angeles;739;;90027;34.09922189;-118.2870356;6474772.69698764;1858613.21087156
157190632;-118.330886655504841;33.339198728351697;Baart Community Healthcare;100 Falls Canyon Rd.;Avalon;740;;90704;33.33919876;-118.3308866;6460586.71354863;1582057.23937832
157190634;-118.344695555601007;33.894868907418456;El Proyecto Del Barrio;4023 Marine Ave.;Lawndale;;;;;;;
157190635;-118.298761855825973;33.866238136880163;Gardena School Based Clinic;1301 W. 182Nd St.;Gardena;744;;90248;33.86623817;-118.2987618;6470970.69212447;1773836.21999282
157190639;-118.314100455911031;34.083928526671784;Los Angeles Free Clinic;5205 Melrose Ave.;Los Angeles;751;;90038;34.08392856;-118.3141004;6466561.68913147;1853072.20751789
157190640;-118.268707656098911;34.06567124645813;Mission City Community Network;1926 W. Beverly Blvd.;Los Angeles;752;;90057;34.06567128;-118.2687076;6480288.69317347;1846388.21235573
157190645;-118.150225056968694;34.650383545537956;Visiting Nurse Community Services;1122 W. Ave. L12;Lancaster;760;;93534;34.65038358;-118.150225;6516490.6791683;2059102.1871894
157190652;-118.134812057181179;34.155281966480338;Elizabeth House;760 Santa Barbara St.;Pasadena;768;The agency operates a Christian-oriented maternity home for women in Los Angeles County.;91101;34.155282;-118.134812;6520884.4380973;1878917.80051164
157190658;-118.321998055946949;34.056121967229608;Korean Resource Center;900 Crenshaw Blvd.;Los Angeles;775;The agency provides advocacy, community action groups, education services, and health insurance.;90019;34.056122;-118.321998;6464137.91215488;1842960.48627156
157190682;-118.155437056148514;34.027009966729587;Bienvenidos - Community Health Center / Woman's Institute;507 S. Atlantic Blvd.;Los Angeles;797;The agency provides child abuse services, family support services, foster care services, health services, and substance abuse services for families throughout the San Gabriel Valley.;90022;34.02701;-118.155437;6514572.39265056;1832246.2567158
157190689;-118.151838056756503;34.03136296724059;Bienvenidos - East Los Angeles Family Preservation;5257 E. Beverly Blvd.;Los Angeles;799;The agency provides child abuse services, family support services, foster care services, health services, and substance abuse services for families throughout the San Gabriel Valley.;90022;34.031363;-118.151838;6515665.29367997;1833828.73156923
157190749;-118.280581056326994;33.737263967670067;Harbor Community Clinic - Don Knabe Pediatric Clinic;731 S. Beacon St.;San Pedro;837;The agency provides counseling services and health services for people of all ages in the Harbor area.;90731;33.737264;-118.280581;6476359.08062589;1726883.26829523
157190862;-118.095977056647058;34.006734967457788;Tavarua Health Services;8207 Whittier Blvd.;Pico Rivera;901;The agency provides drug abuse services, health services and HIV/AIDS services for people who live in unincorporated East Los Angeles and the San Gabriel Valley, including people who are undocumented.;90660;34.006735;-118.095977;6532581.92159206;1824845.24888006
157190865;-118.20803505612075;33.933408966794346;Missionaries Of Charity;10950 California Ave.;Lynwood;906;The agency provides emergency long-term shelter for homeless, pregnant women 18 years and older who are in Los Angeles, Orange, San Bernardino and Ventura Counties.;90262;33.933409;-118.208035;6498564.54310463;1798211.77130723
157190870;-118.444043055761682;34.036370966812889;Westside Pregnancy Clinic;11500 W. Olympic Blvd.;Los Angeles;908;The agency provides family life education and health services primarily for women and teens in SPA 5 and SPA 6 of Los Angeles County, which includes Malibu, Santa Monica, Culver City, Beverly Hills, and part of the City of Los Angeles.;90064;34.036371;-118.444043;6427139.23155922;1835913.64275372
157190909;-117.752025057041692;34.073389966916636;Planned Parenthood Los Angeles - Pomona Health Center;1550 N. Garey;Pomona;923;The agency provides family planning services for adolescents and adults of all ages in Los Angeles County.;91767;34.07339;-117.752025;6636765.90613705;1849181.06405348
157190911;-118.124587056203836;33.847215966971334;Planned Parenthood Los Angeles - Lakewood Health Center;5525 E. Del Amo Blvd.;Lakewood;;;;;;;
157190913;-118.590937655669762;34.201259196508538;Planned Parenthood Los Angeles - Canoga Park Health Center;21001 Sherman Way;Canoga Park;926;The agency provides family planning services for adolescents and adults of all ages in Los Angeles County.;91303;34.20125923;-118.5909376;6382987.99440256;1896147.62760048
157190915;-118.291570055980657;34.089941966855179;Planned Parenthood Los Angeles - Hollywood Health Center;1014 1/2 N. Vermont Ave.;Los Angeles;927;The agency provides family planning services for adolescents and adults of all ages in Los Angeles County.;90029;34.089942;-118.29157;6473390.1531648;1855240.0496389
157190917;-118.278091056544824;33.960974966748445;Planned Parenthood Los Angeles - Dorothy Hecht Health Center;8520 S. Broadway;Los Angeles;928;The agency provides family planning services for adolescents and adults of all ages in Los Angeles County.;90003;33.960975;-118.278091;6477341.4051048;1808294.99031398
157190920;-118.448536055787073;34.19961296640534;Planned Parenthood Los Angeles - Van Nuys Health Center;7100 Van Nuys Blvd.;Van Nuys;929;The agency provides family planning services for adolescents and adults of all ages in Los Angeles County.;91405;34.199613;-118.448536;6426043.08939455;1895325.9045064
157190922;-118.037534056241086;33.972669966871258;Planned Parenthood Los Angeles - Whittier Health Center;7655 Greenleaf Ave.;Whittier;930;The agency provides family planning services for adolescents and adults of all ages in Los Angeles County.;90602;33.97267;-118.037534;6550290.01281622;1812436.52632223
157190924;-118.497513055828449;34.016672966689619;Planned Parenthood Los Angeles - Santa Monica Health Center;1316 3rd St. Promenade;Santa Monica;931;The agency provides family planning services for adolescents and adults of all ages in Los Angeles County.;90401;34.016673;-118.497513;6410904.14395072;1828821.10739814
157190926;-118.014478057327679;34.090594967450741;Planned Parenthood Los Angeles - El Monte Health Center;4786 N. Peck Rd.;El Monte;932;The agency provides family planning services for adolescents and adults of all ages in Los Angeles County.;91732;34.090595;-118.014478;6557286.77605364;1855349.97133505
157190928;-118.352905055764126;33.898771966920762;Planned Parenthood Los Angeles - South Bay Health Center;14623 Hawthorne Blvd.;Lawndale;933;The agency provides family planning services for adolescents and adults of all ages in Los Angeles County.;90260;33.898772;-118.352905;6454575.2518183;1785729.27002557
157190930;-118.209654056909997;34.057136966984096;Planned Parenthood Los Angeles - Bixby Health Center;1057 Kingston Ave.;Los Angeles;934;The agency provides family planning services for adolescents and adults of all ages in Los Angeles County.;90033;34.057137;-118.209654;6498167.34606439;1843239.87317997
157190932;-118.321862055900993;34.184039966251319;Planned Parenthood Los Angeles - Burbank Health Center;916 W. Burbank Blvd.;Burbank;935;The agency provides family planning services for adolescents and adults of all ages in Los Angeles County.;91506;34.18404;-118.321862;6464328.16538331;1889511.85347047
157190941;-118.350958055953953;33.813235966925674;South Bay Family Healthcare Center;23430 Hawthorne Blvd.;Torrance;944;The agency provides health services and HIV/AIDS services for people of all ages in Los Angeles.;90505;33.813236;-118.350958;6455057.41489597;1754598.69941281
157190944;-118.298444955949606;34.097879176532274;Children's Hosptial Los Angeles - High Risk Youth Program;5000 W Sunset Blvd;Los Angeles;947;The agency provides health services and homeless support services for youth age 12 to 24 in the Hollywood area.;90027;34.09787921;-118.2984449;6471317.18585405;1858134.64588381
157190949;-118.125742056281865;34.013635966706104;Altamed Medical Group - Montebello West Whittier Satellite Clinic;2321 W. Whittier Blvd.;Montebello;;;;;;;
157190950;-118.211430056851682;34.044601966566582;Altamed Medical Group - 1St Street Satellite Clinic - East Los Angeles;2219 E. 1st St.;Los Angeles;956;The agency provides health services for low-income people in Los Angeles County.;90033;34.044602;-118.21143;6497619.81172639;1838679.27928281
157190951;-118.349402055874577;33.811287967191454;South Bay Family Medical Group;3701 Skypark Dr.;Torrance;;;;;;;
157190954;-118.401542056070994;33.887512967093613;South Bay Family Medical Group - Manhattan Beach;855 Manhattan Beach Blvd.;Manhattan Beach;961;The agency provides health services for people of all ages in Los Angeles County.;90266;33.887513;-118.401542;6439799.22493997;1781687.27679722
157190957;-118.295588055716962;33.831441967126047;Harbor Ucla Medical Center - Women's Health Care Clinic;1124 W. Carson St.;Torrance;973;The agency provides health services for people of all ages who live in or around the South Bay area of Los Angeles.;90502;33.831442;-118.295588;6471896.97012755;1761170.22006239
157190960;-118.223366056197904;33.895823966945805;Women's Health Care Clinic - Compton Wic;130 E. Compton Blvd.;Compton;974;The agency provides health services for people of all ages who live in or around the South Bay area of Los Angeles.;90220;33.895824;-118.223366;6493883.61742714;1784543.74221289
157190962;-118.330886055032636;33.339198967988857;Women's Health Care Clinic - Catalina Island Medical Center;100 Falls Canyon Rd.;Avalon;975;The agency provides health services for people of all ages who live in or around the South Bay area of Los Angeles.;90704;33.339199;-118.330886;6460586.8972753;1582057.32599232
157190964;-118.36853505648115;34.090882966901276;Progressive Health Services: Wholistic Health For Women And Men;8235 Santa Monica Blvd.;West Hollywood;;;;;;;
157190970;-118.448556055740056;34.200473966378972;Northeast Valley Health Corporation - Van Nuys - Pediatric Health Center And Wic Site;7138 Van Nuys Blvd.;Van Nuys;984;The agency provides health services primarily for people who live in the San Fernando Valley including people who are low income, working poor, uninsured, and medically underserved.;91405;34.200474;-118.448556;6426038.44012564;1895639.26181932
157190975;-118.448828055788411;34.189887966925504;Northeast Valley Health Corporation - Van Nuys Hiv Division;6551 Van Nuys Blvd.;Van Nuys;985;The agency provides health services primarily for people who live in the San Fernando Valley including people who are low income, working poor, uninsured, and medically underserved.;91401;34.189888;-118.448828;6425938.99314605;1891787.23080948
157190978;-118.402477056304932;34.00583296654613;Venice Family Clinic - Culver City Youth Health Center;4401 Elenda St.;Culver City;;;;;;;
157190980;-118.151220057025171;34.177679966476127;City Of Pasadena Department Of Public Health;1845 N. Fair Oaks Ave.;Pasadena;;;;;;;
157190988;-118.193490056714111;33.854000967050737;American Health Services - El Dorado Community Service Centers - West County Long Beach;100 E. Market St.;Long Beach;;;;;;;
157190991;-118.464143055912174;33.999359966752515;American Health Services - El Dorado Community Service Centers - Venice;717 Lincoln Blvd.;Venice;;;;;;;
157190993;-118.344697055503943;33.894867967348901;American Health Services - El Dorado Community Service Centers - Lawndale;4023 Marine Ave.;Lawndale;998;The agency provides health services, mental health services and substance abuse services for people of all ages who live in the Los Angeles County area.;90260;33.894868;-118.344697;6457061.22847363;1784299.87787123
157190996;-118.371804055719963;34.075893966959164;American Health Services - El Dorado Community Service Centers - Hollywood;8346 Beverly Blvd.;Los Angeles;999;The agency provides health services, mental health services and substance abuse services for people of all ages who live in the Los Angeles County area.;90048;34.075894;-118.371804;6449078.47409797;1850207.91173731
157190998;-118.508746056615479;34.412079965952515;American Health Services - El Dorado Community Service Centers;26460 Summit Circle;Santa Clarita;1000;The agency provides health services, mental health services and substance abuse services for people of all ages who live in the Los Angeles County area.;91350;34.41208;-118.508746;6408228.41833106;1972732.33630739
157191001;-118.0723210562536;33.834009967500918;American Health Services - El Dorado Community Service Centers - Hawaiian Gardens;21505 Norwalk Blvd.;Hawaiian Gardens;1001;The agency provides health services, mental health services and substance abuse services for people of all ages who live in the Los Angeles County area.;90716;33.83401;-118.072321;6539706.28365564;1761980.68957005
157191003;-118.529106055594042;34.384539966136089;American Health Services - El Dorado Community Service Centers - Santa Clarita;24625 Arch St.;Newhall;1002;The agency provides health services, mental health services and substance abuse services for people of all ages who live in the Los Angeles County area.;91321;34.38454;-118.529106;6402034.97829014;1962741.81987114
157191007;-118.354001055616251;33.945151966819601;American Health Services - El Dorado Community Service Centers - Inglewood;4450 W. Century Blvd.;Inglewood;1003;The agency provides health services, mental health services and substance abuse services for people of all ages who live in the Los Angeles County area.;90304;33.945152;-118.354001;6454302.09586856;1802609.0682869
157191010;-118.080407057247072;34.580047966483164;American Health Services - El Dorado Community Service Centers - Palmdale;2720 E. Palmdale Blvd.;Palmdale;1004;The agency provides health services, mental health services and substance abuse services for people of all ages who live in the Los Angeles County area.;93550;34.580048;-118.080407;6537467.71497005;2033481.08160757
157191012;-118.376433055636383;34.067257967101526;Ahf Healthcare Center - Beverly Hills - On Hold;99 N. La Cienega Blvd.;Beverly Hills;1008;The agency provides HIV/AIDS services, and thrift shops for people who have AIDS or HIV-related illness in Los Angeles County.;90211;34.067258;-118.376433;6447664.93033713;1847070.34550589
157191132;-118.458773055790843;34.279673966287966;North Valley Sleep Disorders Center;11550 Indian Hills Rd.;Mission Hills;1113;The center provides health services for individuals in Los Angeles County.;91345;34.279674;-118.458773;6423080.64846906;1924475.22120765
157191135;-118.332615056153529;34.100247966771974;L A Gay And Lesbian Center - Health And Mental Health Services;1625 N. Schrader Blvd.;Los Angeles;1123;The center provides health services primarily for gay men and lesbians in Los Angeles.;90028;34.100248;-118.332615;6460975.19669555;1859029.16115515
157191138;-118.383912055931845;34.08379696696197;Spot, The;745 N. San Vicente Blvd.;West Hollywood;1124;The center provides health services primarily for gay men and lesbians in Los Angeles.;90069;34.083797;-118.383912;6445422.86100239;1853097.72583956
157191140;-118.278124056147888;34.011958966566084;Optometric Center Of Los Angeles;3916 S. Broadway;Los Angeles;;;;;;;
157191144;-118.187937055890345;33.779118967013957;St. Mary Medical Center - Care Program;411 E. 10th St.;Long Beach;1128;The center provides health education, HIV/AIDS and hospital services for people of all ages in Los Angeles County.;90813;33.779119;-118.187937;6504556.12560964;1742049.85804072
157191148;-118.18817505646139;33.779819967609235;St. Mary Medical Center - Care Clinic;1043 Elm Ave.;Long Beach;1129;The center provides health education, HIV/AIDS and hospital services for people of all ages in Los Angeles County.;90813;33.77982;-118.188175;6504484.27470347;1742305.10687406
157191152;-118.297294055740807;33.892458967462005;Veterans Administration Greater Los Angeles Healthcare System - Gardena Community Based Outpatient Clinic;1251 Redondo Beach Blvd.;Gardena;1136;The center provides hospital services, inpatient treatment for substance abuse, mental health services and substance abuse for veterans who have been honorably discharged or released from active military service.;90247;33.892459;-118.297294;6471444.51565188;1783377.24979523
157191153;-118.138649957179283;34.698610456059583;Veterans Administration Greater Los Angeles Healthcare System - Lancaster Community Based Outpatient Clinic;547 W Lancaster Blvd;Lancaster;1139;The center provides hospital services, inpatient treatment for substance abuse, mental health services and substance abuse for veterans who have been honorably discharged or released from active military service.;93534;34.69861049;-118.1386499;6519996.0560158;2076648.38667698
157191186;-118.279814056787572;34.044385967329795;Angelica Lutheran Church;1345 S. Burlington Ave.;Los Angeles;1171;The church provides cultural enrichment, emergency food, health services and holiday assistance for people who live in Los Angeles zip codes 90006, 90015 and 90057.;90006;34.044386;-118.279814;6476903.41910414;1838651.29410256
157191193;-118.3126780564981;33.835575967505157;Pediatric Therapy Network;1815 W. 213th St.;Torrance;1174;The clinic provide services for youth, from birth to 21 who have or are at risk for special needs.;90501;33.835576;-118.312678;6466711.24296622;1762690.38696957
157191208;-118.275815056006394;34.087036967184709;Hollywood Sunset Free Clinic;3324 W. Sunset Blvd.;Los Angeles;;;;;;;
157191211;-118.265320055855824;34.037025966830136;Northeast Community Clinic - California Family Care Clinic;1414 S. Grand Ave.;Los Angeles;1187;The clinic provides health and family planning services for people of all ages.;90015;34.037026;-118.26532;6481287.15443113;1835960.9484334
157191215;-118.192694056264301;33.978769967329377;Northeast Community Clinic - Community Medical Alliance;4129 E. Gage Ave.;Bell;1190;The clinic provides health and family planning services for people of all ages.;90201;33.97877;-118.192694;6503249.75453472;1814710.31508173
157191217;-118.276803056718038;34.003956966662209;Northeast Community Clinic - Clinica Para Las Mujeres;231 W. Vernon Ave.;Los Angeles;1191;The clinic provides health and family planning services for people of all ages.;90037;34.003957;-118.276803;6477775.05417189;1823935.90292972
157191219;-118.306300055834711;34.019118967347367;Northeast Community Clinic - Foshay Health Clinic;3751 S. Harvard Blvd.;Los Angeles;1192;The clinic provides health and family planning services for people of all ages.;90018;34.019119;-118.3063;6468851.74951197;1829479.56703922
157191221;-118.260800355737516;33.779941097542064;Northeast Community Clinic - Wilmington Family Health Clinic;200 E Anaheim St;Wilmington;1193;The clinic provides health and family planning services for people of all ages.;90744;33.77994113;-118.2608003;6482413.72796538;1742398.47939073
157191223;-118.476949756030777;34.025274736422475;Ucla Family Health Center;1920 Colorado Ave;Santa Monica;1198;The clinic provides health services for people of all ages in Los Angeles.;90404;34.02527477;-118.4769497;6417150.44543447;1831921.22324514
157191228;-118.404304056085763;34.053406966465793;Women's Clinic And Family Counseling Center;9911 W. Pico Blvd.;Los Angeles;;;;;;;
157191230;-118.151219756358415;34.177680456383747;Andrew Escajeda Comprehensive Care Services;1845 N Fair Oaks Ave;Pasadena;1214;The clinic provides HIV/AIDS services for adults age 18 and older in the San Gabriel Valley, who have been diagnosed with HIV or AIDS, including those who are indigent or uninsured.;91103;34.17768049;-118.1512197;6515932.73507422;1887076.07126856
157191239;-118.145259056430803;33.787817967715974;Tichenor Orthopedic Clinic For Children;1660 Termino Ave.;Long Beach;1223;The clinic provides services for people with disabilities and with developmental disabilities that have orthopedic involvement, in the greater Long Beach area.;90804;33.787818;-118.145259;6517530.56914888;1745194.16999356
157191245;-118.485039956185688;34.029960896932756;Emperor's College Of Traditional Oriental Medicine;1807 Wilshire Blvd;Santa Monica;1234;The college provides education and health services in the practice of Traditional Oriental Medicine.;90403;34.02996093;-118.4850399;6414707.29284047;1833638.32086082
157191262;-117.977699057529904;34.142919967387698;Santa Teresita;819 Buena Vista St.;Duarte;1273;The facility provides out-of-home-care for older adults age 65 and older who live in Los Angeles County.;91010;34.14292;-117.977699;6568418.24919747;1874392.44342065
157191264;-118.044646056526503;34.047226966793041;Taiwan Buddhist Tzu Chi Foundation - Tzu Chi Community Clinic - South El Monte;10408 Vacco St.;South El Monte;1279;The foundation provides disaster services in the United States and internationally;;;;;
157191267;-118.122637056292049;34.08451596690302;Taiwan Buddhist Tzu Chi Foundation - Buddhist Tzu-Chi Free Clinic - Alhambra;1000 S. Garfield Ave.;Alhambra;1280;The foundation provides disaster services in the United States and internationally;;;;;
157191273;-118.290423556548461;34.070818526670948;P. F. Bresee Foundation;184 Bimini Pl;Los Angeles;1282;The foundation provides health services and youth services for at-risk families in the Koreatown, Mid-Wilshire and Temple/Beverly areas of Los Angeles.;90004;34.07081856;-118.2904235;6473717.17646089;1848279.69052814
157191277;-118.138431956915042;34.697883375673776;Catalyst Foundation , The;540 W Lancaster Blvd;Lancaster;;;;;;;
157191281;-118.35788205636446;34.06244596681271;Asthma And Allergy Foundation Of America - Southern California;5900 Wilshire Blvd.;Los Angeles;1284;The foundation provides health services and recreational programs for people of all ages who have asthma or allergies.;90036;34.062446;-118.357882;6453276.97259071;1845298.65547973
157191297;-118.372309055776029;34.061034966635447;Biofeedback Institute Of Los Angeles;6542 Hayes Dr.;Los Angeles;1295;The institute provides health services for people of all ages.;90048;34.061035;-118.372309;6448905.51906331;1844801.03967705
157191300;-118.208192055852138;33.892670967497224;St. Francis Medical Center - Compton Community Clinic;457 S. Long Beach Blvd.;Compton;1300;The medical center provides child abuse services, health education, hospital services, WIA programs, and youth services for people of all ages who live in Southeast Los Angeles County.;90221;33.892671;-118.208192;6498486.21255264;1783386.40856956
157191302;-118.155954056824868;33.925913967269658;St. Francis Medical Center - Downey Community Clinic;7840 E. Imperial Hwy.;Downey;1301;The medical center provides child abuse services, health education, hospital services, WIA programs, and youth services for people of all ages who live in Southeast Los Angeles County.;90242;33.925914;-118.155954;6514358.6598103;1795455.57275139
157191304;-118.222607056287302;33.989057967298223;St. Francis Medical Center - Huntington Park Community Clinic;2700 Slauson Ave.;Huntington Park;1302;The medical center provides child abuse services, health education, hospital services, WIA programs, and youth services for people of all ages who live in Southeast Los Angeles County.;90255;33.989058;-118.222607;6494189.09713113;1818473.05854048
157191306;-118.19475005645198;33.94287596672222;St. Francis Medical Center - South Gate Community Clinic;4390 Tweedy Blvd.;South Gate;1304;The medical center provides child abuse services, health education, hospital services, WIA programs, and youth services for people of all ages who live in Southeast Los Angeles County.;90280;33.942876;-118.19475;6502601.11344355;1801648.94192632
157191310;-118.123952056989722;33.922484966918283;Kaiser Permanente - Downey Medical Offices;12200 Bellflower Blvd.;Downey;1324;The medical centers provides 24 hour emergency services, bereavement support groups, health education and safe havens for abandoned newborns.;90242;33.922485;-118.123952;6524065.54295555;1794194.16615348
157191323;-118.15051885666773;34.030011877268372;Bienestar Human Services;5326 E Beverly Blvd;Los Angeles;1332;The program provides emergency food and HIV/AIDS services for adolescents and adults in Los Angeles County at five locations;;;;;
157191331;-118.198650656674545;33.775648117557544;Bienestar Human Services - Long Beach Office;525 W 7Th St;Long Beach;1333;The program provides emergency food and HIV/AIDS services for adolescents and adults in Los Angeles County at five locations;;;;;
157191340;-118.449028056301316;34.188809966734297;Bienestar Human Services - Van Nuys Office - On Hold;14515 Hamlin St.;Van Nuys;;;;;;;
157191348;-118.297451156205099;34.098283456598224;Bienestar Human Services - Hollywood;4955 W Sunset Blvd;Los Angeles;1335;The program provides emergency food and HIV/AIDS services for adolescents and adults in Los Angeles County at five locations;;;;;
157191357;-117.749139057250048;34.054995967414854;Bienestar Human Services - Pomona Office;180 E. Mission;Pomona;1336;The program provides emergency food and HIV/AIDS services for adolescents and adults in Los Angeles County at five locations;;;;;
157191369;-118.244728056600806;34.045498966793353;Los Angeles Christian Health Centers - Joshua House Clinic;311 Winston St.;Los Angeles;1339;The program provides counseling services and health services for people of all ages who live, primarily in Los Angeles downtown area, zip codes 90012 and 90013 and in the Pico/Aliso area, zip code 90033.;90013;34.045499;-118.244728;6487533.34272614;1839028.60240306
157191372;-118.285451056325812;34.063482466608576;Los Angeles County Department Of Public Health - Comprehensive Perinatal Services Program;600 S Commonwealth Ave;Los Angeles;1340;The program provides health services for low-income pregnant women who are Medi-Cal recipients and live in Los Angeles County.;90005;34.0634825;-118.285451;6475215.48514405;1845605.65453765
157191375;-118.192182056187605;34.029847966553739;Altamed - Hiv/Aids Services;512 S. Indiana St.;Los Angeles;1342;The program provides HIV/AIDS services for people in Los Angeles County.;90063;34.029848;-118.192182;6503440.52022931;1833298.31104214
157191379;-118.25026995658105;34.0592199468744;Los Angeles County Department Of Public Health - Medical Marijuana Identification Program;241 N Figueroa St;Los Angeles;1346;The program provides public health services for Los Angeles County.;90012;34.05921998;-118.2502699;6485866.93595397;1844026.05205381
157191420;-118.011575057206173;33.906551966938167;City Of La Mirada -  Community Services Department;13700 La Mirada Blvd.;La Mirada;1365;This city department provides cooling centers, information and referral, recreational programs, services for older adults and volunteer opportunities for people of all ages in La Mirada and throughout the county.;90638;33.906552;-118.011575;6558158.01774947;1788372.80049965
157248356;-118.188888956021032;33.808611067433041;Columbia Medical Building;;;28673;;;33.8086111;-118.1888889;6504287.01131848;1752783.37200673
157248357;-118.186944456737763;33.806388867519026;Bickerstaff Family Center;;;28675;;;33.8063889;-118.1869444;6504876.23389331;1751973.55046365
157248358;-118.265579995704243;34.055112742012412;Good Hope Clinic;;;27245;;;34.05511277;-118.26557994;6481225.79202105;1842543.26466507
157248391;-118.454351182802924;33.993528558023485;Venice Health Center;;;26594;;;33.99352859;-118.45435113;6423945.73991472;1820336.54103398
157248393;-118.444802055428411;34.066120166815807;Reed Institute;;;26614;;;34.0661202;-118.444802;6426957.18730389;1846740.86650605
157248394;-118.443690855731973;34.065009066556811;Jules Stein Eye Institute;;;26618;;;34.0650091;-118.4436908;6427291.93925905;1846335.03234398
157248395;-118.444246356355919;34.064453466685315;Doris Stein Eye Research Center;;;26623;;;34.0644535;-118.4442463;6427122.80508289;1846133.58392797
157248405;-118.525869603674167;34.165284770167176;Encino Urgent Care Medical Center;18055 Ventura Blvd;Encino;26643;;91316;34.1652848;-118.52586955;6402593.99849756;1882946.76325423
157248407;-118.323965356222047;34.076954466625722;Larchmont Medical Building;;;26854;;;34.0769545;-118.3239653;6463566.45791721;1850543.70830981
157248410;-118.350000055922848;34.167222166744686;Magnolia Park General Hospital;;;27011;;;34.1672222;-118.35;6455796.98690763;1883420.02838381
157248414;-118.130208907037002;34.144291871051536;Thatcher Medical Center;;;27240;;;34.1442919;-118.13020885;6522271.88906255;1874916.47157206
157248415;-118.240351137628025;34.13669958170312;Rapid Care - Glendale;801 S. Chevy Chase Dr;Glendale;27339;;91205;34.13669961;-118.24035108;6488938.62731713;1872214.93465231
157249306;-118.344302756224721;33.966282447049487;South Bay Family Healthcare - Inglewood OB/GYN;323 N. Prairie Ave;Inglewood;;;;;;;
157249415;-118.278663055989568;33.990382967190875;Homeless Outreach Program/Integrated Care System (HOPICS);5715 S. Broadway;Los Angeles;56896;The agency provides advocacy, child care, HIV/AIDS services, holiday assistance, interpreter and translator services, personal goods, services for non-profit organizations, services for older adults, substance abuse services, and youth services in Los Angeles County.;90037;33.990383;-118.278663;6477197.62028739;1818997.62179582
157249466;-118.179898356684987;33.880885036942495;The Children's Clinic - Family Health Center at Hamilton Middle School;1060 E. 70Th St.;Long Beach;667;The clinic provides health services for low-income children and families, including those who are homeless, who live in the Long Beach and surrounding areas.;90805;33.88088507;-118.1798983;6507065.37157539;1779080.65799473
157249470;-118.190694056416604;33.776369547330809;The Children's Clinic at International Elementary School;700 Locust Ave.;Long Beach;;;;;;;
157249473;-118.201308902293135;33.769973027628758;The Children's Clinic at Cesar Chavez Elementary School;730 W. 3Rd St.;Long Beach;659;The clinic provides health services for low-income children and families, including those who are homeless, who live in the Long Beach and surrounding areas.;90802;33.76997306;-118.20130885;6500485.74989213;1738729.26428823
157249479;-118.290985878884015;34.095942645974795;Queenscare Family Clinics;1300 N. Vermont Ave;Los Angeles;1231;The clinics provide health services for low-income people who live in Los Angeles County and weight management program for eligible youth age 6 to 17 who live the Echo Park area of Los Angeles.  Services are provided from six sites.  There are age, medical, and geographic restrictions for the weight management program.  There are no geographic restrictions for the health services.;90027;34.09594268;-118.29098582;6473573.34866455;1857423.28805456
157249802;-117.757350157258415;33.996931347344045;Pomona Valley Health Center - Chino Hills;2140 Grand Ave;Chino Hills;70028;The medical center provides hospital services for people of all ages in Los Angeles.;91709;33.99693138;-117.7573501;6635220.45220697;1821352.4048159
157249858;-118.350221955926671;33.824671927366701;Center For The Partially Sighted - South Bay Office;22340 Hawthorne Blvd;Torrance;;;;;;;
157249913;-118.286306656716363;34.039468367058376;St. John's Well Child And Family Center;1910 Magnolia Ave;Los Angeles;;;;;;;
157249920;-118.239148556048065;33.91153278713027;St. John's Well Child And Family Center - Compton Center;2115 N Wilmington Ave;Compton;;;;;;;
157249929;-118.287254356282702;33.990203306770532;St. John's Well Child And Family Center - Dr. Louis C. Frayser Community Clinic;5701 S Hoover St;Los Angeles;;;;;;;
157249937;-118.203836655993456;34.076051436503064;St. John's Well Child And Family Center - Lincoln Heights Clinic At Lincoln High School;2512 Alta St;Los Angeles;70214;The center provides counseling, dental services, health services for low-income people of all ages who live in the Los Angeles County area.;90031;34.07605147;-118.2038366;6499943.35891655;1850119.57365939
157249943;-118.32671865641673;33.980349646575789;St. John's Well Child And Family Center - Hyde Park School-Based Clinic;6505 8Th Ave;Los Angeles;;;;;;;
157249945;-118.193215256449307;33.889996246828062;St. John's Well Child And Family Center - East Compton Community Health Center At Casa Dominguez;15715 S Atlantic Ave;East Rancho Dominguez;70216;The center provides counseling, dental services, health services for low-income people of all ages who live in the Los Angeles County area.;90221;33.88999628;-118.1932152;6503029.63948938;1782403.94071823
157249950;-118.231138556569505;33.943251837414678;Watts Healthcare Corporation - Magic Johnson School-Based Health Clinic;2265 E 103Rd St;Los Angeles;70218;This agency provides health services, residential substance abuse services, services for older adults, substance abuse services, welfare-to-work support services and WIC for people of all ages who live primarily in the South Central Los Angeles area.;90002;33.94325187;-118.2311385;6491564.52560864;1801809.11024114
157249990;-118.264513356210799;34.053771606780266;Intercare Medical Group - Samaritan Health Center;637 Lucas Ave;Los Angeles;70244;The center provides health services related to occupational health for adults age 18 and older in Los Angeles.;90017;34.05377164;-118.2645133;6481547.5935428;1842054.3493043
157250080;-118.193323156046318;33.805839307502865;Planned Parenthood Los Angeles - Long Beach;2690 Pacific Ave;Long Beach;70291;The agency provides family planning services for adolescents and adults of all ages in Los Angeles County.;90806;33.80583934;-118.1933231;6502937.98941022;1751777.21653873
157250084;-118.355676756117447;34.020897527263038;Planned Parenthood Los Angeles - Planned Parenthood Basics - Baldwin Hills / Crenshaw;3637 S La Brea Ave;Los Angeles;70292;The agency provides family planning services for adolescents and adults of all ages in Los Angeles County.;90016;34.02089756;-118.3556767;6453891.39721489;1830176.08598739
157250088;-118.160266456147227;34.02099216736206;Planned Parenthood Los Angeles - East Los Angeles Health Center;5068 Whittier Blvd;Los Angeles;;;;;;;
157250092;-118.275772456450355;34.023929877235858;Planned Parenthood Los Angeles - S. Mark Taper Foundation For Medical Training;400 W 30Th St;Los Angeles;;;;;;;
157250104;-118.270876956790659;34.06614599654565;Clinica Monsenor Oscar A. Romero Community Health Center;123 S Alvarado St;Los Angeles;;;;;;;
157250112;-118.207897456053814;34.05678446652005;Clinica Monsenor Oscar A. Romero Community Health Center - Boyle Heights - East Los Angeles;2032 Marengo St;Los Angeles;;;;;;;
157250118;-118.272354556096587;34.06390384724974;Clinica Monsenor Oscar A. Romero Community Health Center - Children's Clinic;201 S Alvarado St;Los Angeles;;;;;;;
157250140;-118.265620556366414;34.037202016790189;California Hospital Medical Center - Donald P. Loker Cancer Center;1401 S Grand Ave;Los Angeles;70328;The medical center provides comprehensive hospital services and safe haven services for people of all ages in Los Angeles County.;90015;34.03720205;-118.2656205;6481196.28223756;1836025.25670373
157250179;-118.278940656413084;34.071697457126412;St. Anne's Residential Facility;155 N Occidental Blvd;Los Angeles;70344;The agency provides a maternity home for pregnant or parenting teens, or those who are at risk of becoming pregnant in Los Angeles County.;90026;34.07169749;-118.2789406;6477195.58781114;1848589.70007873
157250195;-118.26586345594994;34.05979223656287;Arroyo Vista Family - Loma Drive Center;303 Loma Dr;Los Angeles;;;;;;;
157250314;-118.265088655965855;34.035294306482065;Eisner Pediatric And Family Medical Center;1530 S Olive St;Los Angeles;70450;The center provides health services and mental health services for people of all ages in Los Angeles.;90015;34.03529434;-118.2650886;6481355.59884806;1835330.58027156
157250365;-118.020972256477876;34.142316456833278;Children's Hospital Los Angeles - Arcadia;468 E Santa Clara St;Arcadia;70466;This facility provides family planning services, HIV/AIDS services, hospital services, mental health services, safe haven services, substance abuse services, and welfare to work services for youth in Los Angeles County.;91006;34.14231649;-118.0209722;6555324.4322093;1874172.72765273
157250440;-118.2162373564923;33.795740047452583;City Of Long Beach Department Of Health And Human Services - West Facilities Center;2125 Santa Fe Ave;Long Beach;70593;This is the public health agency for the city of Long Beach.;90810;33.79574008;-118.2162373;6495968.66575047;1748116.01027848
157250466;-118.45673625594992;34.416459665960609;Northeast Valley Health Corporation - Santa Clarita Health Center And Wic Site;18533 Soledad Canyon Rd;Santa Clarita;;;;;;;
157250502;-118.147218057604192;34.697675545791029;Tarzana Family Medical Clinic - Lancaster;907 W Lancaster Blvd;Lancaster;70630;The center provides domestic violence services, health services, HIV/AIDS services, mental health services for adults, residential treatment for substance abuse, shelter, substance abuse services, and welfare-to-work support services for people of all ages who live in Los Angeles and Ventura Counties.;93534;34.69767558;-118.147218;6517420.22947456;2076311.80598532
157250518;-118.413959555858455;34.194434106274144;Valley Community Clinic;6801 Coldwater Canyon Ave;North Hollywood;;;;;;;
157250558;-118.280345956321071;34.072665536471348;Queenscare Family Clinics - Echo Park;150 N Reno St;Los Angeles;;;;;;;
157250565;-118.290423556548461;34.070818526670948;Queenscare Family Clinics - Bresee;184 Bimini Pl;Los Angeles;;;;;;;
157250576;-118.124174956605529;34.091961997220288;Chinatown Service Center - Alhambra Clinic;320 S Garfield Ave;Alhambra;;;;;;;
157250654;-118.289833256383488;33.738651777295182;Harbor Community Clinic;593 W 6Th St;San Pedro;70724;The agency provides counseling services and health services for people of all ages in the Harbor area.;90731;33.73865181;-118.2898332;6473547.39333589;1727396.31418514
157250680;-118.262843156422818;33.783150897069746;Wilmington Community Clinic;1009 N Avalon Blvd;Wilmington;;;;;;;
157250684;-118.292130256247972;33.937154697204576;Wilmington Community Clinic - Mary Henry Clinic;10901 S Vermont Ave;Los Angeles;;;;;;;
157250697;-118.193365556627171;33.798541487247952;American Health Services - El Dorado Community Service Centers - West County Medical Corp;2272 Pacific Ave;Long Beach;;;;;;;
157250717;-118.100126056805536;33.873342807597034;Providence Trinitycare Hospice - Cerritos;17315 Studebaker Rd;Cerritos;70782;The agency provides end of life services for people of all ages in Los Angeles and Orange Counties who are convalescing in their own homes or in a skilled nursing facility.;90703;33.87334284;-118.100126;6531276.10300948;1776302.13336806
157250805;-117.745500957729334;34.096289817143123;Casa Colina Hospital;255 E Bonita Ave;Pomona;;;;;;;
157250841;-117.952560056748737;34.038021867326634;Bay Area Addiction Research And Treatment - La Puente;15229 Amar Rd;La Puente;70833;The agency provides health services, HIV/AIDS and substance abuse services primarily for San Gabriel Valley residents.;91744;34.0380219;-117.95256;6576042.92325255;1836220.68479057
157250930;-117.946192157259972;33.932011897781173;Whittier Hospital Women's Health Center - La Habra;115 N Euclid St;La Habra;70900;The facility provides comprehensive hospital services for people of all ages in Los Angeles County.;90631;33.93201193;-117.9461921;6577992.81895906;1797642.41614673
157250961;-118.46381345621846;34.228101236085941;Mission City Community Network Inc;15206 Parthenia St;North Hills;70926;The agency provides health services for people of all ages in the Northeast San Fernando Valley area.;91343;34.22810127;-118.4638134;6421471.41546705;1905714.15472722
157250968;-118.423612656454679;34.250450876584068;Mission City Community Network - Pacoima Middle School Based Clinic;9919 Laurel Canyon Blvd;Pacoima;;;;;;;
157250982;-118.327722756188948;33.822630987340226;Providence Little Company Of Mary Medical Center - Emergency Care Station - Torrance;2382 Crenshaw Blvd;Torrance;;;;;;;
157251055;-118.30380475576014;34.063699916989549;Korean Health, Education, Information And Research Center;3727 W 6Th St;Los Angeles;70963;The agency provides adult day care, advocacy, health services and services for older adults primarily for the Korean community in the Koreatown area of Los Angeles.;90020;34.06369995;-118.3038047;6469656.93654989;1845701.08184023
157251149;-118.252399656245828;33.896873346898047;Compton Central Health Clinic;201 N Central Ave;Compton;;;;;;;
157251195;-118.046197756149425;33.967232227093312;American Indian Healing Center;12456 Washington Blvd;Whittier;;;;;;;
157251258;-118.59071165542727;34.178882716150767;Accredited Nursing Care;5955 De  Soto Ave;Woodland Hills;;;;;;;
157251260;-118.138658856359726;34.144353726676613;Accredited Nursing Care - San Gabriel Valley;572 E Green St;Pasadena;;;;;;;
157251282;-117.953270056738162;33.929251966985817;Gary Center, The;341 Hillcrest St;La Habra;;;;;;;
157251301;-118.085145456696225;34.141048027109264;Community Health Alliance Of Pasadena - Del Mar Health Center;3160 E Del  Mar Blvd;Pasadena;;;;;;;
157251360;-118.16261155646005;34.179441797091172;Young And Healthy;1905 Lincoln Ave;Pasadena;71176;The agency provides health services for uninsured low-income children and youth from preschool age through age 18, who reside in Pasadena or South Pasadena.;91103;34.17944183;-118.1626115;6512488.23507348;1887722.43283673
157251389;-118.187727955982723;34.024504446930251;Altamed Medical And Dental Group - Whittier West;3945 Whittier Blvd;Los Angeles;;;;;;;
157251392;-118.195332656592043;34.057827956728026;Altamed Medical Group - Ramona Gardens Satellite Clinic;1424 Crusado Ln;Los Angeles;;;;;;;
157251394;-118.18775215644807;33.97307965726737;Altamed Medical And Dental Group - Bell;6901 Atlantic Ave;Bell;;;;;;;
157251397;-118.208065856518772;34.020935907181588;Altamed Medical Group - Estrada Courts Satellite Clinic;1305 S Concord St;Los Angeles;;;;;;;
157251399;-118.229345756476306;34.063587646460718;Altamed Medical Group - William Mead Satellite Clinic;268 Bloom St;Los Angeles;;;;;;;
157251412;-118.240269156740652;34.136582836630772;Comprehensive Community Health Centers Inc;801 S Chevy Chase Dr;Glendale;71209;The clinic group provides health services for people of all ages in Los Angeles County.;91205;34.13658287;-118.2402691;6488963.33363256;1872172.38978989
157251415;-118.398477856422261;34.186840086325034;Comprehensive Community Health Centers - North Hollywood;12157 Victory Blvd;North Hollywood;71210;The clinic group provides health services for people of all ages in Los Angeles County.;91606;34.18684012;-118.3984778;6441161.05620581;1890613.88538714
157251417;-118.204832556812022;34.121218076933161;Comprehensive Community Health Centers - Highland Park;5059 York Blvd;Highland Park;71211;The clinic group provides health services for people of all ages in Los Angeles County.;90042;34.12121811;-118.2048325;6499675.26922964;1866557.14052172
157251419;-118.203923656366499;34.139213456377078;Comprehensive Community Health Centers - Eagle Rock;1704 Colorado Blvd;Eagle Rock;71212;The clinic group provides health services for people of all ages in Los Angeles County.;90041;34.13921349;-118.2039236;6499963.64430906;1873105.41777948
157251426;-118.029661457024275;34.045788957402969;Durfee Family Care Medical Group;2006 Durfee Ave;South El Monte;;;;;;;
157251427;-118.122260257097679;34.064183357032526;Garfield Health Center;210 N Garfield Ave;Monterey Park;;;;;;;
157251453;-118.131606956864672;34.171238657186265;Urdc Human Services Corporation - Bill Moore Community Health Clinic;1460 N Lake Ave;Pasadena;;;;;;;
157251458;-117.993182256552871;34.148434076909865;Urdc Human Services Corporation - Bill Moore Community Health Clinic - Monrovia;513 E Lime Ave;Monrovia;71236;The agency provides health services for to low-income children, adults and seniors who live in the West San Gabriel Valley, Eagle Rock, El Sereno, Highland Park, Burbank, Glendale and Monrovia.;91016;34.14843411;-117.9931822;6563733.14701913;1876398.44990732
157251485;-118.205470556784192;33.930748187556873;Jwch Institute Women's Health Center;3591 E Imperial Hwy;Lynwood;;;;;;;
157251508;-118.148474357718712;34.680091846095287;Palmdale Regional Medical Center - Wound Care Center;43845 10Th St W;Lancaster;71265;The Regional Medical center provides hospital services for people of all ages in the Antelope Valley, Santa Clarita Valley, and surrounding communities.;93534;34.68009188;-118.1484743;6517033.16495997;2069913.11996381
157251546;-118.148032256846747;34.702406485547336;Antelope Valley Community Clinic - Health And Wellness Center;45104 10Th St W;Lancaster;71352;The agency provides health services for people in the Antelope Valley.;93534;34.70240652;-118.1480322;6517178.03704555;2078033.90063822
157251710;-117.73531825743116;34.090796287090839;Mission City Community Network - Pomona;831 E Arrow Hwy;Pomona;71429;The agency provides health services for people of all ages in the Northeast San Fernando Valley area.;91767;34.09079632;-117.7353182;6641808.62275764;1855528.43456081
157251711;-118.348861456016039;33.949635797113366;Mission City Community Network - Inglewood;501 E Hardy St;Inglewood;71430;The agency provides health services for people of all ages in the Northeast San Fernando Valley area.;90301;33.94963583;-118.3488614;6455866.58945872;1804235.37244898
157251712;-118.287530555864294;33.989597576879298;St. John's Well Child And Family Center -  S. Mark Taper Foundation Chronic Disease And Environmental Health Center;808 W 58Th St;Los Angeles;;;;;;;
157251714;-118.291725156629482;34.008357967203168;St. John's Well Child And Family Center - With Children's Hospital At Manual Arts High School;4131 S Vermont Ave;Los Angeles;71432;The center provides counseling, dental services, health services for low-income people of all ages who live in the Los Angeles County area.;90037;34.008358;-118.2917251;6473257.02646255;1825550.2999634
157251784;-118.262745756653331;34.061330237301107;Asian Pacific Healthcare Venture - Belmont Health Services;1575 W 2Nd St;Los Angeles;;;;;;;
157251816;-118.090916156933162;34.090871437285067;Herald Christian Health Center;923 S San Gabriel Blvd;San Gabriel;;;;;;;
157251954;-117.741538657852885;34.058113397568022;Western University Patient Care Center;795 E 2Nd St;Pomona;71623;The center provides health services for people of all ages who reside, primarily, in the Pomona area and the Inland Valley;;;;;
157252023;-118.243403256713393;34.044643527043085;Jwch Institute Inc - Center For Community Health - Downtown Women's Center Clinic;442 S San Pedro St;Los Angeles;71651;The clinic provides medical services primarily for low income and homeless adults.;90013;34.04464356;-118.2434032;6487933.91804047;1838716.31759456
157252024;-118.134116956771521;33.903203227504477;Jwch Institute Inc - Wesley Health Centers - Bellflower;14371 Clark Ave;Bellflower;71652;The clinic provides health services for low-income residents of Los Angeles County.;90706;33.90320326;-118.1341169;6520972.33621547;1787181.06338181
157252107;-118.116750656822049;33.92395594739633;Family Health Care Center Of Greater Los Angeles - Downey Family Medical Center;12113 Woodruff Ave;Downey;71705;The clinics provide health services for individuals in Los Angeles County.;90241;33.92395598;-118.1167506;6526250.93786298;1794726.87309331
157252108;-117.993182256552871;34.148434076909865;Mission City Community Network - Monrovia;513 E Lime Ave;Monrovia;71706;The agency provides health services for people of all ages in the Northeast San Fernando Valley area.;91016;34.14843411;-117.9931822;6563733.14701913;1876398.44990732
157252110;-118.214339056200402;34.044968347383794;Universal Health Foundation;2020 E 1St St;Los Angeles;;;;;;;
157252112;-118.255441656036353;34.017699287044998;Central Neighborhood Health Center;2707 S Central Ave;Los Angeles;71709;This community clinic provides general primary medical care in the South Central area of the City of Los Angeles.;90011;34.01769932;-118.2554416;6484262.10254946;1828919.85490406
157252124;-118.051379456988684;34.071138346638563;Asian Pacific Health Care Venture - El Monte Rosemead Health Center;9960 Baldwin Pl;El Monte;71716;The agency provides family life education, health insurance, health services, HIV/AIDS services and youth services in Los Angeles County.;91731;34.07113838;-118.0513794;6546110.39945631;1848272.99795623
157252143;-117.888888257548189;34.076134507234656;Accentcare Skilled Nursing Service - Covina;750 Terrado Plz;Covina;71735;The agency provides in-home health services for people of all ages who live in Los Angeles and Orange Counties.;91723;34.07613454;-117.8888882;6595317.82400714;1850105.81909373
157252144;-118.597221155741494;34.184987706467268;Accentcare Skilled Nursing Service - Woodland Hills;6320 Canoga Ave;Woodland Hills;71736;The agency provides in-home health services for people of all ages who live in Los Angeles and Orange Counties.;91367;34.18498774;-118.5972211;6381052.8870523;1890237.4717699
157252149;-118.265280156194223;34.036970266934823;Usc - Eisner Family Medicine Center At California Hospital;1400 S Grand Ave;Los Angeles;71740;The center provides health services and mental health services for people of all ages in Los Angeles.;90015;34.0369703;-118.2652801;6481299.18918397;1835940.64630865
157252151;-118.357142355930037;33.943015987093609;T.H.E. Clinic Inc At Lennox School District;10223 S Firmona Ave;Lennox;;;;;;;
157252163;-118.141552657793596;34.695381816325458;Catalyst Foundation, The - Clinic;44758 Elm Ave;Lancaster;;;;;;;
157252187;-118.238997255798267;33.92707950739829;Planned Parenthood Los Angeles - Stoller Filer Health Center;11722 Wilmington Ave;Los Angeles;71760;The agency provides family planning services for adolescents and adults of all ages in Los Angeles County.;90059;33.92707954;-118.2389972;6489166.94214922;1795929.23026864
157252191;-118.124322756047818;33.8475131173956;Planned Parenthood Los Angeles - Planned Parenthood Basics - Lakewood;5519 Del  Amo Blvd;Lakewood;71762;The agency provides family planning services for adolescents and adults of all ages in Los Angeles County.;90713;33.84751315;-118.1243227;6523919.33524272;1766910.27518331
157252220;-118.135604256790245;34.698443255448773;Tarzana Treatment Center - Palmdale;422 W Lancaster Blvd;Palmdale;71794;The center provides domestic violence services, health services, HIV/AIDS services, mental health services for adults, residential treatment for substance abuse, shelter, substance abuse services, and welfare-to-work support services for people of all ages who live in Los Angeles and Ventura Counties.;93551;34.69844329;-118.1356042;6520911.42524806;2076586.28837597
157252221;-118.122197457478052;34.66995642575111;Bartz - Altadonna Community Health Center;43322 Gingham Ave;Lancaster;;;;;;;
157252246;-118.119748657667259;34.58040353604121;Planned Parenthood Los Angeles - Antelope Valley Health Center;533 E Palmdale Blvd;Palmdale;;;;;;;
157252293;-118.203412056728041;33.892873966894236;St. John's Well Child And Family Center - Dominguez High School - School-Based Clinic;15301 San Jose;Compton;71844;The center provides counseling, dental services, health services for low-income people of all ages who live in the Los Angeles County area.;90221;33.892874;-118.203412;6499937.04035963;1783457.31459573
157252384;-118.420067356703427;34.314504806573211;Northeast Valley Health Corporation - L A Mission College;13356 Eldridge Ave;Sylmar;;;;;;;
157252624;-118.252391955899185;33.89687056740744;Compton Health Center;201 N. Central Avenue;Compton;72066;;90220;33.8968706;-118.2523919;6485075.86306106;1784945.46942781
157252629;-118.246224756310326;33.942626166670152;Watts Health Center;10300 Compton Avenue;Los Angeles;72071;;90002;33.9426262;-118.2462247;6486988.23456439;1801592.2806223
157252746;-118.246451656114388;33.946792366918807;Family & Community Medical Clinic;9901 S. Compton Avenue;Los Angeles;68321;;90002;33.9467924;-118.2464516;6486923.13134813;1803108.61650039
157258498;-118.690282455467838;34.034222466261298;Malibu Urgent Care Center;23656 Pacific Coast Highway ;Malibu ;68339;;90003;34.0476324;-118.2612266;6482537.34714071;1839817.56440781
157258502;-118.444495043525606;34.276655090011914;Mission Community Hospital - San Fernando Campus For Health And Education;700 Chatsworth Dr;San Fernando;;;91340;34.27665512;-118.44449499;6427388.9735138;1923357.22803681
157258530;-118.096110256730597;34.0069391570674;American Health Services - El Dorado Community Service Centers - Tavarua;8207 E Whittier Blvd;Pico Rivera;70770;The agency provides health services, mental health services and substance abuse services for people of all ages who live in the Los Angeles County area.;90660;34.00693919;-118.0961102;6532541.62278813;1824919.59617232
157258540;-118.239869156097924;34.062553706791242;Chinatown Service Center;767 N Hill St;Los Angeles;70657;This is a health and human service organization that provides advocacy, business services, disaster services, family planning services, health insurance, health services, legal services, mental health services, utility bill assistance, and WIA programs.;90012;34.06255374;-118.2398691;6489020.08778414;1845231.58770047
157258576;-118.006930656894625;34.142241296979059;Foothill Unity Center Inc - Health Services/Warehouse;340 W Chestnut Ave;Monrovia;70847;The center provides emergency food, health services, holiday assistance, and shelter for people who live in the eleven city service area of Altadena, Arcadia, Azusa, Baldwin Park, Bradbury, Duarte, Irwindale, Monrovia, Pasadena, South Pasadena and Sierra Madre.;91016;34.14224133;-118.0069306;6559573.22226813;1874144.78610756
157258585;-117.96740005722387;33.930470967523298;Los Angeles Medical Center - La Habra;200 S Beach Blvd;La Habra;70970;;;;;;
157258603;-118.178423756232363;34.037376456747907;Queenscare Family Clinics - East Los Angeles;133 N Sunol Dr;Los Angeles;70651;The clinics provide health services for low-income people who live in Los Angeles County and weight management program for eligible youth age 6 to 17 who live the Echo Park area of Los Angeles.;90063;34.03737649;-118.1784237;6507614.04797147;1836030.38858323
157258610;-118.167220556859604;34.040412356624941;Queenscare Family Clinics - Eastside Clinic;4560 E Cesar Chavez Ave;Los Angeles;;;;;;;
157258619;-118.373378156392846;34.076216476929417;Saban Free Clinic, The;8405 Beverly Blvd;Los Angeles;;;;;;;
157258622;-118.516548856546677;34.37194061600561;Samuel Dixon Family Health Center - Newhall;23772 Newhall Ave;Newhall;;;;;;;
157258625;-118.664359656326909;34.447531286186909;Samuel Dixon Family Health Center - Val Verde;30257 San Martinez Rd;Val Verde;;;;;;;
157258627;-118.476457956714611;34.416123926310732;Samuel Dixon-Canyon Country Health Center;27225 Camp Plenty Rd;Canyon Country;;;;;;;
157258636;-118.535880256278304;34.221678696336127;Tarzana Family Medical Clinic - Northridge;8330 Reseda Blvd;Northridge;;;;;;;
157258640;-118.155120056304483;34.01551989693894;Veterans Administration Greater Los Angeles Healthcare System - East Los Angeles Community Based Outpatient Clinic;5426 E Olympic Blvd;City of Commerce;70402;The center provides hospital services, inpatient treatment for substance abuse, mental health services and substance abuse for veterans who have been honorably discharged or released from active military service.;90040;34.01551993;-118.15512;6514661.9918808;1828064.64664073
157258646;-118.2162373564923;33.795740047452583;Westside Neighborhood Clinic;2125 Santa Fe Ave;Long Beach;70431;The clinic provides health services for people of all ages in the Long Beach/ South Bay area.;90810;33.79574008;-118.2162373;6495968.66575047;1748116.01027848
157258739;-117.728518215564378;34.09967408251331;City Of Claremont Senior Services - Joslyn Senior Center;660 N. Mountain Ave.;Claremont;1072;The center provides advocacy, cooling center, health services, housing services, nutrition services, and services for older adults, age 55 and older, and for people who live in the City of Claremont.;91711;34.09967412;-117.72851816;6643858.75546838;1858764.71056856
157258787;-118.010476680476955;33.905210168491607;City Of La Mirada - Community Services Department - La Mirada Activity Center;13810 La Mirada Blvd;La Mirada;71547;This city department provides cooling centers, information and referral, recreational programs, services for older adults and volunteer opportunities for people of all ages in La Mirada and throughout the county.;90638;33.9052102;-118.01047662;6558491.25789663;1787884.45239498
157258876;-118.100243871572104;34.097645635509473;Asian Youth Center;100 W. Clary Ave.;San Gabriel;1061;The agency provides health services and youth services for youth and young adults, age 6 to 18, in the San Gabriel Valley and from satellites in Los Angeles and Lancaster.;91776;34.09764567;-118.10024381;6531321.74169771;1857930.65810281
157260384;-118.419329056613932;34.263287966274902;Meet Each Need With Dignity - Mend;10641 N. San Fernando Rd.;Pacoima;902;The agency provides education services, emergency food, employment services, health services, holiday assistance, household goods, and personal goods for low-income people who live in the northeast part of the San Fernando Valley.;91331;34.263288;-118.419329;6434971.24640697;1918460.0626343
157260435;-118.610676056115338;34.19272196676048;Angels Way Maternity Home;22212 Welby Way;Canoga Park;630;The agency is a maternity home for single pregnant women 18 years and older in Los Angeles County.;91303;34.192722;-118.610676;6377000.87383088;1893076.50611806
157260565;-118.321473055802926;34.101822966754099;Children's Hosptial Los Angeles - High Risk Youth Program - Saban Free Clinic;6043 Hollywood Blvd.;Los Angeles;946;The agency provides health services and homeless support services for youth age 12 to 24 in the Hollywood area.;90028;34.101823;-118.321473;6464350.12268847;1859591.35556881
157260616;-118.265320055855824;34.037025966830136;Ahf Healthcare Center - Downtown;1414 S. Grand  Ave.;Los Angeles;;;;;;;
157260622;-118.448865055902473;34.158341966446066;Ahf Healthcare Center - San Fernando Valley;4835 Van Nuys Blvd.;Sherman Oaks;1010;The agency provides HIV/AIDS services, and thrift shops for people who have AIDS or HIV-related illness in Los Angeles County.;91403;34.158342;-118.448865;6425876.53920272;1880307.23342831
157260625;-118.376628155856991;34.067380476929266;Ahf Healthcare Center - Westside;99 N La  Cienega Blvd;Los  Angeles;1011;The agency provides HIV/AIDS services, and thrift shops for people who have AIDS or HIV-related illness in Los Angeles County.;90211;34.06738051;-118.3766281;6447606.01017939;1847115.15020631
157260630;-118.078390056358671;34.14915474683535;VNA Care;3452 E Foothill Blvd;Pasadena;562;The agency provides end of life services and in-home health services for people in the San Fernando and San Gabriel Valleys and parts of Los Angeles.;91107;34.14915478;-118.07839;6537952.55061455;1876669.89194973
157260766;-118.324391955859454;34.04801856711903;The Village Health Foundation;4077 W. Pico Blvd.;Los Angeles;68336;;90019;34.0480186;-118.3243919;6463403.2912488;1840013.84813598
