OBJECTID;X;Y;cat1;cat2;org_name;Name;addrln1;addrln2;city;post_id;zip;latitude;longitude;POINT_X;POINT_Y
157249015;-118.591468389525005;34.404670093474508;Education;Public Middle Schools;William S. Hart Union High School District;Rancho Pico Junior High School;26250 West Valencia Blvd;;Stevenson Ranch;66945;91381;34.40467013;-118.59146833;6383263.09490222;1970172.32371089
157249018;-118.061844763775909;34.559114312575851;Education;Public Middle Schools;Palmdale School District;Oak Tree Learning Center;37230 37th Street East;;Palmdale;66949;93550;34.55911435;-118.06184471;6543050.29993346;2025858.84586781
157249021;-118.130343017560364;34.573294305778404;Education;Public Middle Schools;Palmdale School District;Palmdale Learning Plaza;38043 Division Street;;Palmdale;66954;93551;34.57329434;-118.13034296;6522433.75061548;2031039.01103239
157249812;-118.044115356399487;33.97917352740923;Education;Public Middle Schools;;Whittier Union High School District - Whittier High School;12417 Philadelphia St;;Whittier;70033;90601;33.97917356;-118.0441153;6548295.5998103;1814804.11935607
157249813;-118.078935356662797;33.971719367607456;Education;Public Middle Schools;;Whittier Union High School District - Pioneer High School;10800 Benavon St;;Whittier;70034;90606;33.9717194;-118.0789353;6537736.85911681;1812097.85508355
157249814;-117.999210956305845;33.954633697542967;Education;Public Middle Schools;;Whittier Union High School District - La Serna High School;15301 Youngwood Dr;;Whittier;70035;90605;33.95463373;-117.9992109;6561909.6375428;1805870.61819422
157249815;-118.090519656994402;33.941123777407903;Education;Public Middle Schools;;Whittier Union High School District - Santa Fe High School;10400 Orr And Day Rd;;Whittier;70036;90670;33.94112381;-118.0905196;6534214.43145038;1800966.42295015
157254930;-118.076950056717052;33.870419967702802;Education;Public Middle Schools;ABC Unified;Ross (Faye) Middle School;17707 Elaine Avenue;;Artesia;77058;90701;33.87042;-118.07695;6538310.58926855;1775232.24443173
157254931;-118.068920056174107;33.847999967135884;Education;Public Middle Schools;ABC Unified;Tetzlaff (Martin B.) Middle School;12351 East Del Amo Boulevard;;Cerritos;77059;90703;33.848;-118.06892;6540742.66544114;1767071.28175107
157254932;-118.087810056386147;33.846949967250602;Education;Public Middle Schools;ABC Unified;Haskell (Pliny Fisk) Middle School;11525 Del Amo Boulevard;;Cerritos;77060;90703;33.84695;-118.08781;6535006.35440722;1766693.63191581
157254933;-118.076530056797537;33.835139967666116;Education;Public Middle Schools;ABC Unified;Fedde (Pharis F.) Middle School;21409 South Elaine Avenue;;Hawaiian Gardens;77061;90716;33.83514;-118.07653;6538428.31409872;1762392.87214464
157254934;-118.044290056650723;33.881189967689643;Education;Public Middle Schools;ABC Unified;Carmenita Middle School;13435 East 166th Street;;Cerritos;77062;90703;33.88119;-118.04429;6548226.9247508;1779145.7293869
157254968;-118.028360056814535;34.136769967040848;Education;Public Middle Schools;Arcadia Unified;First Avenue Middle School;301 South First Avenue;;Arcadia;77096;91006;34.13677;-118.02836;6553088.41765247;1872154.80681981
157254969;-118.028100057426116;34.124189967253749;Education;Public Middle Schools;Arcadia Unified;Richard Henry Dana Middle School;1401 South First Avenue;;Arcadia;77097;91006;34.12419;-118.0281;6553165.81546356;1867576.69130415
157254970;-118.026530056939492;34.152909966734633;Education;Public Middle Schools;Arcadia Unified;Foothills Middle School;171 East Sycamore Avenue;;Arcadia;77098;91006;34.15291;-118.02653;6553643.73675181;1878028.29671323
157254977;-117.898720056643384;34.112319966918641;Education;Public Middle Schools;Azusa Unified;Center Middle School;5500 North Cerritos Avenue;;Azusa;77105;91702;34.11232;-117.89872;6592327.23550014;1863271.23633239
157254980;-117.893320057011564;34.123349966893166;Education;Public Middle Schools;Azusa Unified;Foothill Middle School;151 North Fenimore Avenue;;Azusa;77108;91702;34.12335;-117.89332;6593957.52521855;1867286.94647682
157254986;-117.911420056688797;34.128969967448725;Education;Public Middle Schools;Azusa Unified;Slauson Intermediate;340 West Fifth Street;;Azusa;77114;91702;34.12897;-117.91142;6588477.67528589;1869326.84659648
157254998;-117.966110056742806;34.075949967411404;Education;Public Middle Schools;Baldwin Park Unified;Charles D. Jones Junior High School;14250 East Merced Avenue;;Baldwin Park;77126;91706;34.07595;-117.96611;6571933.11191839;1850021.79334314
157255004;-117.963320056473663;34.098309967276975;Education;Public Middle Schools;Baldwin Park Unified;Jerry D. Holland Middle School;4733 Landis Avenue;;Baldwin Park;77132;91706;34.09831;-117.96332;6572775.02755739;1858159.31611006
157255006;-117.975800056893149;34.099429966712655;Education;Public Middle Schools;Baldwin Park Unified;Olive Middle School;13701 Olive Street;;Baldwin Park;77134;91706;34.09943;-117.9758;6568996.66733196;1858565.76050715
157255011;-117.979650057263697;34.07757996725271;Education;Public Middle Schools;Baldwin Park Unified;Sierra Vista Junior High School;13400 Foster Avenue;;Baldwin Park;77139;91706;34.07758;-117.97965;6567832.72346564;1850613.87483615
157255020;-117.985490056468166;34.057219966661606;Education;Public Middle Schools;Bassett Unified;Torch Middle School;751 North Vineland Avenue;;City Of Industry;77148;91746;34.05722;-117.98549;6566065.32247289;1843204.17312014
157255056;-117.789600057584423;34.118199966769374;Education;Public Middle Schools;Bonita Unified;Ramona Middle School;3490 Ramona Avenue;;San Dimas;77184;91773;34.1182;-117.7896;6625352.75376655;1865462.28378756
157255057;-117.827800057001397;34.097199966955387;Education;Public Middle Schools;Bonita Unified;Lone Hill Middle School;700 South Lone Hill;;San Dimas;77185;91773;34.0972;-117.8278;6613803.74569663;1857797.99826315
157255079;-118.321790056481788;34.175239966465469;Education;Public Middle Schools;Burbank Unified;David Starr Jordan Middle School;420 South Mariposa Street;;Burbank;77207;91506;34.17524;-118.32179;6464339.68832614;1886309.32083356
157255080;-118.351470055782144;34.181079966562578;Education;Public Middle Schools;Burbank Unified;Luther Burbank Middle School;3700 West Jeffries Avenue;;Burbank;77208;91505;34.18108;-118.35147;6455369.95429714;1888464.65379323
157255081;-118.312890056401969;34.196169966217042;Education;Public Middle Schools;Burbank Unified;John Muir Middle School;1111 North Kenneth Road;;Burbank;77209;91504;34.19617;-118.31289;6467055.33906281;1893917.59105006
157255085;-118.640100055799834;34.472249965433697;Education;Public Middle Schools;Castaic Union;Castaic Middle School;28900 Hillcrest Parkway;;Castaic;77213;91384;34.47225;-118.6401;6368750.91231246;1994855.42034198
157255103;-117.863880057512304;34.083759967562287;Education;Public Middle Schools;Charter Oak Unified;Royal Oak Middle School;303 South Glendora Avenue;;Covina;77231;91724;34.08376;-117.86388;6602887.18452455;1852890.1803229
157255118;-117.729090057667776;34.100029967546185;Education;Public Middle Schools;Claremont Unified;El Roble Intermediate;665 North Mountain Avenue;;Claremont;77246;91711;34.10003;-117.72909;6643685.28731139;1858893.75624223
157255130;-117.918270056934318;34.090919967512143;Education;Public Middle Schools;Covina-Valley Unified;Las Palmas Middle School;641 North Lark Ellen Avenue;;Covina;77258;91722;34.09092;-117.91827;6586415.89036746;1855477.99109215
157255135;-117.874240057479483;34.083469967253272;Education;Public Middle Schools;Covina-Valley Unified;Sierra Vista Middle School;777 East Puente Street;;Covina;77263;91723;34.08347;-117.87424;6599750.33154631;1852780.55718257
157255136;-117.904620057164792;34.079219967513822;Education;Public Middle Schools;Covina-Valley Unified;Traweek Middle School;1941 East Rowland Avenue;;West Covina;77264;91723;34.07922;-117.90462;6590552.76857664;1851223.78273706
157255147;-118.400300055454494;34.005379967055283;Education;Public Middle Schools;Culver City Unified;Culver City Middle School;4601 Elenda Street;;Culver City;77275;90230;34.00538;-118.4003;6440347.00041921;1824579.82487023
157255164;-118.112900056917468;33.942279967641539;Education;Public Middle Schools;Downey Unified;Doty Middle School;10301 South Woodruff Avenue;;Downey;77292;90241;33.94228;-118.1129;6527426.60873997;1801394.05431272
157255165;-118.130080056093547;33.959739966750597;Education;Public Middle Schools;Downey Unified;Griffiths Middle School;9633 Tweedy Lane;;Downey;77293;90240;33.95974;-118.13008;6522223.96494581;1807754.42085706
157255166;-118.13998005589464;33.920859967084688;Education;Public Middle Schools;Downey Unified;Sussman Middle School;12500 Birchdale Avenue;;Downey;77294;90242;33.92086;-118.13998;6519202.11829922;1793609.17618173
157255167;-118.155070056522291;33.938809967129494;Education;Public Middle Schools;Downey Unified;Stauffer Middle School;11985 Old River School Road;;Downey;77295;90242;33.93881;-118.15507;6514634.07822272;1800148.29466514
157255177;-117.968980057189228;34.136899967203092;Education;Public Middle Schools;Duarte Unified;Northview Intermediate;1401 Highland;;Duarte;77305;91010;34.1369;-117.96898;6571057.15402463;1872202.35495307
157255181;-118.074890057991027;34.704389965494045;Education;Public Middle Schools;Eastside Union Elementary;Gifford C. Cole Middle School;3126 East Avenue I;;Lancaster;77310;93535;34.70439;-118.07489;6539162.05049214;2078731.37529315
157255184;-118.017240056496505;33.954379967050983;Education;Public Middle Schools;East Whittier City Elementary;East Whittier Middle School;14421 East Whittier Boulevard;;Whittier;77313;90605;33.95438;-118.01724;6556442.01691639;1805778.7273019
157255186;-118.002200056275541;33.923589967617772;Education;Public Middle Schools;East Whittier City Elementary;Granada Middle School;15337 Lemon Drive;;Whittier;77315;90604;33.92359;-118.0022;6561002.89985497;1794573.12405698
157255187;-118.006530056459809;33.932889967650617;Education;Public Middle Schools;East Whittier City Elementary;Hillview Middle School;10931 South Stamy Road;;Whittier;77316;90604;33.93289;-118.00653;6559689.49303298;1797957.65993881
157255231;-118.0947900568205;33.96043996687802;Education;Public Middle Schools;El Rancho Unified;STEAM Academy @ Burke;8101 Orange Avenue;;Pico Rivera;77360;90660;33.96044;-118.09479;6532925.78671797;1807997.19596206
157255232;-118.076180056887338;34.009469966798498;Education;Public Middle Schools;El Rancho Unified;North Park Academy of the Arts;4450 South Durfee Avenue;;Pico Rivera;77361;90660;34.00947;-118.07618;6538582.68714955;1825835.43259522
157255233;-118.094930056312236;33.976899966947407;Education;Public Middle Schools;El Rancho Unified;Rivera Middle School;7200 Citronell Avenue;;Pico Rivera;77362;90660;33.9769;-118.09493;6532888.98954748;1813987.37787931
157255237;-118.40479005639088;33.919929967399739;Education;Public Middle Schools;El Segundo Unified;El Segundo Middle School;332 Center Street;;El Segundo;77366;90245;33.91993;-118.40479;6438860.94499239;1793488.43560956
157255246;-118.10260005636033;34.061459966678186;Education;Public Middle Schools;Garvey Elementary;Garvey (Richard) Intermediate;2720 North Jackson Avenue;;Rosemead;77375;91770;34.06146;-118.1026;6530594.97149771;1844762.73168281
157255247;-118.08369005673147;34.057239966622909;Education;Public Middle Schools;Garvey Elementary;Temple (Roger W.) Intermediate;8470 East Fern Avenue;;Rosemead;77376;91770;34.05724;-118.08369;6536321.12802438;1843221.68555231
157255278;-118.253580056521059;34.134709966932128;Education;Public Middle Schools;Glendale Unified;Theodore Roosevelt Middle School;222 East Acacia Avenue;;Glendale;77407;91206;34.13471;-118.25358;6484933.65763681;1871500.71495214
157255279;-118.271650056641718;34.164359966950137;Education;Public Middle Schools;Glendale Unified;Eleanor J. Toll Middle School;700 Glenwood Road;;Glendale;77408;91202;34.16436;-118.27165;6479494.60913172;1882305.13855323
157255280;-118.235310056554283;34.225689966890791;Education;Public Middle Schools;Glendale Unified;Rosemont Middle School;4725 Rosemont Avenue;;La Crescenta;77409;91214;34.22569;-118.23531;6490539.8983928;1904596.45256631
157255281;-118.238900056456771;34.155339966372445;Education;Public Middle Schools;Glendale Unified;Woodrow Wilson Middle School;1221 Monterey Road;;Glendale;77410;91206;34.15534;-118.2389;6489393.85475314;1878997.44569357
157255292;-117.848790056768806;34.147029966754488;Education;Public Middle Schools;Glendora Unified;Goddard Middle School;859 East Sierra Madre Avenue;;Glendora;77421;91741;34.14703;-117.84879;6607421.76403806;1875921.8133934
157255293;-117.879950057753348;34.139739966656705;Education;Public Middle Schools;Glendora Unified;Sandburg Middle School;819 West Bennett Avenue;;Glendora;77422;91741;34.13974;-117.87995;6597996.89181171;1873256.12876414
157255298;-118.351550056337331;33.91526996743557;Education;Public Middle Schools;Hawthorne;Hawthorne Middle School;4366 West 129th Street;;Hawthorne;77427;90250;33.91527;-118.35155;6455007.44616389;1791731.79673439
157255303;-118.334360055509876;33.906479967213841;Education;Public Middle Schools;Hawthorne;Bud Carson Middle School;13838 South Yukon Avenue;;Hawthorne;77432;90250;33.90648;-118.33436;6460212.35996664;1788515.13617298
157255305;-118.343800055770643;33.908579966932614;Education;Public Middle Schools;Hawthorne;Prairie Vista Middle School;13600 South Prairie Avenue;;Hawthorne;77434;90250;33.90858;-118.3438;6457350.51759322;1789289.03291914
157255334;-118.355680056181882;33.964359966620592;Education;Public Middle Schools;Inglewood Unified;Crozier (George W.) Middle School;1210 West Regent Street;;Inglewood;77463;90301;33.96436;-118.35568;6453817.59290056;1809601.02969664
157255335;-118.327370056255432;33.939419966831778;Education;Public Middle Schools;Inglewood Unified;Monroe (Albert F.) Middle School;10711 10th Avenue;;Inglewood;77464;90303;33.93942;-118.32737;6462372.43438664;1800495.7024349
157255337;-117.96376005798507;34.528369966196358;Education;Public Middle Schools;Keppel Union Elementary;Desert View Community Day;9330 East Avenue U;;Littlerock;77466;93543;34.52837;-117.96376;6572585.38456397;2014666.47520798
157255338;-117.96376005798507;34.528369966196358;Education;Public Middle Schools;Keppel Union Elementary;Keppel Academy;9330 East Avenue U;;Littlerock;77467;93543;34.52837;-117.96376;6572585.38456397;2014666.47520798
157255348;-118.210300057267119;34.677639965606801;Education;Public Middle Schools;Lancaster Elementary;Endeavour Middle School;43755 45th Street, West;;Lancaster;77477;93536;34.67764;-118.2103;6498444.11027464;2069053.97929364
157255354;-118.179330057605029;34.688109966278454;Education;Public Middle Schools;Lancaster Elementary;Amargosa Creek Middle School;44333 27th Street, West;;Lancaster;77483;93536;34.68811;-118.17933;6507761.95581214;2072846.27912372
157255361;-118.1233700572987;34.708829965685446;Education;Public Middle Schools;Lancaster Elementary;Piute Middle School;425 East Avenue H-11;;Lancaster;77490;93535;34.70883;-118.12337;6524593.3263488;2080361.59972298
157255369;-118.116230057746463;34.672909966197508;Education;Public Middle Schools;Lancaster Elementary;New Vista Middle School;753 East Avenue K-2;;Lancaster;77498;93535;34.67291;-118.11623;6526724.02910839;2067286.65605664
157255370;-118.144380057689958;34.687819965516688;Education;Public Middle Schools;Lancaster Elementary;Crossroads Community Day;44310 Hardwood Avenue;;Lancaster;77499;93534;34.68782;-118.14438;6518268.10966855;2072723.82201956
157255371;-118.615750055893713;34.14248996626543;Education;Public Middle Schools;Las Virgenes Unified;Alice C. Stelle Middle School;22450 Mulholland Highway;;Calabasas;77500;91302;34.14249;-118.61575;6375354.52607372;1874805.87172765
157255378;-118.711210055680766;34.110029966192577;Education;Public Middle Schools;Las Virgenes Unified;Arthur E. Wright Middle School;4029 North Las Virgenes Road;;Calabasas;77507;91302;34.11003;-118.71121;6346386.77265763;1863184.03079814
157255383;-118.785280055141172;34.157069965905599;Education;Public Middle Schools;Las Virgenes Unified;Lindero Canyon Middle School;5844 North Larboard Lane;;Agoura;77512;91301;34.15707;-118.78528;6324099.92484297;1880469.13008614
157255388;-118.356480056417425;33.891869967095687;Education;Public Middle Schools;Lawndale Elementary;Jane Addams Middle School;4535 West 153rd Place;;Lawndale;77517;90260;33.89187;-118.35648;6453481.45315288;1783221.31375539
157255396;-118.34629005640609;33.889629967213125;Education;Public Middle Schools;Lawndale Elementary;Will Rogers Middle School;4110 West 154th Street;;Lawndale;77525;90260;33.88963;-118.34629;6456571.21731456;1782395.31868823
157255407;-118.363530055646805;33.935489967053975;Education;Public Middle Schools;Lennox;Lennox Middle School;11033 Buford Avenue;;Lennox;77536;90304;33.93549;-118.36353;6451399.25324905;1799103.19144039
157255410;-118.081840056281237;33.938899966879767;Education;Public Middle Schools;Little Lake City Elementary;Lake Center Middle School;10503 South Pioneer Boulevard;;Santa Fe Springs;77539;90670;33.9389;-118.08184;6536846.41995281;1800154.8724079
157255412;-118.099170056156282;33.927949967070454;Education;Public Middle Schools;Little Lake City Elementary;Lakeside Middle School;11000 East Kenney Street;;Norwalk;77541;90650;33.92795;-118.09917;6531585.91177306;1796174.65792739
157255420;-118.199060056704809;33.848469967307679;Education;Public Middle Schools;Long Beach Unified;Lindsey Academy;5075 Daisy Avenue;;Long Beach;77549;90805;33.84847;-118.19906;6501225.82124664;1767295.0011199
157255426;-118.096790056111615;33.824459967242895;Education;Public Middle Schools;Long Beach Unified;Helen Keller Middle School;7020 East Brittain Street;;Long Beach;77555;90808;33.82446;-118.09679;6532271.64924672;1758511.44782089
157255476;-118.167690056046993;33.792759967179258;Education;Public Middle Schools;Long Beach Unified;Jessie Nelson Academy;1951 Cherry Avenue;;Signal Hill;77605;90755;33.79276;-118.16769;6510717.48106906;1747003.30876373
157255487;-118.179910055957635;33.8808899670058;Education;Public Middle Schools;Long Beach Unified;Hamilton Middle School;1060 East 70th Street;;Long Beach;77616;90805;33.88089;-118.17991;6507061.82368222;1779082.45851606
157255488;-118.151660056249284;33.840649967443696;Education;Public Middle Schools;Long Beach Unified;Hoover Middle School;3501 Country Club Drive;;Lakewood;77617;90712;33.84065;-118.15166;6515614.51130122;1764423.99833173
157255489;-118.148620056080773;33.776259967624767;Education;Public Middle Schools;Long Beach Unified;Jefferson Leadership Academies;750 Euclid Avenue;;Long Beach;77618;90804;33.77626;-118.14862;6516503.04594147;1740989.38542414
157255490;-118.180320056330487;33.854299966989636;Education;Public Middle Schools;Long Beach Unified;Lindbergh STEM Academy;1022 East Market Street;;Long Beach;77619;90805;33.8543;-118.18032;6506920.01655114;1769405.94309223
157255491;-118.118570055914944;33.817709967776324;Education;Public Middle Schools;Long Beach Unified;Marshall Academy of the Arts;5870 East Wardlow Road;;Long Beach;77620;90808;33.81771;-118.11857;6525653.36720772;1756062.03277223
157255492;-118.131990055944613;33.766239967171778;Education;Public Middle Schools;Long Beach Unified;Rogers Middle School;365 Monrovia Avenue;;Long Beach;77621;90803;33.76624;-118.13199;6521552.29863822;1737335.76838756
157255493;-118.219830055814072;33.809089966929271;Education;Public Middle Schools;Long Beach Unified;Stephens Middle School;1830 West Columbia Street;;Long Beach;77622;90810;33.80909;-118.21983;6494887.68464471;1752976.76597689
157255494;-118.131330056841549;33.841309967007462;Education;Public Middle Schools;Long Beach Unified;Bancroft Middle School;5301 East Centralia Street;;Long Beach;77623;90808;33.84131;-118.13133;6521788.59705013;1764655.49852489
157255495;-118.177170055996669;33.773849967210658;Education;Public Middle Schools;Long Beach Unified;Franklin Classical Middle School;540 Cerritos Avenue;;Long Beach;77624;90802;33.77385;-118.17717;6507824.84249739;1740126.37960422
157255496;-118.105030056436448;33.779599967301081;Education;Public Middle Schools;Long Beach Unified;Hill Classical Middle School;1100 Iroquois Avenue;;Long Beach;77625;90815;33.7796;-118.10503;6529751.80093998;1742188.19142547
157255497;-118.18060005668309;33.828039967319043;Education;Public Middle Schools;Long Beach Unified;Hughes Middle School;3846 California Avenue;;Long Beach;77626;90807;33.82804;-118.1806;6506817.8304038;1759849.42513181
157255498;-118.11613005644115;33.80109996786689;Education;Public Middle Schools;Long Beach Unified;Stanford Middle School;5871 East Los Arcos Street;;Long Beach;77627;90815;33.8011;-118.11613;6526387.56062122;1750016.34506048
157255499;-118.194410056681235;33.785259967439202;Education;Public Middle Schools;Long Beach Unified;Washington Middle School;1450 Cedar Avenue;;Long Beach;77628;90813;33.78526;-118.19441;6502593.30013897;1744288.47823539
157255542;-118.460910055610285;34.221299966517584;Education;Public Middle Schools;Los Angeles Unified;Vista Middle School;15040 Roscoe Boulevard;;Panorama City;77672;91402;34.2213;-118.46091;6422337.68374763;1903235.03895056
157255543;-118.226370055904582;33.946419966711261;Education;Public Middle Schools;Los Angeles Unified;Southeast Middle School;2560 Tweedy Boulevard;;South Gate;77673;90280;33.94642;-118.22637;6493013.4367528;1802958.76771873
157255603;-118.27571005613386;34.018269966663695;Education;Public Middle Schools;Los Angeles Unified;William Jefferson Clinton Middle School;3500 South Hill Street;;Los Angeles;77733;90007;34.01827;-118.27571;6478120.6141763;1829143.76357698
157255616;-118.270110056487866;34.055329967269486;Education;Public Middle Schools;Los Angeles Unified;John H. Liechty Middle School;650 South Union Avenue;;Los Angeles;77746;90017;34.05533;-118.27011;6479853.84594606;1842625.97316106
157255634;-118.396730056525811;34.188659966263863;Education;Public Middle Schools;Los Angeles Unified;Roy Romer Middle School;6501 Laurel Canyon Boulevard;;North Hollywood;77764;91606;34.18866;-118.39673;6441692.24411981;1891274.07665206
157255662;-118.262760056452649;34.061339967065543;Education;Public Middle Schools;Los Angeles Unified;Sal Castro Middle School;1575 West 2nd Street;;Los Angeles;77792;90026;34.06134;-118.26276;6482085.87757123;1844807.21978281
157255664;-118.290170056035649;34.062889967120604;Education;Public Middle Schools;Los Angeles Unified;Young Oak Kim Academy;615 South Shatto Place;;Los Angeles;77794;90005;34.06289;-118.29017;6473785.61825314;1845394.12576123
157255710;-118.199430056865808;33.979219967145291;Education;Public Middle Schools;Los Angeles Unified;Orchard Academies 2B;6411 Orchard Avenue;;Bell;77840;90201;33.97922;-118.19943;6501207.8750883;1814878.06244965
157255711;-118.199430056865808;33.979219967145291;Education;Public Middle Schools;Los Angeles Unified;Orchard Academies 2C;6411 Orchard Avenue;;Bell;77841;90201;33.97922;-118.19943;6501207.8750883;1814878.06244965
157255712;-118.309000056338135;34.001849967025755;Education;Public Middle Schools;Los Angeles Unified;Barack Obama Global Preparation Academy;1700 West 46th Street;;Los Angeles;77842;90062;34.00185;-118.309;6468014.24757805;1823197.56155865
157255746;-118.248150055889099;34.015409967316273;Education;Public Middle Schools;Los Angeles Unified;Dr. Julian Nava Learning Academies-School of Arts and Culture;1420 East Adams Boulevard;;Los Angeles;77876;90011;34.01541;-118.24815;6486469.66506347;1828081.19286747
157255747;-118.248150055889099;34.015409967316273;Education;Public Middle Schools;Los Angeles Unified;Dr. Julian Nava Learning Academies-School of Business and Technology;1420 East Adams Boulevard;;Los Angeles;77877;90011;34.01541;-118.24815;6486469.66506347;1828081.19286747
157255770;-118.438490056180655;34.282169966398897;Education;Public Middle Schools;Los Angeles Unified;San Fernando Institute of Applied Media;130 North Brand Boulevard;;San Fernando;77900;91340;34.28217;-118.43849;6429211.81566864;1925356.20566614
157255787;-118.231360055971251;33.971479966863519;Education;Public Middle Schools;Los Angeles Unified;Walnut Park Middle School A School of Social Justice and Service Learning;7500 Marbrisa Avenue;;Walnut Park;77917;90255;33.97148;-118.23136;6491520.98796606;1812082.06377657
157255788;-118.231360055971251;33.971479966863519;Education;Public Middle Schools;Los Angeles Unified;Walnut Park Middle School B Science, Technology, Engineering and Mathematics Academy;7500 Marbrisa Avenue;;Walnut Park;77918;90255;33.97148;-118.23136;6491520.98796606;1812082.06377657
157255810;-118.236740056721658;34.101679966837459;Education;Public Middle Schools;Los Angeles Unified;Studio;2050 North San Fernando Road;;Los Angeles;77940;90065;34.10168;-118.23674;6490001.34533605;1859468.09006731
157255826;-118.42649005607943;33.959659967180571;Education;Public Middle Schools;Los Angeles Unified;The Incubator;7400 West Manchester, Bldg K;;Los Angeles;77956;90045;33.95966;-118.42649;6432338.75921789;1807974.1540134
157256423;-118.272230056210944;34.022609966509215;Education;Public Middle Schools;Los Angeles Unified;John Adams Middle School;151 West 30th Street;;Los Angeles;78553;90007;34.02261;-118.27223;6479179.44998513;1830720.29651314
157256424;-118.336420055995859;34.088029966860383;Education;Public Middle Schools;Los Angeles Unified;Hubert Howe Bancroft Middle School;929 North Las Palmas Avenue;;Los Angeles;78554;90038;34.08803;-118.33642;6459808.40244122;1854586.65954147
157256425;-118.18205005674632;34.039649967231419;Education;Public Middle Schools;Los Angeles Unified;Belvedere Middle School;312 North Record Avenue;;Los Angeles;78555;90063;34.03965;-118.18205;6506516.90252797;1836859.73239698
157256426;-118.183500056622705;34.119519966898913;Education;Public Middle Schools;Los Angeles Unified;Luther Burbank Middle School;6460 North Figueroa Street;;Los Angeles;78556;90042;34.11952;-118.1835;6506130.67528205;1865926.69624457
157256427;-118.407390056036206;34.224129966654495;Education;Public Middle Schools;Los Angeles Unified;Richard E. Byrd Middle School;8501 Arleta Avenue;;Sun Valley;78557;91352;34.22413;-118.40739;6438520.80689314;1904195.03932714
157256428;-118.259050056613219;33.829739967681384;Education;Public Middle Schools;Los Angeles Unified;Andrew Carnegie Middle School;21820 Bonita Street;;Carson;78558;90745;33.82974;-118.25905;6482992.34426223;1760520.20495823
157256429;-118.260730056443478;34.003509967049055;Education;Public Middle Schools;Los Angeles Unified;George Washington Carver Middle School;4410 McKinley Avenue;;Los Angeles;78559;90011;34.00351;-118.26073;6482646.13170005;1823760.20577456
157256430;-118.198740056186693;33.986789967161862;Education;Public Middle Schools;Los Angeles Unified;Chester W. Nimitz Middle School;6021 Carmelita Avenue;;Huntington Park;78560;90255;33.98679;-118.19874;6501422.51343855;1817632.52413231
157256431;-118.611700055477428;34.212619966686049;Education;Public Middle Schools;Los Angeles Unified;Christopher Columbus Middle School;22250 Elkwood Street;;Canoga Park;78561;91304;34.21262;-118.6117;6376735.28479514;1900319.49655332
157256432;-118.294730055764759;33.730529967842742;Education;Public Middle Schools;Los Angeles Unified;Richard Henry Dana Middle School;1501 South Cabrillo Avenue;;San Pedro;78562;90731;33.73053;-118.29473;6472049.87336506;1724444.88143973
157256433;-118.247890055942293;33.960919967448369;Education;Public Middle Schools;Los Angeles Unified;Charles Drew Middle School;8511 Compton Avenue;;Los Angeles;78563;90001;33.96092;-118.24789;6486499.55378322;1808251.01402397
157256435;-118.313300056269668;33.792219966852002;Education;Public Middle Schools;Los Angeles Unified;Alexander Fleming Middle School;25425 Walnut Street;;Lomita;78565;90717;33.79222;-118.3133;6466473.16601455;1746912.64326264
157256437;-118.270430056664239;33.932819967365553;Education;Public Middle Schools;Los Angeles Unified;Samuel Gompers Middle School;234 East 112th Street;;Los Angeles;78567;90061;33.93282;-118.27043;6479636.97203597;1798042.46784006
157256438;-118.162030056893471;34.031149967108874;Education;Public Middle Schools;Los Angeles Unified;David Wark Griffith Middle School;4765 East Fourth Street;;Los Angeles;78568;90022;34.03115;-118.16203;6512577.12137863;1833756.03781697
157256439;-118.287120055662811;33.951809967405126;Education;Public Middle Schools;Los Angeles Unified;Bret Harte Preparatory Middle School;9301 South Hoover Street;;Los Angeles;78569;90044;33.95181;-118.28712;6474593.91191214;1804967.36015823
157256440;-118.212120056839552;34.036629966819568;Education;Public Middle Schools;Los Angeles Unified;Hollenbeck Middle School;2510 East Sixth Street;;Los Angeles;78570;90023;34.03663;-118.21212;6497404.66156614;1835778.55870631
157256441;-118.504560055891375;34.24081996599184;Education;Public Middle Schools;Los Angeles Unified;Oliver Wendell Holmes Middle School;9351 Paso Robles Avenue;;Northridge;78571;91325;34.24082;-118.50456;6409178.09490938;1910402.00066648
157256442;-118.240470055987359;34.117019966761639;Education;Public Middle Schools;Los Angeles Unified;Washington Irving Middle School School Math, Music and Engineering Magnet;3010 Estara Avenue;;Los Angeles;78572;90065;34.11702;-118.24047;6488885.50898506;1865053.26623289
157256443;-118.280470056067372;34.095939966447418;Education;Public Middle Schools;Los Angeles Unified;Thomas Starr King Middle School School Film and Media Magnet;4201 Fountain Avenue;;Los Angeles;78573;90029;34.09594;-118.28047;6476757.03980371;1857413.26314023
157256444;-118.592780056369662;34.253389965907459;Education;Public Middle Schools;Los Angeles Unified;Ernest Lawrence Middle School;10100 Variel Avenue;;Chatsworth;78574;91311;34.25339;-118.59278;6382542.79089664;1915121.90789331
157256445;-118.406180056019238;34.27226996647569;Education;Public Middle Schools;Los Angeles Unified;Charles Maclay Middle School;12540 Pierce Avenue;;Pacoima;78575;91331;34.27227;-118.40618;6438957.36638747;1921712.43572272
157256446;-118.311300056066656;33.976219966768141;Education;Public Middle Schools;Los Angeles Unified;Horace Mann Junior High School;7001 South Saint Andrews Place;;Los Angeles;78576;90047;33.97622;-118.3113;6467288.24738963;1813872.46767606
157256447;-118.42182005556954;33.987469967161481;Education;Public Middle Schools;Los Angeles Unified;Marina del Rey Middle School;12500 Braddock Drive;;Los Angeles;78577;90066;33.98747;-118.42182;6433797.38261297;1818088.73680256
157256448;-118.447920055929274;33.999469967081332;Education;Public Middle Schools;Los Angeles Unified;Mark Twain Middle School;2224 Walgrove Avenue;;Los Angeles;78578;90066;33.99947;-118.44792;6425904.78881814;1822489.97143839
157256449;-118.275920056613941;33.97747996672431;Education;Public Middle Schools;Los Angeles Unified;Mary McLeod Bethune Middle School;155 West 69th Street;;Los Angeles;78579;90003;33.97748;-118.27592;6478016.22987063;1814299.67417073
157256451;-118.302770056813898;34.268079966420451;Education;Public Middle Schools;Los Angeles Unified;Mt. Gleason Middle School;10965 Mount Gleason Avenue;;Sunland;78581;91040;34.26808;-118.30277;6470194.34623621;1920077.45211606
157256452;-118.291650056282151;33.987029967281103;Education;Public Middle Schools;Los Angeles Unified;John Muir Middle School;5929 South Vermont Avenue;;Los Angeles;78582;90044;33.98703;-118.29165;6473257.26694764;1817788.56876773
157256453;-118.506510055870862;34.193659966330323;Education;Public Middle Schools;Los Angeles Unified;William Mulholland Middle School;17120 Vanowen Street;;Van Nuys;78583;91406;34.19366;-118.50651;6408502.27408256;1893242.8063104
157256454;-118.21888005636319;34.086819966505857;Education;Public Middle Schools;Los Angeles Unified;Florence Nightingale Middle School;3311 North Figueroa Street;;Los Angeles;78584;90065;34.08682;-118.21888;6495396.37030713;1854048.01560564
157256455;-118.524840055603732;34.224479966277315;Education;Public Middle Schools;Los Angeles Unified;Northridge Middle School;17960 Chase Street;;Northridge;78585;91325;34.22448;-118.52484;6403017.91464446;1904487.04464865
157256456;-118.423620055889344;34.250459966145755;Education;Public Middle Schools;Los Angeles Unified;Pacoima Middle School;9919 Laurel Canyon Boulevard;;Pacoima;78586;91331;34.25046;-118.42362;6433655.06662464;1913797.19794431
157256457;-118.416580056480385;34.023759966389974;Education;Public Middle Schools;Los Angeles Unified;Palms Middle School;10860 Woodbine Street;;Los Angeles;78587;90034;34.02376;-118.41658;6435440.58962838;1831288.66939214
157256458;-118.480320056284782;34.263429966317311;Education;Public Middle Schools;Los Angeles Unified;George K. Porter Middle School;15960 Kingsbury Street;;Granada Hills;78588;91344;34.26343;-118.48032;6416543.36561188;1918594.20606682
157256460;-118.51225005643866;34.294519966164572;Education;Public Middle Schools;Los Angeles Unified;Robert Frost Middle School;12314 Bradford Place;;Granada Hills;78590;91344;34.29452;-118.51225;6406953.57015897;1929955.91234598
157256461;-118.438490056180655;34.282169966398897;Education;Public Middle Schools;Los Angeles Unified;San Fernando Middle School;130 North Brand Boulevard;;San Fernando;78591;91340;34.28217;-118.43849;6429211.81566864;1925356.20566614
157256462;-118.466370056256466;34.242569966230228;Education;Public Middle Schools;Los Angeles Unified;Francisco Sepulveda Middle School;15330 Plummer Street;;North Hills;78592;91343;34.24257;-118.46637;6420723.05607139;1910983.10645965
157256463;-118.211750056317285;33.95541996729888;Education;Public Middle Schools;Los Angeles Unified;South Gate Middle School;4100 Firestone Boulevard;;South Gate;78593;90280;33.95542;-118.21175;6497454.5026738;1806224.39340532
157256464;-118.192550056315881;34.026319966683012;Education;Public Middle Schools;Los Angeles Unified;Robert Louis Stevenson Middle School;725 South Indiana Street;;Los Angeles;78594;90023;34.02632;-118.19255;6503326.55949922;1832014.61741531
157256465;-118.570810055769954;34.204349966163427;Education;Public Middle Schools;Los Angeles Unified;John A. Sutter Middle School;7330 Winnetka Avenue;;Canoga Park;78595;91306;34.20435;-118.57081;6389080.31555122;1897237.22647114
157256466;-118.451100055692237;34.169349966453012;Education;Public Middle Schools;Los Angeles Unified;Van Nuys Middle School;5435 Vesper Avenue;;Van Nuys;78596;91411;34.16935;-118.4511;6425218.37385239;1884316.23131581
157256467;-118.291490055744418;34.07412996664074;Education;Public Middle Schools;Los Angeles Unified;Virgil Middle School;152 North Vermont Avenue;;Los Angeles;78597;90004;34.07413;-118.29149;6473397.68858281;1849485.7166594
157256468;-118.43543005562691;34.02981996686141;Education;Public Middle Schools;Los Angeles Unified;Daniel Webster Middle School;11330 West Graham Place;;Los Angeles;78598;90064;34.02982;-118.43543;6429738.3566103;1833518.21086481
157256469;-118.285440055834215;33.826469967202549;Education;Public Middle Schools;Los Angeles Unified;Stephen M. White Middle School;22102 South Figueroa Street;;Carson;78599;90745;33.82647;-118.28544;6474973.88392122;1759351.87921089
157256470;-118.274460056370899;33.797069967658082;Education;Public Middle Schools;Los Angeles Unified;Wilmington Middle School;1700 Gulf Avenue;;Wilmington;78600;90744;33.79707;-118.27446;6478279.60729663;1748643.18212439
157256471;-118.404530056343816;33.969139967323414;Education;Public Middle Schools;Los Angeles Unified;Orville Wright Engineering and Design Magnet;6550 West 80th Street;;Los Angeles;78601;90045;33.96914;-118.40453;6439011.89810255;1811396.57367773
157256482;-118.329450056185337;34.00937996723674;Education;Public Middle Schools;Los Angeles Unified;Audubon Middle School;4120 11th Avenue;;Los Angeles;78612;90008;34.00938;-118.32945;6461824.97583589;1825957.55177356
157256483;-118.293900056122439;34.049289967127869;Education;Public Middle Schools;Los Angeles Unified;Berendo Middle School;1157 South Berendo Street;;Los Angeles;78613;90006;34.04929;-118.2939;6472641.43353364;1840448.12548265
157256484;-118.337030055816953;34.064699966453304;Education;Public Middle Schools;Los Angeles Unified;John Burroughs Middle School;600 South McCadden Place;;Los Angeles;78614;90005;34.0647;-118.33703;6459595.23915364;1846097.09417155
157256485;-118.315600055393816;33.766019967408695;Education;Public Middle Schools;Los Angeles Unified;Rudecinda Sepulveda Dodson Middle School;28014 Montereina Drive;;Rancho Palos Verdes;78615;90275;33.76602;-118.3156;6465744.36957188;1737379.95432281
157256486;-118.251900055847486;33.98071996702248;Education;Public Middle Schools;Los Angeles Unified;Thomas A. Edison Middle School;6500 Hooper Avenue;;Los Angeles;78616;90001;33.98072;-118.2519;6485301.61129722;1815459.6547904
157256488;-118.215480056222162;33.980779967204718;Education;Public Middle Schools;Los Angeles Unified;Henry T. Gage Middle School;2880 East Gage Avenue;;Huntington Park;78618;90255;33.98078;-118.21548;6496343.11939789;1815455.82048048
157256490;-118.512530055873114;34.26104996643722;Education;Public Middle Schools;Los Angeles Unified;Patrick Henry Middle School;17340 San Jose Street;;Granada Hills;78620;91344;34.26105;-118.51253;6406806.89558356;1917776.15586564
157256491;-118.317830055928695;34.094909966547377;Education;Public Middle Schools;Los Angeles Unified;Joseph Le Conte Middle School;1316 North Bronson Avenue;;Hollywood;78621;90028;34.09491;-118.31783;6465445.0174803;1857072.09059423
157256492;-118.415480056574864;34.197319966776917;Education;Public Middle Schools;Los Angeles Unified;James Madison Middle School;13000 Hart Street;;North Hollywood;78622;91605;34.19732;-118.41548;6436034.97459447;1894448.48926647
157256493;-118.244230056084945;33.941329966739147;Education;Public Middle Schools;Los Angeles Unified;Edwin Markham Middle School;1650 East 104th Street;;Los Angeles;78623;90002;33.94133;-118.24423;6487592.09720181;1801119.09029573
157256494;-118.326650056307628;34.042569966795767;Education;Public Middle Schools;Los Angeles Unified;Johnnie Cochran, Jr., Middle School;4066 West Johnnie Cochran Vista;;Los Angeles;78624;90019;34.04257;-118.32665;6462712.81067438;1838033.22151981
157256496;-118.450830056005856;34.312219966595755;Education;Public Middle Schools;Los Angeles Unified;Olive Vista Middle School;14600 Tyler Street;;Sylmar;78626;91342;34.31222;-118.45083;6425533.23608355;1936308.33599281
157256497;-118.586670055782307;34.171839966000775;Education;Public Middle Schools;Los Angeles Unified;Woodland Hills Charter Academy;20800 Burbank Boulevard;;Woodland Hills;78627;91367;34.17184;-118.58667;6384215.89155306;1885434.06077306
157256498;-118.301460055992607;33.882859967104906;Education;Public Middle Schools;Los Angeles Unified;Robert E. Peary Middle School;1415 West Gardena Boulevard;;Gardena;78628;90247;33.88286;-118.30146;6470169.70258471;1779887.72626248
157256499;-118.54222005604548;34.16739996602648;Education;Public Middle Schools;Los Angeles Unified;Gaspar De Portola Middle School;18720 Linnet Street;;Tarzana;78629;91356;34.1674;-118.54222;6397652.16159648;1883742.78823698
157256501;-118.385710056605163;34.152939966664768;Education;Public Middle Schools;Los Angeles Unified;Walter Reed Middle School;4525 Irvine Avenue;;North Hollywood;78631;91602;34.15294;-118.38571;6444974.9875543;1878262.04526147
157256504;-118.250710055805285;33.851229967449363;Education;Public Middle Schools;Los Angeles Unified;Glenn Hammond Curtiss Middle School;1254 East Helmick Street;;Carson;78634;90746;33.85123;-118.25071;6485544.84834355;1768334.51938206
157256505;-118.178200056794665;34.079969967232081;Education;Public Middle Schools;Los Angeles Unified;El Sereno Middle School;2839 North Eastern Avenue;;Los Angeles;78635;90032;34.07997;-118.1782;6507709.30040564;1851530.8464274
157256515;-118.317600056602799;34.045019966837472;Education;Public Middle Schools;Los Angeles Unified;Pio Pico Middle School;1512 South Arlington Avenue;;Los Angeles;78645;90019;34.04502;-118.3176;6465457.28550039;1838916.03405865
157256530;-118.263700056476779;33.991419966888238;Education;Public Middle Schools;Los Angeles Unified;Los Angeles Academy Middle School;644 East 56th Street;;Los Angeles;78660;90011;33.99142;-118.2637;6481734.41928464;1819362.76935948
157256549;-118.075150057039167;33.96353996711597;Education;Public Middle Schools;Los Nietos;Los Nietos Middle School;11425 East Rivera Road;;Los Nietos;78679;90606;33.96354;-118.07515;6538882.35026413;1809120.31805964
157256556;-117.980160056549323;33.920959967344743;Education;Public Middle Schools;Lowell Joint;Rancho-Starbuck Intermediate;16430 Woodbrier Drive;;Whittier;78686;90604;33.92096;-117.98016;6567689.53838456;1793616.59447397
157256559;-118.203660056114956;33.935549967226486;Education;Public Middle Schools;Lynwood Unified;Cesar Chavez Middle School;3898 Abbott Road;;Lynwood;78689;90262;33.93555;-118.20366;6499893.2418908;1798988.20971498
157256575;-118.203330055886909;33.926309967596104;Education;Public Middle Schools;Lynwood Unified;Hosler Middle School;11300 Spruce Street;;Lynwood;78705;90262;33.92631;-118.20333;6499986.54026064;1795625.37129632
157256576;-118.20502005575085;33.914679966983826;Education;Public Middle Schools;Lynwood Unified;Lynwood Middle School;12124 Bullis Road;;Lynwood;78706;90262;33.91468;-118.20502;6499465.21682823;1791394.00016589
157256585;-117.9987600574743;34.14999996686425;Education;Public Middle Schools;Monrovia Unified;Clifton Middle School;226 South Ivy Avenue;;Monrovia;78715;91016;34.15;-117.99876;6562045.49881963;1876968.23813781
157256589;-118.002260056993777;34.132159966777266;Education;Public Middle Schools;Monrovia Unified;Santa Fe Middle School;148 West Duarte Road;;Monrovia;78719;91016;34.13216;-118.00226;6560986.39955989;1870475.9404269
157256608;-118.126030056774326;34.039979967007866;Education;Public Middle Schools;Montebello Unified;Macy Intermediate;2101 South Lupine Avenue;;Monterey Park;78738;91755;34.03998;-118.12603;6523488.72553964;1836953.81783873
157256618;-118.16214005664844;33.965409966869935;Education;Public Middle Schools;Montebello Unified;Bell Gardens Intermediate;5841 Live Oak Street;;Bell Gardens;78749;90201;33.96541;-118.16214;6512505.2028873;1809831.98428723
157256619;-118.142010056578258;34.02410996725115;Education;Public Middle Schools;Montebello Unified;Eastmont Intermediate;400 North Bradshawe Avenue;;Montebello;78750;90640;34.02411;-118.14201;6518639.32513347;1831184.87071523
157256620;-118.117690056465463;34.012169967148473;Education;Public Middle Schools;Montebello Unified;Montebello Intermediate;1600 Whittier Boulevard;;Montebello;78751;90640;34.01217;-118.11769;6526003.5321898;1826830.14812548
157256621;-118.093710056376821;34.023759966630905;Education;Public Middle Schools;Montebello Unified;La Merced Intermediate;215 East Avenida de la Merced;;Montebello;78752;90640;34.02376;-118.09371;6533274.77256855;1831040.33852398
157256622;-118.143710055929944;33.968859966852641;Education;Public Middle Schools;Montebello Unified;Suva Intermediate;6660 East Suva Street;;Bell Gardens;78753;90201;33.96886;-118.14371;6518095.45647055;1811079.00968032
157256625;-118.023430056686351;34.04535996684362;Education;Public Middle Schools;Mountain View Elementary;Charles T. Kranz Intermediate;12460 Fineview Street;;El Monte;78756;91732;34.04536;-118.02343;6554572.51343755;1838888.59776181
157256635;-118.009400057150955;34.061589967135092;Education;Public Middle Schools;Mountain View Elementary;Alfred S. Madrid Middle School;3300 Gilman Road;;El Monte;78766;91732;34.06159;-118.0094;6558823.27232447;1844794.31626531
157256652;-118.024770056441128;33.904379967657647;Education;Public Middle Schools;Norwalk-La Mirada Unified;Arlie F. Hutchinson Middle School;13900 Estero Road;;La Mirada;78783;90638;33.90438;-118.02477;6554153.93750305;1787583.08324707
157256654;-118.098710056455658;33.906699966967778;Education;Public Middle Schools;Norwalk-La Mirada Unified;Corvallis Middle School;11032 East Leffingwell Road;;Norwalk;78785;90650;33.9067;-118.09871;6531717.86426505;1788441.16453615
157256667;-118.086620056197546;33.896699966879545;Education;Public Middle Schools;Norwalk-La Mirada Unified;Los Alisos Middle School;14800 South Jersey Avenue;;Norwalk;78798;90650;33.8967;-118.08662;6535383.30542497;1784798.55075839
157256668;-118.072890056240695;33.901819966867087;Education;Public Middle Schools;Norwalk-La Mirada Unified;Nettie L. Waite Middle School;14320 South Norwalk Boulevard;;Norwalk;78799;90650;33.90182;-118.07289;6539551.37090772;1786658.53227465
157256672;-117.996720056441248;33.913239967104438;Education;Public Middle Schools;Norwalk-La Mirada Unified;Reginald M. Benton Middle School;15709 East Olive Branch Road;;La Mirada;78803;90638;33.91324;-117.99672;6562665.53399688;1790806.53218073
157256674;-117.990430056458663;33.898509967438677;Education;Public Middle Schools;Norwalk-La Mirada Unified;Los Coyotes Middle School;14640 Mercado Avenue;;La Mirada;78805;90638;33.89851;-117.99043;6564574.52755421;1785446.06586756
157256676;-118.081150057136625;34.545419966108454;Education;Public Middle Schools;Palmdale Elementary;Desert Willow Intermediate;36555 Sunny Lane;;Palmdale;78807;93550;34.54542;-118.08115;6537233.89785239;2020879.27314982
157256681;-118.169810057539905;34.594839966432239;Education;Public Middle Schools;Palmdale Elementary;David G. Millen Intermediate;39221 22nd St W;;Palmdale;78812;93551;34.59484;-118.16981;6510566.41706672;2038897.75876631
157256688;-118.07064005739575;34.56562996600934;Education;Public Middle Schools;Palmdale Elementary;Cactus Middle School;3243 East Avenue R-8;;Palmdale;78819;93550;34.56563;-118.07064;6540403.90594806;2028231.79879907
157256700;-118.022830057589971;34.564929966437191;Education;Public Middle Schools;Palmdale Elementary;Shadow Hills Intermediate;37315 60th Street East;;Palmdale;78831;93552;34.56493;-118.02283;6554797.21115088;2027970.36001748
157256710;-118.411640056116752;33.776749966848477;Education;Public Middle Schools;Palos Verdes Peninsula Unified;Palos Verdes Intermediate;2161 Via Olivera;;Palos Verdes Estates;78841;90274;33.77675;-118.41164;6436569.34622914;1741390.47386082
157256717;-118.326420055976797;33.75303996705555;Education;Public Middle Schools;Palos Verdes Peninsula Unified;Miraleste Intermediate;29323 Palos Verdes Drive East;;Rancho Palos Verdes;78848;90275;33.75304;-118.32642;6462440.32434271;1732666.67962864
157256723;-118.377900055274182;33.767469967116924;Education;Public Middle Schools;Palos Verdes Peninsula Unified;Ridgecrest Intermediate;28915 Northbay Road;;Rancho Palos Verdes;78854;90275;33.76747;-118.3779;6446810.47961822;1737972.96921289
157256724;-118.17575005677152;33.885449967600266;Education;Public Middle Schools;Paramount Unified;Leona Jackson;7220 Jackson Street;;Paramount;78855;90723;33.88545;-118.17575;6508327.41826388;1780739.71570022
157256726;-118.160010056480147;33.900849967452636;Education;Public Middle Schools;Paramount Unified;Paramount Park Middle School;14608 Paramount Boulevard;;Paramount;78857;90723;33.90085;-118.16001;6513113.67509556;1786336.15365431
157256727;-118.151230056670443;33.88814996734655;Education;Public Middle Schools;Paramount Unified;Alondra Middle School;16200 Downey Avenue;;Paramount;78858;90723;33.88815;-118.15123;6515771.09957072;1781710.2045729
157256742;-118.177470056261512;33.889169966978315;Education;Public Middle Schools;Paramount Unified;Frank J. Zamboni;15733 South Orange Avenue;;Paramount;78873;90723;33.88917;-118.17747;6507807.76182289;1782094.42722964
157256749;-118.044860057190718;34.164929966775375;Education;Public Middle Schools;Pasadena Unified;Sierra Madre Middle School;160 North Canon Avenue;;Sierra Madre;78880;91024;34.16493;-118.04486;6548099.9899653;1882404.56223889
157256770;-118.146240056612115;34.171219967198944;Education;Public Middle Schools;Pasadena Unified;Washington Middle School;1505 North Marengo Avenue;;Pasadena;78901;91103;34.17122;-118.14624;6517435.46303989;1884722.75609331
157256773;-118.131390057101441;34.183299966802871;Education;Public Middle Schools;Pasadena Unified;Charles W. Eliot Middle School;2184 North Lake Avenue;;Altadena;78904;91001;34.1833;-118.13139;6521933.05345413;1889112.68005623
157256774;-118.080250056989186;34.140909967088369;Education;Public Middle Schools;Pasadena Unified;Woodrow Wilson Middle School;300 South Madre Avenue;;Pasadena;78905;91107;34.14091;-118.08025;6537387.39131181;1873669.91074498
157256808;-117.740790057861048;34.070439966902576;Education;Public Middle Schools;Pomona Unified;Emerson Middle School;635 Lincoln Avenue;;Pomona;78939;91767;34.07044;-117.74079;6640171.02137405;1848116.09013356
157256809;-117.785890057669832;34.064969967626894;Education;Public Middle Schools;Pomona Unified;Marshall Middle School;1921 Arroyo Avenue;;Pomona;78940;91768;34.06497;-117.78589;6626516.93319672;1846093.29857548
157256810;-117.738490057890658;34.040789966992932;Education;Public Middle Schools;Pomona Unified;Simons Middle School;900 East Franklin Avenue;;Pomona;78941;91766;34.04079;-117.73849;6640895.63836314;1837327.72096232
157256813;-117.810660057551971;34.028659966996749;Education;Public Middle Schools;Pomona Unified;Lorbeer Middle School;501 Diamond Bar Boulevard;;Diamond Bar;78944;91765;34.02866;-117.81066;6619039.84710105;1832864.34701507
157256823;-118.075570056992788;34.082609967380314;Education;Public Middle Schools;Rosemead Elementary;Muscatel Middle School;4201 North Ivar Avenue;;Rosemead;78954;91770;34.08261;-118.07557;6538787.5676453;1852452.36394131
157256826;-118.11496005705709;34.118419967074537;Education;Public Middle Schools;San Marino Unified;Huntington Middle School;1700 Huntington Drive;;San Marino;78958;91108;34.11842;-118.11496;6526875.09803197;1865495.58883905
157256843;-118.470070055464376;34.012999966839111;Education;Public Middle Schools;Santa Monica-Malibu Unified;John Adams Middle School;2425 16th Street;;Santa Monica;78975;90405;34.013;-118.47007;6419214.14898422;1827444.41691007
157256844;-118.489540055699038;34.028979966908381;Education;Public Middle Schools;Santa Monica-Malibu Unified;Lincoln Middle School;1501 California Avenue;;Santa Monica;78976;90403;34.02898;-118.48954;6413342.07247381;1833287.95509173
157256865;-118.150240056981957;34.108839966511439;Education;Public Middle Schools;South Pasadena Unified;South Pasadena Middle School;1500 Fair Oaks;;South Pasadena;78997;91030;34.10884;-118.15024;6516191.60890031;1862023.33856572
157256871;-118.04989005642534;33.942999967002955;Education;Public Middle Schools;South Whittier Elementary;Richard L. Graves Middle School;13243 East Los Nietos Road;;Whittier;79003;90605;33.943;-118.04989;6546538.31231439;1801640.60303223
157256890;-118.069750056560324;34.118689966737591;Education;Public Middle Schools;Temple City Unified;Oak Avenue Intermediate;6623 Oak Avenue;;Temple City;79022;91780;34.11869;-118.06975;6540558.98667464;1865581.27469131
157256904;-118.363770055665825;33.815709967430756;Education;Public Middle Schools;Torrance Unified;Calle Mayor Middle School;4800 Calle Mayor;;Torrance;79036;90505;33.81571;-118.36377;6451168.70088863;1755512.88524848
157256906;-118.321910056028329;33.873949966700607;Education;Public Middle Schools;Torrance Unified;Casimir Middle School;17220 Casimir Avenue;;Torrance;79038;90504;33.87395;-118.32191;6463952.25373356;1776664.4252944
157256909;-118.364530056206362;33.851019967073071;Education;Public Middle Schools;Torrance Unified;Bert M. Lynn Middle School;5038 Halison Street;;Torrance;79041;90503;33.85102;-118.36453;6450984.43944614;1768363.86118689
157256911;-118.357560055576286;33.832239966827252;Education;Public Middle Schools;Torrance Unified;Jefferson Middle School;21717 Talisman Street;;Torrance;79043;90503;33.83224;-118.35756;6453076.49005206;1761521.7803829
157256913;-118.343910055626253;33.834559967378588;Education;Public Middle Schools;Torrance Unified;Madrona Middle School;21364 Madrona Avenue;;Torrance;79045;90503;33.83456;-118.34391;6457224.97683381;1762351.61861822
157256914;-118.345850055485556;33.862559967043637;Education;Public Middle Schools;Torrance Unified;Philip Magruder Middle School;4100 West 185th Street;;Torrance;79046;90504;33.86256;-118.34585;6456670.8618003;1772543.48799823
157256915;-118.367290055673891;33.810239967568158;Education;Public Middle Schools;Torrance Unified;Edward J. Richardson Middle School;23751 Nancy Lee Lane;;Torrance;79047;90505;33.81024;-118.36729;6450092.16892096;1753526.1073979
157256924;-118.317480056373711;33.815389967407341;Education;Public Middle Schools;Torrance Unified;J. H. Hull Middle School;2080 West 231st Street;;Torrance;79056;90501;33.81539;-118.31748;6465229.69671673;1755348.77960557
157256926;-118.046970056953512;34.044519966686991;Education;Public Middle Schools;Valle Lindo Elementary;Dean L. Shively;1431 North Central Avenue;;South El Monte;79058;91733;34.04452;-118.04697;6547441.23242456;1838585.40217398
157256928;-117.932980057376454;34.056819966763015;Education;Public Middle Schools;West Covina Unified;Walnut Grove Intermediate;614 East Vine;;West Covina;79060;91790;34.05682;-117.93298;6581970.38843171;1843065.05660048
157256936;-117.901030057553356;34.053829967563708;Education;Public Middle Schools;West Covina Unified;Hollencrest Middle School;2101 East Merced Avenue;;West Covina;79068;91791;34.05383;-117.90103;6591648.97012439;1841984.92949565
157256944;-117.95074005646255;34.062319967493735;Education;Public Middle Schools;West Covina Unified;Edgewood Middle School;1625 West Durness;;West Covina;79076;91790;34.06232;-117.95074;6576589.98318206;1845063.5010944
157256951;-118.230860056731387;34.652719965544385;Education;Public Middle Schools;Westside Union Elementary;Joe Walker Middle School;5632 West Avenue L-8;;Lancaster;79084;93536;34.65272;-118.23086;6492241.97569731;2059998.44458322
157256954;-118.210260057414487;34.618459966378722;Education;Public Middle Schools;Westside Union Elementary;Hillview Middle School;40525 Peonza Lane;;Palmdale;79087;93551;34.61846;-118.21026;6498411.08573438;2047516.70347065
157256956;-118.065180056543241;33.99496996675181;Education;Public Middle Schools;Whittier City Elementary;Whittier Area Community Day;5777 Lockheed Avenue;;Whittier;79089;90606;33.99497;-118.06518;6541913.00201122;1820556.2430224
157256957;-118.065180056543241;33.99496996675181;Education;Public Middle Schools;Whittier City Elementary;Whittier Independent Study;5777 Lockheed Avenue;;Whittier;79090;90606;33.99497;-118.06518;6541913.00201122;1820556.2430224
157256960;-118.07054005709972;33.983249967087339;Education;Public Middle Schools;Whittier City Elementary;Katherine Edwards Middle School;6812 South Norwalk Boulevard;;Whittier;79093;90606;33.98325;-118.07054;6540285.28873122;1816292.18954265
157256967;-118.05428005619514;33.991739967556597;Education;Public Middle Schools;Whittier City Elementary;Walter F. Dexter Middle School;11532 East Floral Drive;;Whittier;79100;90601;33.99174;-118.05428;6545216.36942022;1819378.81657147
157256977;-118.558500055812885;34.460429966084057;Education;Public Middle Schools;William S. Hart Union High;Rio Norte Junior High School;28771 Rio Norte Drive;;Santa Clarita;79110;91354;34.46043;-118.5585;6393320.1223603;1990407.30358206
157256979;-118.592480056271981;34.401149965965793;Education;Public Middle Schools;William S. Hart Union High;Rancho Pico Junior High School;26250 West Valencia Boulevard;;Stevenson Ranch;79112;91381;34.40115;-118.59248;6382950.39408405;1968893.09792289
157256994;-118.536420055792732;34.441899966415392;Education;Public Middle Schools;William S. Hart Union High;Arroyo Seco Junior High School;27171 North Vista Delgado Drive;;Valencia;79127;91354;34.4419;-118.53642;6399939.70656206;1983627.68951665
157256995;-118.539920055716792;34.388619965840974;Education;Public Middle Schools;William S. Hart Union High;Placerita Junior High School;25015 North Newhall Avenue;;Newhall;79128;91321;34.38862;-118.53992;6398780.31780472;1964243.94055456
157256996;-118.474660056778745;34.418469965775046;Education;Public Middle Schools;William S. Hart Union High;Sierra Vista Junior High School;19425 West Stillmore Street;;Canyon Country;79129;91351;34.41847;-118.47466;6418519.93318105;1975007.47184898
157256997;-118.483000056040567;34.407829966393926;Education;Public Middle Schools;William S. Hart Union High;La Mesa Junior High School;26623 May Way;;Santa Clarita;79130;91351;34.40783;-118.483;6415986.12689698;1971147.38606523
157256998;-117.827350058016137;34.641309966382707;Education;Public Middle Schools;Wilsona Elementary;Challenger Middle School;41725 North 170th Street, East;;Lancaster;79131;93535;34.64131;-117.82735;6613599.86093381;2055810.8942313
157257000;-117.827350058016137;34.641309966382707;Education;Public Middle Schools;Wilsona Elementary;Wilsona Achievement Academy;41725 North 170th Street, East;;Lancaster;79133;93535;34.64131;-117.82735;6613599.86093381;2055810.8942313
157257032;-118.227550056588996;33.920579967561238;Education;Public Middle Schools;Compton Unified;Bunche Middle School;12338 Mona Boulevard;;Compton;79165;90220;33.92058;-118.22755;6492634.26133005;1793555.84787631
157257033;-118.258110055841868;33.895359967471485;Education;Public Middle Schools;Compton Unified;Enterprise Middle School;2600 West Compton Boulevard;;Compton;79166;90220;33.89536;-118.25811;6483339.15852922;1784400.13488856
157257034;-118.269960056589341;33.911329967473108;Education;Public Middle Schools;Compton Unified;Vanguard Learning Center;13305 South San Pedro Street;;Los Angeles;79167;90061;33.91133;-118.26996;6479758.53970622;1790221.41491264
157257035;-118.189580056129174;33.903299966752748;Education;Public Middle Schools;Compton Unified;Whaley Middle School;14401 South Gibson Avenue;;Compton;79168;90221;33.9033;-118.18958;6504142.05032231;1787243.36771914
157257036;-118.239140055693454;33.915589967019955;Education;Public Middle Schools;Compton Unified;Willowbrook Middle School;2601 North Wilmington Avenue;;Compton;79169;90222;33.91559;-118.23914;6489113.67421113;1791748.0407964
157257037;-118.209920056196694;33.888579966999735;Education;Public Middle Schools;Compton Unified;Roosevelt Middle School;1200 East Alondra Boulevard;;Compton;79170;90221;33.88858;-118.20992;6497958.67390956;1781898.6904164
157257038;-118.212780056374797;33.880649967200696;Education;Public Middle Schools;Compton Unified;Walton Middle School;900 West Greenleaf Avenue;;Compton;79171;90220;33.88065;-118.21278;6497084.54343997;1779014.60530531
157257039;-118.234530055836231;33.900079966741082;Education;Public Middle Schools;Compton Unified;Davis Middle School;621 West Poplar Street;;Compton;79172;90220;33.90008;-118.23453;6490499.20654505;1786100.31291865
157257040;-118.249640056357904;33.883199967599573;Education;Public Middle Schools;Compton Unified;Compton Community Day Middle School;2300 West Caldwell Street;;Compton;79173;90220;33.8832;-118.24964;6485898.63667797;1779968.34355532
157257066;-117.973930057255302;33.997749967284861;Education;Public Middle Schools;Hacienda la Puente Unified;Newton Middle School;15616 Newton Street;;Hacienda Heights;79200;91745;33.99775;-117.97393;6569572.39255847;1821562.56286015
157257067;-117.995700057234188;34.010639966961463;Education;Public Middle Schools;Hacienda la Puente Unified;Orange Grove Middle School;14505 Orange Grove Avenue;;Hacienda Heights;79201;91745;34.01064;-117.9957;6562973.49926022;1826252.49967448
157257069;-117.94739005706343;34.030629967014754;Education;Public Middle Schools;Hacienda la Puente Unified;Sierra Vista Middle School;15801 Sierra Vista Court;;La Puente;79203;91744;34.03063;-117.94739;6577610.65305673;1833531.40604839
157257071;-117.958170057249788;34.03750996752148;Education;Public Middle Schools;Hacienda la Puente Unified;Sparks Middle School;15100 Giordano Street;;La Puente;79205;91744;34.03751;-117.95817;6574343.37481439;1836033.63956098
157257088;-117.895290057156473;33.984199967744523;Education;Public Middle Schools;Rowland Unified;Alvarado Intermediate;1901 South Desire Avenue;;Rowland Heights;79223;91748;33.9842;-117.89529;6593414.05025564;1816646.9476914
157257090;-117.908810057366466;34.015369967267603;Education;Public Middle Schools;Rowland Unified;Giano Intermediate;3223 South Giano Avenue;;West Covina;79225;91792;34.01537;-117.90881;6589305.05781747;1827986.35119365
157257110;-117.849330056717022;34.0273599673801;Education;Public Middle Schools;Walnut Valley Unified;Suzanne Middle School;525 Suzanne Road;;Walnut;79245;91789;34.02736;-117.84933;6607323.6589193;1832371.43428698
157257114;-117.817050057230176;33.996519966928169;Education;Public Middle Schools;Walnut Valley Unified;Chaparral Middle School;1408 South Spruce Tree Drive;;Diamond Bar;79249;91765;33.99652;-117.81705;6617124.98544522;1821164.38452265
157257118;-117.852500057235744;33.991439967212251;Education;Public Middle Schools;Walnut Valley Unified;South Pointe Middle School;20671 Larkstone Drive;;Walnut;79253;91789;33.99144;-117.8525;6606382.32550013;1819298.00636564
157257134;-118.07785005673756;34.10342996654817;Education;Public Middle Schools;San Gabriel Unified;Jefferson Middle School;1372 East Las Tunas Drive;;San Gabriel;79270;91776;34.10343;-118.07785;6538103.04670464;1860029.67818297
157257155;-118.196540057337799;34.490939966046554;Education;Public Middle Schools;Acton-Agua Dulce Unified;High Desert;3620 Antelope Woods Road;;Acton;79291;93510;34.49094;-118.19654;6502448.16788331;2001100.76415047
157257164;-118.383340055368592;33.889509966834908;Education;Public Middle Schools;Manhattan Beach Unified;Manhattan Beach Middle School;1501 Redondo Avenue;;Manhattan Beach;79300;90266;33.88951;-118.38334;6445326.41729763;1782392.45878582
157257169;-118.364180056166461;33.86651996701103;Education;Public Middle Schools;Redondo Beach Unified;Adams Middle School;2600 Ripley Avenue;;Redondo Beach;79305;90278;33.86652;-118.36418;6451111.14982264;1774004.2747748
157257173;-118.377250056069286;33.840509967221024;Education;Public Middle Schools;Redondo Beach Unified;Parras (Nick G.) Middle School;200 North Lucia;;Redondo Beach;79309;90277;33.84051;-118.37725;6447107.80153014;1764553.28317815
157257209;-118.376630055998731;33.909429966912462;Education;Public Middle Schools;Wiseburn Unified;Richard Henry Dana Middle School;5504 West 135th Street;;Hawthorne;79345;90250;33.90943;-118.37663;6447390.05883963;1789634.06372514
