OBJECTID;X;Y;Name;addrln1;city;post_id;zip;latitude;longitude;POINT_X;POINT_Y
157192127;-118.063873056275369;33.867226967752281;City Of Cerritos;18125 S. Bloomfield Ave.;Cerritos;2869;90703;33.867227;-118.063873;6542279.64071363;1774067.45312615
157192171;-117.716532058004034;34.095725967122071;City Of Claremont;207 Harvard Ave.;Claremont;2905;91711;34.095726;-117.716532;6647491.4880323;1857337.94012815
157192236;-118.307890056336518;34.181819966204401;City Of Burbank;275 E. Olive Ave.;Burbank;2967;91502;34.18182;-118.30789;6468551.29145147;1888690.72223873
157244526;-118.259746056335345;34.038992967235728;City Of Los Angeles Department Of Public Works - Street Lighting Bureau;1149 S. Broadway;Los Angeles;58455;90015;34.038993;-118.259746;6482977.73766413;1836672.36564572
157244528;-118.259746056335345;34.038992967235728;City Of Los Angeles Department Of Public Works - Bureau Of Street Services;1149 S. Broadway St.;Los Angeles;58456;90015;34.038993;-118.259746;6482977.73766413;1836672.36564572
157245043;-118.057863056986264;34.161592966902006;City Of Sierra Madre;232 W. Sierra Madre Blvd.;Sierra Madre;;;;;;
157245050;-118.152161056688811;34.116264967137027;City Of South Pasadena;1414 Mission St.;South Pasadena;;;;;;
157245222;-118.243397056768472;34.051981967009247;California State Department Of Transportation - Los Angeles And Ventura Counties;100 S. Main St.;Los Angeles;;;;;;
157245227;-118.243397156499341;34.051981996558737;City Of Los Angeles Department Of Transportation;100 S Main St;Los Angeles;59055;90012;34.05198203;-118.2433971;6487942.23265639;1841386.91756831
157245285;-118.148608056364509;34.085610967261765;Los Angeles County Department Of Public Works;900 S. Fremont Ave.;Alhambra;59108;91803;34.085611;-118.148608;6516673.12926272;1853569.14451614
157246889;-118.195582156486509;33.768134057162406;City Of Long Beach Department Of Public Works;333 W Ocean Blvd;Long Beach;60650;90802;33.76813409;-118.1955821;6502224.99772596;1738056.57501681
157247296;-118.395051055552642;34.021421967271095;City Of Culver City;9770 Culver Blvd.;Culver City;61005;90232;34.021422;-118.395051;6441960.80854331;1830411.49398114
157247551;-118.331005055466449;33.336113967733844;City Of Avalon;410 Avalon Canyon Rd.;Avalon;61290;90704;33.336114;-118.331005;6460546.8461743;1580934.63499622
157247559;-117.960124057377556;34.085230966897804;City Of Baldwin Park;14403 E. Pacific Ave.;Baldwin Park;61292;91706;34.085231;-117.960124;6573744.4898573;1853399.9903269
157247566;-118.150414056089048;33.967194967426806;City Of Bell Gardens;7100 S. Garfield Ave.;Bell Gardens;61293;90201;33.967195;-118.150414;6516061.80502605;1810476.05550565
157247573;-118.122112056798201;33.883524967724846;City Of Bellflower;16600 Civic Center Dr.;Bellflower;;;;;;
157247581;-118.400312055943076;34.072659966670294;City Of Beverly Hills;455 N. Rexford Dr.;Beverly Hills;;;;;;
157247589;-118.156185056982778;34.000713966922653;City Of Commerce;2535 Commerce Way;Commerce;61297;90040;34.000714;-118.156185;6514330.87705746;1822676.97401714
157247595;-118.224470055729995;33.894944967598384;City Of Compton;205 S. Willowbrook Ave.;Compton;61299;90220;33.894945;-118.22447;6493547.86383355;1784224.60079081
157247602;-117.889558057568138;34.087581967538455;City Of Covina;125 E. College;Covina;61300;91723;34.087582;-117.889558;6595110.41398889;1854271.54107723
157247610;-118.174736056320683;33.959604966762072;City Of Cudahy;5220 Santa Ana St.;Cudahy;;;;;;
157247616;-118.128664056311194;33.94103796734619;City Of Downey;11111 Brookshire Ave.;Downey;61302;90241;33.941038;-118.128664;6522644.65078422;1800947.80848606
157247623;-117.971536056956737;34.139173966600502;City Of Duarte;1600 Huntington Dr.;Duarte;61303;91010;34.139174;-117.971536;6570283.45970589;1873029.67613307
157247630;-118.030504056759682;34.070933967200979;City Of El Monte;11333 Valley Blvd.;El Monte;61304;91731;34.070934;-118.030504;6552432.36056563;1848196.04568231
157247636;-118.306996056553089;33.883649967589228;City Of Gardena;1700 W. 162nd St.;Gardena;;;;;;
157247644;-118.248591056969587;34.146478966868052;City Of Glendale;613 E. Broadway;Glendale;;;;;;
157247657;-118.395489055719025;33.864109967064373;City Of Hermosa Beach;1315 Valley Dr.;Hermosa Beach;61312;90254;33.86411;-118.395489;6441602.83813064;1773163.13997415
157247667;-118.218920055935243;33.979874967370179;City Of Huntington Park;6550 Miles Ave.;Huntington Park;61314;90255;33.979875;-118.21892;6495299.49681322;1815128.72631839
157247673;-117.956382056829568;34.023286967557411;City Of Industry;15625 E. Stafford;Industry;61315;91744;34.023287;-117.956382;6574887.32352963;1830857.83823282
157247681;-118.354823056498532;33.963083966669572;City Of Inglewood;1 Manchester Blvd.;Inglewood;;;;;;
157247688;-117.934013057107904;34.104194967362595;City Of Irwindale;5050 N. Irwindale Ave.;Irwindale;61317;91706;34.104195;-117.934013;6581646.17845023;1860305.50899614
157247695;-118.206906056116381;34.207866966876153;City Of La Canada Flintridge;1327 Foothill Blvd.;La Canada Flintridge;;;;;;
157247701;-118.011575057206173;33.906551966938167;City Of La Mirada;13700  La Mirada Blvd.;La Mirada;;;;;;
157247709;-117.951367057270588;34.019968967181725;City Of La Puente;15900 E. Main St.;La Puente;;;;;;
157247718;-117.765153057963587;34.111870967382849;City Of La Verne;3660 D St.;La Verne;61321;91750;34.111871;-117.765153;6632757.57229023;1863175.43829565
157247725;-118.144862057614233;34.698656965451242;City Of Lancaster;44933 Fern Ave.;Lancaster;61322;93534;34.698657;-118.144862;6518128.89898898;2076667.94602107
157247733;-118.319768055396608;33.804962967549933;City Of Lomita;24300 Narbonne Ave.;Lomita;61323;;;;;
157247745;-118.195582055889503;33.768133967175316;City Of Long Beach;333 W. Ocean Blvd.;Long Beach;61324;90802;33.768134;-118.195582;6502225.02823772;1738056.54220848
157247753;-118.199678056158717;33.926340966765522;City Of Lynwood;11330 Bullis Rd.;Lynwood;61325;90262;33.926341;-118.199678;6501094.46061698;1795634.43164565
157247759;-118.116077057251857;34.577520966275038;City Of Palmdale;38300 Sierra Hwy.;Palmdale;61329;93550;34.577521;-118.116077;6526729.94412281;2032571.93545997
157247766;-118.391591055872439;33.799755967415116;City Of Palos Verdes Estates;340 Palos Verdes Dr. W.;Palos Verdes Estates;61330;90274;33.799756;-118.391591;6442694.99769172;1749738.5913509
157247772;-118.161244056868256;33.885366967522359;City Of Paramount;16400 Colorado Ave.;Paramount;;;;;;
157247783;-117.751251057488005;34.054553966980812;City Of Pomona;505 S. Garey Ave.;Pomona;;;;;;
157247793;-118.404147055649346;33.746050966949007;City Of Rancho Palos Verdes;30940 Hawthorne Blvd.;Rancho Palos Verdes;;;;;;
157247799;-118.388201056215593;33.844420967039788;City Of Redondo Beach;415 Diamond St.;Redondo Beach;;;;;;
157247809;-118.0767570564458;34.080567966821285;City Of Rosemead;8838 E. Valley Blvd.;Rosemead;61341;91770;34.080568;-118.076757;6538427.5742708;1851709.51372097
157247816;-118.111736057066636;34.109091967086798;City Of San Gabriel;425 S. Mission Dr.;San Gabriel;61344;91776;34.109092;-118.111736;6527847.14037922;1862099.85809773
157247822;-118.105728056269186;34.121222966923419;City Of San Marino;2200 Huntington Dr.;San Marino;61345;91108;34.121223;-118.105728;6529670.44250688;1866512.58450848
157247833;-118.552801056046121;34.413084965960614;City Of Santa Clarita;23920 Valencia Blvd.;Santa Clarita;;;;;;
157247840;-118.083775056433467;33.945570967426498;City Of Santa Fe Springs;11710 Telegraph Rd.;Santa Fe Springs;;;;;;
157247846;-118.167781056009474;33.796646967003177;City Of Signal Hill;2175 Cherry Ave.;Signal Hill;;;;;;
157247853;-118.046036056300665;34.044352966856373;City Of South El Monte;1415 Santa Anita Ave.;South El Monte;61350;91733;34.044353;-118.046036;6547724.15082197;1838524.49678397
157247860;-118.205651056025317;33.955862966955195;City Of South Gate;8650 California Ave.;South Gate;61351;90280;33.955863;-118.205651;6499304.42777972;1806381.77005906
157247867;-118.05786305630491;34.107689967089193;City Of Temple City;9701 Las Tunas Dr.;Temple City;61352;91780;34.10769;-118.057863;6544154.53886671;1861575.8873609
157247879;-118.230395055913419;34.005167966809786;City Of Vernon;4305 Santa Fe Ave.;Vernon;61354;90058;34.005168;-118.230395;6491841.67958188;1824341.12324789
157247890;-117.834329057413882;34.02825296697263;City Of Walnut - Community Services Department;21701 E. Valley Blvd.;Walnut;61356;91789;34.028253;-117.834329;6611868.45396355;1832703.56682481
157247898;-117.938845657440453;34.071382537032456;City Of West Covina;1444 W Garvey Ave S;West Covina;61357;91790;34.07138257;-117.9388456;6580190.49993114;1848363.52238148
157247902;-118.799317055155356;34.145001966171691;City Of Westlake Village;31200 Oak Crest Dr.;Westlake Village;61358;91361;34.145002;-118.799317;6319818.48327464;1876110.97607282
157247908;-118.034599057113709;33.975311967167315;City Of Whittier;13230 E. Penn St.;Whittier;61359;90602;33.975312;-118.034599;6551180.23610139;1813397.68680148
157247915;-117.905549057242581;34.134656966890844;City Of Azusa;213 E. Foothill Blvd.;Azusa;61364;91702;34.134657;-117.905549;6590252.49588323;1871398.06719156
157247921;-118.188707056318719;33.979429967259144;City Of Bell;6330 Pine Ave.;Bell;61365;90201;33.97943;-118.188707;6504458.97455722;1814948.20929098
157247927;-118.353977055412486;33.897671966809135;City Of Lawndale;14717 Burin Ave.;Lawndale;61367;90260;33.897672;-118.353977;6454248.52674997;1785330.10054831
157247933;-118.189255056912543;33.98766696700411;City Of Maywood;4319 E. Slauson Ave.;Maywood;;;;;;
157247940;-117.99895305709714;34.147922966489006;City Of Monrovia;415 S. Ivy Ave.;Monrovia;;;;;;
157247947;-118.491680055640728;34.011306967179003;City Of Santa Monica;1685 Main St.;Santa Monica;;;;;;
157247955;-117.830236956746887;33.999321097240951;City Of Diamond Bar;21810 Copley Dr;Diamond Bar;;;;;;
157248278;-118.410607035364791;33.887281440691424;City Of Manhattan Beach;1400 Highland Ave;Manhattan Beach;2815;90266;33.88728147;-118.41060698;6437047.60445897;1781614.13422698
157249579;-118.038649757091562;34.137635517094488;Arcadia City Hall;240 W. Huntington Dr.;Arcadia;;;;;;
157249589;-118.415318255666321;33.920449676704905;El Segundo City Hall;350 Main Street;El Segundo;;;;;;
157249597;-118.354269917907388;33.918519348758707;Hawthorne City Hall;4455 W. 126th St.;Hawthorne;;;;;;
157249605;-117.965194044144212;33.946831051467775;La Habra Heights City Hall;1245 N. Hacienda Road;La Habra Heights;60812;90631;33.94683108;-117.96519399;6572226.77799772;1803032.89257048
157249612;-118.262962159456904;33.83219989539819;Carson City Hall;701 E. Carson St.;Carson;61296;90745;33.83219993;-118.2629621;6481806.51526906;1761418.5187784
157249620;-118.116430556778425;34.020268897168812;Montebello City Hall;1600 W. Beverly Blvd.;Montebello;61326;90640;34.02026893;-118.1164305;6526388.64624897;1829777.06545998
157249629;-118.118849756667046;34.059338737234135;Monterey Park City Hall;320 W. Newmark Ave.;Monterey Park;;;;;;
157249637;-118.071844038221059;33.915779199594695;Norwalk City Hall;12700 S. Norwalk Blvd.;Norwalk;;;;;;
157249644;-118.352960999320473;33.78361493303958;Rolling Hills Estates City Hall;4045 Palos Verdes Dr. North;Rolling Hills Estates;61339;90274;33.78361497;-118.35296094;6454411.11697596;1743820.98934098
157249653;-117.803621357086641;34.107238776908801;San Dimas City Hall;245 E. Bonita Ave.;San Dimas;61342;91773;34.10723881;-117.8036213;6621116.68218622;1861464.72321315
157249660;-118.438823875106252;34.284029929615585;San Fernando City Hall;117 Macneil St.;San Fernando;61343;91340;34.28402996;-118.43882382;6429113.93167806;1926033.51402281
157250511;-118.308467456067817;34.18285211649539;City Of Burbank Police Department;200 N 3Rd St;Burbank;70634;91502;34.18285215;-118.3084674;6468377.81443623;1889066.87404548
157250990;-118.775352255805146;34.144005716149508;City Of Agoura Hills;30001 Ladyface Ct;Agoura Hills;;;;;;
157250997;-117.970841656859449;34.145817956810497;City Of Bradbury;600 Winston Ave;Bradbury;70936;91008;34.14581799;-117.9708416;6570492.88185921;1875447.60600847
157251004;-118.647285755410749;34.152723506115549;City Of Calabasas;100 Civic Center Way;Calabasas;;;;;;
157251014;-117.944828656796957;33.931926437726986;City Of La Habra;201 E La Habra Blvd;La Habra;;;;;;
157251022;-118.410684656336997;33.887274257030924;City Of Manhattan Beach;1400 Highland Ave;Manhattan Beach;70940;90266;33.88727429;-118.4106846;6437024.03528039;1781611.61618739
157252133;-118.116037157341182;34.576652996119947;City Of Palmdale - Development Services;38250 Sierra Hwy;Palmdale;71728;93550;34.57665303;-118.1160371;6526741.5897688;2032256.04534373
157252969;-118.07995026040571;33.860056687329504;City Of Artesia;18747 Clarkdale Ave.;Artesia;61363;90701;33.86005672;-118.0799502;6537396.81681788;1771461.50328556
157254647;-118.127123146964323;34.092557363010485;Alhambra City Hall;111 S. First St.;Alhambra;;;;;;
157258959;-118.370644056089631;34.090312966755256;City Of West Hollywood;8300 Santa Monica Blvd.;West Hollywood;58908;90069;34.090313;-118.370644;6449449.09901288;1855453.92617965
157259046;-118.081942056750989;33.830176967298442;City Of Hawaiian Gardens;21815 S. Pioneer Blvd.;Hawaiian Gardens;61310;90716;33.830177;-118.081942;6536783.22782198;1760588.00370714
157259126;-118.088231056416006;33.982273967527959;City Of Pico Rivera;6615 S. Passons Blvd.;Pico Rivera;;;;;;
157259145;-118.133607055962798;33.849585967328963;City Of Lakewood;5050 N. Clark Ave.;Lakewood;;;;;;
157260232;-118.005321057302709;34.100297966674034;City Of Arcadia Public Works Services Department;11800 Goldring Rd.;Arcadia;;;;;;
