OBJECTID;X;Y;org_name;Name;addrln1;city;post_id;zip;latitude;longitude;POINT_X;POINT_Y
157248973;-118.393686755411593;33.319473768024366;Catalina Island Chamber of Commerce;Silver Canyon Landing;;;23894;;33.3194738;-118.3936867;6441373.67848396;1574947.32774514
157248976;-118.581193454782465;33.451692767521287;Catalina Island Chamber of Commerce;Spring Landing;;;23870;;33.4516928;-118.5811934;6384357.06876414;1623346.21388681
157248979;-118.370046671805156;33.394221735992431;Catalina Island Chamber of Commerce;Whites Landing;;;23895;;33.39422177;-118.37004662;6448697.36659247;1602124.83933489
157248982;-118.311166818078149;33.335888583956439;Catalina Island Chamber of Commerce;Pebbly Beach;;;23648;;33.33588862;-118.31116676;6466607.24186188;1580833.24510714
157248985;-118.566008860657433;33.473629846662412;Catalina Island Chamber of Commerce;Lorenzo Beach;;;25449;;33.47362988;-118.56600881;6389034.56498656;1631303.62710582
157248988;-118.481454904548357;33.368133460895919;Catalina Island Chamber of Commerce;Ben Weston Beach;;;25383;;33.36813349;-118.48145485;6414639.86416955;1592774.02601556
157248991;-118.348921592085517;33.370346610401072;Catalina Island Chamber of Commerce;Gallagher Beach;;;26418;;33.37034664;-118.34892154;6455116.53485647;1593412.33510639
157248994;-118.329829629217784;33.353701814800814;Catalina Island Chamber of Commerce;Hamilton Beach;;;26436;;33.35370185;-118.32982957;6460926.94712013;1587334.68125123
157248998;-118.550730999077246;33.472837825680301;Catalina Island Chamber of Commerce;Parsons Landing;;;25400;;33.47283786;-118.55073094;6393692.76958089;1630989.49190731
157249001;-118.531134780020565;33.468814963393051;Catalina Island Chamber of Commerce;Johnsons Landing;;;25408;;33.468815;-118.53113472;6399661.98828547;1629493.23374498
157249004;-118.369081075653071;33.405023859289159;Catalina Island Chamber of Commerce;Button Shell Beach;;;26450;;33.40502389;-118.36908102;6449006.59136772;1606055.20811456
157249007;-118.116176156551475;33.760295067825687;Marina Pacifica;Marina Pacifica;;;24164;;33.7602951;-118.1161761;6526356.39172031;1735166.31472123
157249011;-118.11117585659747;33.752795167371794;US Geological Survey (USGS) & LA County;Long Beach Marina;;;24188;;33.7527952;-118.1111758;6527873.30896205;1732435.16303131
157253327;-118.284602221216275;33.711221273369958;LA City Department Recreation and Parks;Cabrillo Beach and Marine Aquarium;;;;;33.71122131;-118.28460217;6475109.60543455;1717408.99688947
157253328;-118.284602221216275;33.711221273369958;LA City Department Recreation and Parks;Cabrillo Beach and Marine Aquarium;;;;;33.71122131;-118.28460217;6475109.60543455;1717408.99688947
157253329;-118.284602221216275;33.711221273369958;LA City Department Recreation and Parks;Cabrillo Beach and Marine Aquarium;;Los Angeles;;;33.71122131;-118.28460217;6475109.60543455;1717408.99688947
157253330;-118.284602221216275;33.711221273369958;LA City Department Recreation and Parks;Cabrillo Beach and Marine Aquarium;;Los Angeles;;;33.71122131;-118.28460217;6475109.60543455;1717408.99688947
157253331;-118.284602221216275;33.711221273369958;LA City Department Recreation and Parks;Cabrillo Beach and Marine Aquarium;3800 Stephen M. White Drive;;;;33.71122131;-118.28460217;6475109.60543455;1717408.99688947
157253332;-118.284602221216275;33.711221273369958;LA City Department Recreation and Parks;Cabrillo Beach and Marine Aquarium;3800 Stephen M. White Drive;;;;33.71122131;-118.28460217;6475109.60543455;1717408.99688947
157253333;-118.284602221216275;33.711221273369958;LA City Department Recreation and Parks;Cabrillo Beach and Marine Aquarium;3800 Stephen M. White Drive;Los Angeles;;;33.71122131;-118.28460217;6475109.60543455;1717408.99688947
157253334;-118.284602221216275;33.711221273369958;LA City Department Recreation and Parks;Cabrillo Beach and Marine Aquarium;3800 Stephen M. White Drive;Los Angeles;;;33.71122131;-118.28460217;6475109.60543455;1717408.99688947
157259972;-118.933396393543177;34.045583376414818;California State Parks;Leo Carillo Beach State Park;;Malibu;;90265;34.04558341;-118.93339634;6278914.79834989;1840281.89845289
157259975;-118.892090376385624;34.04072938980817;California State Parks;Robert H. Meyer Memorial State Beach;;Malibu;;90265;34.04072942;-118.89209032;6291411.69560014;1838401.88416831
157259978;-118.446157034715966;33.974563915732986;Loyola Marymount University Boathouse;Loyola Marymount University Boathouse;13669 Fiji Way;Marina del Rey;;90292;33.97456395;-118.44615698;6426398.93054639;1813423.85341582
157259988;-118.443217333465597;33.975502573163098;The Boat Yard;The Boat Yard;13555 Fiji Way;Marina del Rey ;;90292;33.97550261;-118.44321728;6427291.72600488;1813761.50431532
157259994;-118.446092662321377;33.979924353235674;Marina del Rey Marina;Marina del Rey Marina (at Marina del Rey Hotel);13534 Bali Way;Marina del Rey;;90292;33.97992439;-118.44609261;6426427.10503072;1815374.52372706
157260006;-118.453109320061472;33.97900798727165;Panay Way Marina;Panay Way Marina;13953 Panay Way;Marina del Rey;;90292;33.97900802;-118.45310926;6424298.35502313;1815050.5571834
157260009;-118.451907690311344;33.979025780626735;Dophin Marina;Dolphin Marina;13900 Panay Way;Marina del Rey;;90292;33.97902581;-118.45190763;6424662.68729971;1815055.39247556
157260012;-118.454825933356162;33.976445667441915;Villa del Mar Marina Apartments;Villa del Mar Marina Apartments;13999 Marquesas Way;Marina del Rey;;90292;33.9764457;-118.45482588;6423773.70285723;1814120.4350279
157260015;-118.4460497453275;33.982442084552986;California Yacht Club;California Yacht Club;4469 Admiralty Way;Marina del Rey;;90292;33.98244212;-118.44604969;6426444.1820963;1816290.7121834
157260030;-118.440470751330082;33.976534638762416;Los Angeles County Department of Beaches and Harbors;Trailerable Boat Launch Ramp;13837 Fiji Way ;Marina del Rey;;90292;33.97653467;-118.4404707;6428126.09999231;1814133.43073681
157260033;-118.443882520402113;33.981072021276972;Catalina Yacht Anchorage;Catalina Yacht Anchorage;13505 Bali Way;Marina del Rey;;90292;33.98107205;-118.44388247;6427099.00034048;1815789.21384256
157260077;-118.186878618167029;33.761276855750289;Shoreline Marina;Downtown Shoreline Marina;450 E. Shoreline Dr.;Long Beach;59510;90802;33.76127689;-118.18687856;6504865.71357314;1735556.01210456
157260080;-118.555966230706346;33.433705232400463;Catalina Island Chamber of Commerce;Ribbon Beach;;;;;33.43370527;-118.55596618;6392017.22207896;1616756.20574139
157260082;-118.58112835515125;34.039621956336582;Los Angeles County Department of Beaches and Harbors;Topanga Beach;18700 Pacific Coast Highway;Los Angeles;;90290;34.03962199;-118.5811283;6385613.93468872;1837308.51496398
157260089;-118.112640437224044;33.750320548477987;LA County;Alamitos Bay Marina;205 Marina Dr.;Long Beach;59516;90803;33.75032058;-118.11264038;6527427.07297789;1731535.07198372
157260092;-118.522803838013843;33.461968060969745;Catalina Island Chamber of Commerce;Sullivans Beach;;;;;33.46196809;-118.52280378;6402190.13414781;1626988.02451657
157260101;-118.435455020648092;33.930709602087511;Los Angeles County Department of Beaches and Harbors;Dockweiler State Beach;12001 Vista Del Mar;Playa Del Rey;;90293;33.93070963;-118.43545496;6429574.54099305;1797450.23542872
157260106;-118.433936889118485;33.426230092089831;Catalina Island Chamber of Commerce;Empire Landing;;Avalon;;;33.42623012;-118.43393683;6429242.47604039;1613852.28471197
157260109;-118.390672858462111;33.839168905166787;City of Redondo Beach;Redondo Beach and Pier;400 - 1700 Esplanade;Redondo Beach;;90277;33.83916894;-118.3906728;6443029.71487005;1764080.8103698
157260114;-118.148399656421049;33.756684367439398;Belmont Pier;Belmont Veterans Memorial Pier;;Long Beach;;;33.7566844;-118.1483996;6516559.51039547;1733865.16673298
157260117;-118.522782380767211;33.462352933774724;Catalina Island Chamber of Commerce;Howland Landing;;;;;33.46235297;-118.52278233;6402197.40808339;1627128.06262231
157260120;-118.353685055174864;33.374750268345693;Catalina Island Chamber of Commerce;Bannings Beach;;;;;33.3747503;-118.353685;6453667.51183589;1595020.15013222
157260122;-118.819799477621942;34.016055104810711;Los Angeles County Department of Beaches and Harbors;Zuma Beach;30050 Pacific Coast Highway;Malibu;;90501;33.81317039;-118.39107513;6442870.72339013;1754619.80370131
157260131;-118.412575777917411;33.884132973291344;Los Angeles County Department of Beaches and Harbors;Manhattan Beach, Pier, Roundhouse Aquarium;400-500  The Strand;Manhattan Beach;;90266;33.88413301;-118.41257572;6436445.37469231;1780470.78808847
157260135;-118.742063454924917;34.033142616961889;Los Angeles County Department of Beaches and Harbors;Dan Blocker Beach;26000 Pacific Coast Highway;Malibu;;90265;34.0391736;-118.59859228;6380322.20380239;1837176.38727547
157260173;-118.915130551180525;34.043254208135728;Los Angeles County Department of Beaches and Harbors;Nicholas Canyon Beach;33850 Pacific Coast Highway;Malibu;;90265;34.04325424;-118.9151305;6284440.23349322;1839383.42452806
157260177;-118.808823879639377;34.002714666352169;Los Angeles County Department of Beaches and Harbors;Point Dume Beach;7103 Westward Beach Rd.;Malibu;;90265;34.0027147;-118.80882382;6316525.3783123;1824354.58385089
157260182;-118.409700449471302;33.743040974318518;Los Angeles County Department of Beaches and Harbors;Point Vicente;Palos Verdes Dr. & Hawthorne Blvd.;Palos Verdes;;90275;33.74304101;-118.40970039;6437108.80479589;1729120.47838773
157260190;-118.318033274177267;33.71608511556007;Los Angeles County Department of Beaches and Harbors;White Point - Royal Palms;1799 Paseo Del Mar;San Pedro;;90732;33.71608515;-118.31803322;6464947.30292456;1719209.57399698
157211063;-118.557580154607606;33.006977868316746;US Geological Survey (USGS);Wilson Cove;;;24936;;33.0069779;-118.5575801;6390663.18640122;1461444.13939765
157211064;-118.385074254806781;32.822816068541243;US Geological Survey (USGS);Pyramid Cove;;;24937;;32.8228161;-118.3850742;6443312.79862148;1394159.71753632
157211065;-118.399796955128778;32.860037268689553;US Geological Survey (USGS);Mosquito Cove;;;24938;;32.8600373;-118.3997969;6438841.49916513;1407726.58049439
157211140;-118.128954455784012;33.75446186776783;US Geological Survey (USGS);Alamitos Bay;;;25027;;33.7544619;-118.1289544;6522469.4624863;1733048.17952181
157248658;-118.255070556198035;33.726130367131944;US Geological Survey (USGS);San Pedro Bay;;;25097;;33.7261304;-118.2550705;6484105.30365047;1722810.75544289
157211066;-118.517028557003329;34.744704065463146;US Geological Survey (USGS);Los Angeles Aqueduct;;;24939;;34.7447041;-118.5170285;6406353.01033647;2093794.05612573
157211067;-118.652588755843908;34.806089865680882;US Geological Survey (USGS);Governor Edmund G Brown California Aqueduct;;;24940;;34.8060899;-118.6525887;6365775.76931264;2116370.99489564
157211087;-118.421747857060097;34.707483665503574;US Geological Survey (USGS);Myrick Siphon;;;24967;;34.7074837;-118.4217478;6434918.66974047;2080114.79280189
157211091;-118.382580157229256;34.687484665567702;US Geological Survey (USGS);Willow Siphon;;;24972;;34.6874847;-118.3825801;6446662.32833973;2072789.48953915
157211097;-118.183407856609065;34.584711566460776;US Geological Survey (USGS);Leona Siphon;;;24978;;34.5847116;-118.1834078;6506467.47185256;2035218.96658322
157211100;-118.778703355623108;34.767202665127229;US Geological Survey (USGS);Lower Quail Canal;;;24981;;34.7672027;-118.7787033;6327809.65659672;2102488.47869748
157211105;-118.799259655759471;34.713594164994092;US Geological Survey (USGS);Gorman Creek Siphon;;;24986;;34.7135942;-118.7992596;6321481.17351881;2083027.6176849
157211106;-118.187852357248502;34.591100166405688;US Geological Survey (USGS);Ritter Siphon;;;24987;;34.5911002;-118.1878523;6505134.09394188;2037546.41009106
157211107;-118.791203856349014;34.691095165630507;US Geological Survey (USGS);Side Hill Siphon;;;24988;;34.6910952;-118.7912038;6323837.55791363;2074820.62556873
157211108;-118.725646155913211;34.78720166563798;US Geological Survey (USGS);Governor Edmund G Brown West Branch California Aqueduct;;;24989;;34.7872017;-118.7256461;6343796.08361331;2109647.40598065
157211109;-118.797037356175466;34.701650265252944;US Geological Survey (USGS);Hungry Valley Siphon;;;24990;;34.7016503;-118.7970373;6322114.52625471;2078675.6874124
157211110;-118.329522957169132;34.662763565956908;US Geological Survey (USGS);Johnson Siphon;;;24991;;34.6627636;-118.3295229;6462582.37917672;2063736.29209439
157211114;-118.650921756164053;34.583044665538338;US Geological Survey (USGS);Tailrace Canal;;;24995;;34.5830447;-118.6509217;6365750.51444189;2035196.33441064
157211121;-118.405077356186538;33.987512067049821;US Geological Survey (USGS);Centinela Creek Channel;;;25005;;33.9875121;-118.4050773;6438872.89477164;1818083.18136747
157211126;-118.327296256493071;33.900570467389294;US Geological Survey (USGS);Dominguez Channel;;;25012;;33.9005705;-118.3272962;6462348.78417148;1786357.4885854
157211141;-118.495640656440798;34.291112465893612;US Geological Survey (USGS);Chatsworth Hi-Line Aqueduct;;;25028;;34.2911125;-118.4956406;6411964.01256588;1928690.72458765
157211144;-118.318966556147615;34.182783467030731;US Geological Survey (USGS);Burbank Western Channel;;;25031;;34.1827835;-118.3189665;6465202.41035397;1889051.80156906
157211148;-117.844230357204992;34.47777346627467;US Geological Survey (USGS);Big Rock Siphon;;;25036;;34.4777735;-117.8442303;6608614.85351539;1996287.66419664
157211150;-118.273965556562288;34.240003366207134;US Geological Survey (USGS);Blanchard Canyon Channel;;;25038;;34.2400034;-118.2739655;6478869.18649806;1909834.93880847
157211153;-118.607309655923899;34.511936665505495;US Geological Survey (USGS);Castaic Valley Siphon;;;25042;;34.5119367;-118.6073096;6378720.73128356;2009236.71638247
157211154;-118.43980535603994;34.252780666473711;US Geological Survey (USGS);Pacoima Diversion Channel;;;25043;;34.2527807;-118.4398053;6428767.69811855;1914662.74148881
157211168;-118.255075856767348;34.233336966545963;US Geological Survey (USGS);Dunsmore Canyon Channel;;;25058;;34.233337;-118.2550758;6484572.08913422;1907393.89939922
157211169;-118.243686457058956;34.225559566996225;US Geological Survey (USGS);Eagle Canyon Channel;;;25059;;34.2255596;-118.2436864;6488007.73711856;1904555.03073314
157211173;-118.464523055357631;33.979733467124518;US Geological Survey (USGS);Grand Canal;;;25063;;33.9797335;-118.464523;6420839.22578655;1815330.36666314
157211182;-118.357301856514368;34.231114766067662;US Geological Survey (USGS);La Tuna Canyon Lateral;;;25072;;34.2311148;-118.3573018;6453670.88617297;1906679.32504098
157211185;-118.265631856655176;34.242225466425857;US Geological Survey (USGS);Cooks Canyon Channel;;;25075;;34.2422255;-118.2656318;6481390.02824114;1910636.83812331
157211189;-117.970620156771773;34.001123067440119;US Geological Survey (USGS);Hacienda Channel;;;25080;;34.0011231;-117.9706201;6570575.29573639;1822790.37995832
157211190;-118.226185657098853;34.215004466674408;US Geological Survey (USGS);Halls Canyon Channel;;;25081;;34.2150045;-118.2261856;6493289.30267088;1900701.4843064
157211196;-118.411744255765512;33.995289667239682;US Geological Survey (USGS);Sepulveda Channel;;;25087;;33.9952897;-118.4117442;6436863.45817372;1820921.79904981
157211205;-118.04812175708696;33.949179967662239;US Geological Survey (USGS);Sorensen Avenue Drain;;;25098;;33.94918;-118.0481217;6547075.72757813;1803889.37904648
157211211;-118.011177256339764;34.032232967552538;US Geological Survey (USGS);San Jose Creek Diversion Channel;;;25104;;34.032233;-118.0111772;6558283.80982073;1834110.78546706
157211213;-118.234241456101159;34.215004466573944;US Geological Survey (USGS);Pickens Canyon Channel;;;25107;;34.2150045;-118.2342414;6490853.85675439;1900707.06205115
157211228;-117.996457457315159;34.51777066601602;US Geological Survey (USGS);Little Rock Ditch;;;25125;;34.5177707;-117.9964574;6562737.44559847;2010807.19191606
157211230;-118.004513257191803;34.514715166102519;US Geological Survey (USGS);Little Rock Siphon;;;25127;;34.5147152;-118.0045132;6560310.77361456;2009695.23613472
157211234;-118.032569857432037;34.52777006648963;US Geological Survey (USGS);Cheseboro Siphon;;;25141;;34.5277701;-118.0325698;6551860.60514747;2014447.77813882
157211235;-117.89812085769681;34.478884066179766;US Geological Survey (USGS);Fort Tejon Siphon;;;25144;;34.4788841;-117.8981208;6592373.39518473;1996671.02005723
157211242;-118.012566456617279;34.169727867260455;US Geological Survey (USGS);Mwd Upper Feeder;;;25154;;34.1697279;-118.0125664;6557869.15645055;1884147.81531405
157211243;-118.310078156539234;34.258335866710517;US Geological Survey (USGS);Haines Canyon Channel;;;25155;;34.2583359;-118.3100781;6467975.41629089;1916538.14456214
157211245;-117.689500057077737;34.136397467107564;US Geological Survey (USGS);San Antonio Creek Channel;;;25157;;34.1363975;-117.6895;6655629.79623072;1872163.16408657
157211252;-118.045625756775877;34.5208258659639;US Geological Survey (USGS);Palmdale Ditch;;;25166;;34.5208259;-118.0456257;6547927.14549471;2011922.14998798
157211254;-118.103961057185884;34.535547266217705;US Geological Survey (USGS);Soledad Siphon;;;25168;;34.5355473;-118.103961;6530361.18587606;2017292.68649098
157211299;-118.365357755946022;34.23639236680043;US Geological Survey (USGS);Hansen Heights Channel;;;25221;;34.2363924;-118.3653577;6451242.87003164;1908608.67977805
157201810;-118.489657256377953;34.16618286695396;US Geological Survey (USGS);Sepulveda Dam;Ca;;13563;;34.1661829;-118.4896572;6413549.79023422;1883218.25778998
157201811;-118.473705456468068;34.166808966886876;US Geological Survey (USGS);Sepulveda Dam;;Los Angeles;13564;;34.166809;-118.4737054;6418376.22218239;1883422.9811338
157201812;-118.189239356885068;34.146118467041823;US Geological Survey (USGS);Eagle Rock 6-041 Dam;;Los Angeles;13565;;34.1461185;-118.1892393;6504411.79551771;1875609.58337481
157201813;-118.336190256512126;34.25694706683641;US Geological Survey (USGS);Green Verdugo 6-043 Dam;;Los Angeles;13566;;34.2569471;-118.3361902;6460083.57807197;1916058.10221514
157201814;-118.473771955707406;34.166769666962182;US Geological Survey (USGS);Sepulveda Dam;;Los Angeles;13567;;34.1667697;-118.4737719;6418356.03915189;1883408.77414122
157201815;-118.514250256068053;34.148339266916594;US Geological Survey (USGS);Encino 6-007 Dam;;Los Angeles;13568;;34.1483393;-118.5142502;6406077.28844696;1876761.88126706
157201816;-118.81340595499303;34.098382066040969;US Geological Survey (USGS);Rocky Oaks Dam;;;13569;;34.0983821;-118.8134059;6315418.36379406;1859179.88460697
157201817;-117.772835857348838;34.154729667414287;US Geological Survey (USGS);San Dimas 32-010 Dam;;;13570;;34.1547297;-117.7728358;6630396.77419031;1878767.12331957
157201818;-117.860339056878018;34.206394166813325;US Geological Survey (USGS);San Gabriel Dam;;;13571;;34.2063942;-117.860339;6603897.38066688;1897520.44572097
157201819;-118.019248156767844;34.183994466473663;US Geological Survey (USGS);Big Santa Anita;;Monrovia;13572;;34.1839945;-118.0192481;6555849.02433597;1889340.00899789
157201820;-118.630921655906945;34.22667066673344;US Geological Survey (USGS);Chatsworth 6-004 Dam;;Los Angeles;13573;;34.2266707;-118.6309216;6370956.19497539;1905468.61945714
157201821;-117.880895056906397;34.17333996655595;US Geological Survey (USGS);Morris 35-005 Dam;;;13574;;34.17334;-117.880895;6597696.45015539;1885483.43239348
157201822;-117.992565756972652;34.168339066484549;US Geological Survey (USGS);Sawpit Debris Dam;;Monrovia;13575;;34.1683391;-117.9925657;6563919.1413978;1883642.25136456
157201823;-118.607031755910739;34.519436366117972;US Geological Survey (USGS);Castaic Lake Dam;;;13576;;34.5194364;-118.6070317;6378820.92891781;2011965.4760168
157201824;-118.054303656312754;34.020555566835945;US Geological Survey (USGS);Whittier Narrows Dam;;Pico Rivera;13577;;34.0205556;-118.0543036;6545214.88024998;1829865.40255365
157201825;-118.082846156556357;34.020011967489808;US Geological Survey (USGS);Whittier Narrows Dam;;;13578;;34.020012;-118.0828461;6536565.57471398;1829673.47610022
157201826;-117.808948357752485;34.170006766710067;US Geological Survey (USGS);Big Dalton 32-000 Dam;;Glendora;13579;;34.1700068;-117.8089483;6619460.71502572;1884303.99840064
157201827;-117.987565556812413;34.175005566988787;US Geological Survey (USGS);Sawpit 32-012 Dam;;Monrovia;13580;;34.1750056;-117.9875655;6565431.3608143;1886068.46140714
157201828;-117.972564956627437;34.115841067379094;US Geological Survey (USGS);Santa Fe Dam;;Irwindale;13581;;34.1158411;-117.9725649;6569974.43538955;1864538.31745964
157201829;-118.385455556245205;34.260756166257586;US Geological Survey (USGS);Hansen Dam;;Los Angeles;13582;;34.2607562;-118.3854555;6445202.4437923;1917497.72958523
157201830;-118.175905756400908;34.18528346664727;US Geological Survey (USGS);Devils Gate 32-003 Dam;;Pasadena;13583;;34.1852835;-118.1759057;6508471.1085933;1889855.08933257
157201831;-118.396470355892006;34.33472166668183;US Geological Survey (USGS);Pacoima Dam;;;13584;;34.3347217;-118.3964703;6441980.43678489;1944427.87946498
157201832;-118.077568856568931;34.171672567086937;US Geological Survey (USGS);Sierra Madre Villa Debris Dam;;Pasadena;13585;;34.1716726;-118.0775688;6538207.33717847;1884864.34144007
157201833;-117.881173057679916;34.174728367339313;US Geological Survey (USGS);Morris Dam;;;13586;;34.1747284;-117.881173;6597611.76495731;1885988.59673747
157201834;-118.409248556014305;34.303889666785459;US Geological Survey (USGS);Lopez Dam;;Los Angeles;13587;;34.3038897;-118.4092485;6438077.18179613;1933223.09117906
157201835;-118.115905857503662;34.526658665824762;US Geological Survey (USGS);Harold Reservoir 57-002 Dam;;;13588;;34.5266587;-118.1159058;6526760.13402306;2014061.8501049
157201836;-118.323127656343956;33.772517267681138;US Geological Survey (USGS);Palos Verdes Reservoir 35-004 Dam;;Rolling Hills Estates;13589;;33.7725173;-118.3231276;6463463.97977573;1739751.76618023
157201837;-118.297576856775919;34.185005666797423;US Geological Survey (USGS);Reservoir Number 4 4-006 Dam;;Burbank;13590;;34.1850057;-118.2975768;6471673.86460264;1889840.65727481
157201838;-118.299243656859829;34.195005266867319;US Geological Survey (USGS);Reservoir Number 1 4-004 Dam;;Burbank;13591;;34.1950053;-118.2992436;6471180.60738705;1893481.17295964
157201839;-118.410912655545246;34.095008466940399;US Geological Survey (USGS);Lower Franklin 6-014 Dam;;Los Angeles;13592;;34.0950085;-118.4109126;6437263.8789608;1857210.09195864
157201840;-118.384247256526606;34.576656066083444;US Geological Survey (USGS);Bouquet Canyon 6-031 Dam;;;13593;;34.5766561;-118.3842472;6446006.99992597;2032458.07184257
157201841;-118.265352556074305;34.092232166651002;US Geological Survey (USGS);Silver Lake 6-051 Dam;;Los Angeles;13594;;34.0922322;-118.2653525;6481330.34364922;1856051.50339656
157201842;-117.745334857564615;34.13334166727762;US Geological Survey (USGS);Live Oak Canyon Dam;;;13595;;34.1333417;-117.7453348;6638736.65317981;1871003.60538206
157201843;-118.56758335536415;34.073340966386056;US Geological Survey (USGS);Santa Ynez Canyon 6-047 Dam;;Los Angeles;13596;;34.073341;-118.5675833;6389786.72063448;1849555.87301515
157201844;-118.452580856081184;34.106674366946557;US Geological Survey (USGS);Stone Canyon 6-025 Dam;;Los Angeles;13597;;34.1066744;-118.4525808;6424667.75782764;1861509.67391065
157201845;-118.83592625479794;34.13167256596563;US Geological Survey (USGS);Westlake Reservoir 1073 Dam;;Westlake Village;13598;;34.1316726;-118.8359262;6308701.43300222;1871350.43178815
157201846;-118.249241656575435;34.168339966913713;US Geological Survey (USGS);Diederich Reservoir 5-006 Dam;;Glendale;13599;;34.16834;-118.2492416;6486276.85836247;1883735.96475981
157201847;-118.412352456236675;34.100386266319276;US Geological Survey (USGS);L Franklin No 2;;Los Angeles;13600;;34.1003863;-118.4123524;6436836.00087956;1859168.94269973
157201848;-117.683481557806928;34.157656066998648;US Geological Survey (USGS);San Antonio Dam;;;13601;;34.1576561;-117.6834815;6657426.66862123;1879905.19945548
157201849;-118.764258055960411;34.644985965735415;US Geological Survey (USGS);Pyramid 1-066 Dam;;;13602;;34.644986;-118.764258;6331809.61611646;2057977.93550089
157201850;-118.090624756611263;34.169172766915388;US Geological Survey (USGS);Eaton Wash Dam;;Pasadena;13603;;34.1691728;-118.0906247;6534257.37296556;1883957.92297731
157201851;-118.479251155669402;34.285001566560055;US Geological Survey (USGS);Lower San Fernando 6-015 Dam;;Los Angeles;13604;;34.2850016;-118.4792511;6416903.75629531;1926442.87508073
157201852;-118.331188356049822;34.117786066999365;US Geological Survey (USGS);Mulholland 6-017 Dam;;Los Angeles;13605;;34.1177861;-118.3311883;6461428.14001539;1865410.14183147
157201853;-118.229240156658875;34.078343966658061;US Geological Survey (USGS);Elysian 6-006 Dam;;Los Angeles;13606;;34.078344;-118.2292401;6492252.4402433;1850970.43875556
157201854;-118.115902957080365;34.050010966950929;US Geological Survey (USGS);Garvey 35-006 Dam;;Monterey Park;13607;;34.050011;-118.1159029;6526561.00351581;1840600.60057139
157201855;-118.410913055567562;34.120007566731147;US Geological Survey (USGS);Upper Franklin 6-027 Dam;;Los Angeles;13608;;34.1200076;-118.410913;6437300.94844048;1866307.65512832
157201856;-118.761409055911216;34.773113464940387;US Geological Survey (USGS);Quail;;;13609;;34.7731135;-118.761409;6333019.68554673;2104599.77664022
157201857;-118.277576956854489;34.260002466279438;US Geological Survey (USGS);Haines Canyon Debris Dam;;Los Angeles;13610;;34.2600025;-118.2775769;6477797.80642296;1917115.94097872
157201858;-118.022013656942477;34.485827265972084;US Geological Survey (USGS);Little Rock-Palmdale Dam;;;13611;;34.4858273;-118.0220136;6555036.69033071;1999182.96910156
157201859;-118.187573656691896;34.29333436658262;US Geological Survey (USGS);Big Tujunga Number 1 32-006 Dam;;;13612;;34.2933344;-118.1875736;6505015.76150139;1929183.08547956
157201860;-117.80867035677926;34.090287266905435;US Geological Survey (USGS);Puddingstone 32-009 Dam;;San Dimas;13613;;34.0902873;-117.8086703;6619600.02970771;1855292.81429714
157201861;-118.527585156395887;34.481660366080447;US Geological Survey (USGS);Dry Canyon 6-005 Dam;;;13614;;34.4816604;-118.5275851;6402679.35003288;1998083.05857173
157201862;-118.522584856815442;34.529991565549672;US Geological Survey (USGS);Drinkwater 6-016 Dam;;;13615;;34.5299916;-118.5225848;6404277.6496578;2015663.77898765
157201863;-118.061457157232624;34.172505767058873;US Geological Survey (USGS);Bailey Debris Basin;;Sierra Madre;13616;;34.1725058;-118.0614571;6543080.9842553;1885164.18795323
157201864;-118.270909956509286;34.253336066927503;US Geological Survey (USGS);Blanchard Db;;Los Angeles;13617;;34.2533361;-118.2709099;6479805.76106846;1914684.42976564
157201865;-118.275909456894667;34.185005766369763;US Geological Survey (USGS);Brand Debris Dam;;Glendale;13618;;34.1850058;-118.2759094;6478226.74191681;1889822.00048798
157201866;-118.327578656850392;34.236670166112312;US Geological Survey (USGS);La Tuna Debris Dam;;Los Angeles;13619;;34.2366702;-118.3275786;6462661.69201022;1908670.41784357
157201867;-117.837560456857418;34.156673766902998;US Geological Survey (USGS);Little Dalton Debris Dam;;Glendora;13620;;34.1566738;-117.8375604;6610813.81663714;1879436.66495948
157201868;-118.587584255250448;34.093340366664904;US Geological Survey (USGS);J W Wisda 1-067 Dam;;;13621;;34.0933404;-118.5875842;6383772.37767631;1856868.71337631
157201869;-118.492584956043203;34.303334166241832;US Geological Survey (USGS);Upper San Fernando 6-028 Dam;;Los Angeles;13622;;34.3033342;-118.4925849;6412908.76330106;1933133.8367644
157201870;-118.335910756362296;34.125007967139844;US Geological Survey (USGS);Upper Hollywood 6-029 Dam;;Los Angeles;13623;;34.125008;-118.3359107;6460007.57888013;1868043.05323231
157201871;-118.487584856604741;34.295001166447186;US Geological Survey (USGS);Channel Diversion Dike 6-039 Dam;;Los Angeles;13624;;34.2950012;-118.4875848;6414404.08084847;1930093.97735856
157201872;-118.330911756069753;34.210004566172856;US Geological Survey (USGS);Reservoir Number 5 4-007 Dam;;Burbank;13625;;34.2100046;-118.3309117;6461622.34041439;1898969.6764183
157201873;-118.274242655987806;34.185005766972232;US Geological Survey (USGS);Brand Park 5-000 Dam;;Glendale;13626;;34.1850058;-118.2742426;6478730.83310021;1889820.62122564
157201874;-118.282576256276755;34.17833936665555;US Geological Survey (USGS);10Th And Western 5-004 Dam;;Glendale;13627;;34.1783394;-118.2825762;6476203.67968997;1887401.5876779
157201875;-118.204240056034493;34.171673066434394;US Geological Survey (USGS);Chevy Chase 5-005 Dam;;Glendale;13628;;34.1716731;-118.20424;6499891.90429506;1884918.23175223
157201876;-118.212573656588589;34.155007066730249;US Geological Survey (USGS);Glenoaks 968 Reservoir 5-007 Dam;;Glendale;13629;;34.1550071;-118.2125736;6497358.33816797;1878858.41119473
157201877;-118.427581556923329;34.68665126569995;US Geological Survey (USGS);Fairmont 6-008 Dam;;;13630;;34.6866513;-118.4275815;6433133.17593613;2072540.70919681
157201878;-118.204240056091649;34.175006167132814;US Geological Survey (USGS);Chevy Chase 1290 5-008 Dam;;Glendale;13631;;34.1750062;-118.20424;6499894.36885706;1886131.20504805
157201879;-118.222574256758548;34.188338966318405;US Geological Survey (USGS);East Glorietta 5-009 Dam;;Glendale;13632;;34.188339;-118.2225742;6494359.62172447;1890995.01356189
157201880;-118.630921056188271;34.561933965822142;US Geological Survey (USGS);Elderberry Forebay 6-049 Dam;;;13633;;34.561934;-118.630921;6371722.18852213;2027475.38331714
157201881;-118.48425135607917;34.295001166494323;US Geological Survey (USGS);Los Angeles Reservoir 6-050 Dam;;Los Angeles;13634;;34.2950012;-118.4842513;6415410.89707631;1930089.11024231
157201882;-118.75119985523817;34.104728266444262;US Geological Survey (USGS);Malibou Lake Club 771 Dam;;;13635;;34.1047283;-118.7511998;6334267.64466497;1861342.75331272
157201883;-118.732865855033552;34.098339466653229;US Geological Survey (USGS);Century 001-071 Dam;;;13636;;34.0983395;-118.7328658;6339800.64967506;1858976.84006555
157201884;-118.564253755987465;34.263335966317193;US Geological Survey (USGS);Porter Estate 775 Dam;;Los Angeles;13637;;34.263336;-118.5642537;6391183.15484947;1918691.76919189
157201885;-118.784257755680528;34.150005466249524;US Geological Survey (USGS);Lindero 785 Dam;;Agoura Hills;13638;;34.1500055;-118.7842577;6324389.13587873;1877895.89343473
157201886;-118.48425125646547;34.305000766231309;US Geological Survey (USGS);Yarnell Debris Basin 6-046 Dam;;Los Angeles;13639;;34.3050008;-118.4842512;6415428.45839289;1933728.1072294
157201887;-118.485000056040334;34.291999966602866;US Geological Survey (USGS);L Van Norman Bypass;;Los Angeles;13640;;34.292;-118.485;6415179.49760471;1928998.02121714
157201888;-118.351184955887305;33.353084068136496;US Geological Survey (USGS);Wrigley Reservoir 104-026 Dam;;;13641;;33.3530841;-118.3511849;6454403.40012789;1587131.94445197
157201889;-117.78422505730353;34.106675667214255;US Geological Survey (USGS);Live Oak Reservoir 35-013 Dam;;La Verne;13642;;34.1066757;-117.784225;6626988.62254205;1861271.83547556
157201890;-118.044233656176829;33.99667906684342;US Geological Survey (USGS);Whittier Reservoir Number 4 18-002 Dam;;Whittier;13643;;33.9966791;-118.0442336;6548262.53721239;1821174.76442315
157201891;-117.964787157427594;34.245003167067814;US Geological Survey (USGS);Cogswell Dam;;;13644;;34.2450032;-117.9647871;6572312.16529414;1911543.48558822
157201892;-117.780891657831006;34.113342066938607;US Geological Survey (USGS);Weymouth Memorial Reservoir 35-011 Dam;;La Verne;13645;;34.1133421;-117.7808916;6627992.40203056;1863700.03960864
157201893;-118.021733457104631;34.171394566887855;US Geological Survey (USGS);Santa Anita Debris Basin;;Arcadia;13646;;34.1713946;-118.0217334;6555096.39099872;1884754.83050422
157201894;-117.832560256863644;34.155007167426561;US Geological Survey (USGS);Big Dalton Debris Dam;;Glendora;13647;;34.1550072;-117.8325602;6612327.55573563;1878832.6422174
157201895;-118.304243956818738;34.200005066675352;US Geological Survey (USGS);Stough Debris Dam;;Burbank;13648;;34.2000051;-118.3042439;6469674.0542978;1895305.2211488
157201896;-118.295000056543074;34.196999966752905;US Geological Survey (USGS);Lower Sunset Debris Basin;;Burbank;13649;;34.197;-118.295;6472465.97686355;1894203.28404823
157201897;-118.445916555857494;34.329999766657821;US Geological Survey (USGS);Wilson Debris Dam;;Los Angeles;13650;;34.3299998;-118.4459165;6427045.6592398;1942772.05633307
157201898;-118.458416955984234;34.326110966300391;US Geological Survey (USGS);Schoolhouse Debris Dam;;Los Angeles;13651;;34.326111;-118.4584169;6423265.29081631;1941373.8399694
157201899;-118.075902057298265;34.161672967233898;US Geological Survey (USGS);Morris S Jones 19-003 Dam;;Pasadena;13652;;34.161673;-118.075902;6538708.76235671;1881224.92155357
157201900;-118.042845256668159;34.176116666861134;US Geological Survey (USGS);Sierra Madre Debris Basin Dam;;Sierra Madre;13653;;34.1761167;-118.0428452;6548711.21052764;1886475.33920231
157201901;-117.711445157115065;34.140008267418665;US Geological Survey (USGS);Thompson Creek Dam;;Claremont;13654;;34.1400083;-117.7114451;6648985.30230188;1873457.40624873
157201902;-117.782836156893723;34.130563766978057;US Geological Survey (USGS);Puddingstone Diversion Dam;;La Verne;13655;;34.1305638;-117.7828361;6627390.28053139;1869966.04282464
157201903;-118.122570657053828;34.198338266842356;US Geological Survey (USGS);Rubio Wash Debris 32-021 Dam;;;13656;;34.1983383;-118.1225706;6524607.04318489;1894582.01590231
157201904;-118.164237856971084;34.061677566539799;US Geological Survey (USGS);Laguna Regulating Basin 32-022 Dam;;Monterey Park;13657;;34.0616776;-118.1642378;6511926.3359348;1844866.69899456
157201905;-118.455914456259407;34.118340566755649;US Geological Survey (USGS);Upper Stone Canyon 6-044 Dam;;Los Angeles;13658;;34.1183406;-118.4559144;6423677.89333755;1865759.73758897
157201906;-118.445077655684941;33.355306467920784;US Geological Survey (USGS);Thompson Dam;;;13659;;33.3553065;-118.4450776;6425728.28851497;1588054.38847323
157201907;-118.824259154818449;34.135005766469277;US Geological Survey (USGS);Potrero 786 Dam;;Westlake Village;13660;;34.1350058;-118.8242591;6312242.01056673;1872534.24667773
157201908;-118.394803656484214;34.249447366398826;US Geological Survey (USGS);Hansen Recreational Lake;;Los Angeles;13661;;34.2494474;-118.3948036;6442361.70472313;1913393.24632439
157201909;-118.242000056860419;34.602999965569701;US Geological Survey (USGS);Amargosa Creek;;;13662;;34.603;-118.242;6488848.19967647;2041911.89184564
157201910;-118.500914355637335;34.05000886706636;US Geological Survey (USGS);Riviera Reservoir 1043 Dam;;Los Angeles;13663;;34.0500089;-118.5009143;6409933.87915897;1840957.67006722
157201911;-118.337572655584282;33.788350067676411;US Geological Survey (USGS);10 Mg Walteria 1049 Dam;;Torrance;13664;;33.7883501;-118.3375726;6459093.15912105;1745528.16538855
157201912;-118.400912356465071;34.093341866388663;US Geological Survey (USGS);Greystone Reservoir 1061 Dam;;Beverly Hills;13665;;34.0933419;-118.4009123;6440289.09896022;1856591.36320923
157201913;-117.820000057030271;34.140999966895514;US Geological Survey (USGS);Morgan Debris Basin;;Glendora;13666;;34.141;-117.82;6616136.64260563;1873741.74163806
157201914;-118.435000056664521;34.704999965475309;US Geological Survey (USGS);Fairmont No 2;;;13667;;34.705;-118.435;6430931.98020731;2079227.87758097
157201915;-118.337000056176578;33.787999967072977;US Geological Survey (USGS);18 Mg Walteria;;Torrance;13668;;33.788;-118.337;6459266.72537497;1745400.17089389
157211212;-118.019511156619146;34.18361636654523;US Geological Survey (USGS);Santa Anita Dam;;;25105;;34.1836164;-118.0195111;6555769.45723788;1889202.42692398
157211227;-118.188407056317558;34.293334366686345;US Geological Survey (USGS);Big Tujunga Dam;;;25124;;34.2933344;-118.188407;6504764.04251663;1929183.55627914
157211259;-118.295910255963946;34.195005266492764;US Geological Survey (USGS);Sunset Debris Dam;;;25176;;34.1950053;-118.2959102;6472188.60766764;1893478.18871364
157211260;-118.264243056452486;34.270002066508411;US Geological Survey (USGS);Bluegum Canyon Debris Dam;;;25177;;34.2700021;-118.264243;6481836.32885772;1920744.10662265
157211261;-118.055901357427288;34.173339067172492;US Geological Survey (USGS);Carter Debris Dam;;;25178;;34.1733391;-118.0559013;6544761.65280998;1885466.45998648
157211262;-118.272576156573294;34.203338266710645;US Geological Survey (USGS);Childs Canyon Debris Dam;;;25179;;34.2033383;-118.2725761;6479252.92424764;1896490.75388272
157211263;-118.274242856250964;34.205004867023071;US Geological Survey (USGS);Elmwood Debris Dam;;;25180;;34.2050049;-118.2742428;6478750.62899239;1897098.62832314
157211264;-118.269242656767958;34.200005166479357;US Geological Survey (USGS);Hillcrest Canyon Debris Dam;;;25181;;34.2000052;-118.2692426;6480257.60563722;1895275.06635347
157211265;-118.209240656667973;34.225003966691865;US Geological Survey (USGS);Winery Canyon Debris Dam;;;25182;;34.225004;-118.2092406;6498419.72679321;1904329.37960964
157211266;-118.242575156972848;34.206671566570364;US Geological Survey (USGS);Verdugo Wash Debris Basin Dam;;;25183;;34.2066716;-118.2425751;6488327.07735914;1897680.55366848
157211267;-118.060901557089991;34.171672466637396;US Geological Survey (USGS);Bailey Debris Dam;;;25184;;34.1716725;-118.0609015;6543248.85662296;1884860.83258881
157211268;-118.022566857224675;34.170005766884486;US Geological Survey (USGS);Santa Anita Debris Dam;;;25186;;34.1700058;-118.0225668;6554844.19005956;1884249.47652806
157211273;-118.270908556087363;34.110009167029084;US Geological Survey (USGS);Rowena 6-018 Dam;;;25191;;34.1100092;-118.2709085;6479665.60977396;1862525.35035698
157211274;-118.445913355816018;34.075008766634134;US Geological Survey (USGS);Sawtelle Pressure Break Reservoir 6-021 Dam;;;25192;;34.0750088;-118.4459133;6426634.96977247;1849977.05754022
157211276;-118.48591805623002;34.291667966541787;US Geological Survey (USGS);Lower Van Norman Bypass 6-048 Dam;;;25194;;34.291668;-118.485918;6414901.64022081;1928878.54081306
157211277;-117.920899657576257;34.519993466114464;US Geological Survey (USGS);Pearblossom Spilling Basin 1-061 Dam;;;25195;;34.5199935;-117.9208996;6585496.83413471;2011625.47800915
157211278;-118.037566756664674;33.99167906714856;US Geological Survey (USGS);Greenleaf 18 Dam;;;25196;;33.9916791;-118.0375667;6550282.68310647;1819354.33925822
157211280;-117.782558457481883;34.131674867533164;US Geological Survey (USGS);Puddingstone Diversion 32-016 Dam;;;25198;;34.1316749;-117.7825584;6627473.4453913;1870370.57351165
157211281;-118.180905556635764;34.118341867264192;US Geological Survey (USGS);Highland 6-012 Dam;;;25199;;34.1183419;-118.1809055;6506915.17600964;1865496.54126498
157211303;-118.188961156226725;34.076677166587395;US Geological Survey (USGS);Ascot 6-000 Dam;;;25225;;34.0766772;-118.1889611;6504448.46571997;1850338.48693548
157211518;-118.501190955190722;33.200031568524579;US Geological Survey (USGS);Santa Catalina Basin;;;25446;;33.2000316;-118.5011909;6408307.6986843;1531620.96492298
157211590;-118.587864356612215;34.594988565978866;US Geological Survey (USGS);Necktie Basin;;;25519;;34.5949886;-118.5878643;6384755.2457893;2039426.00311664
157211593;-118.505639556143407;34.672762965248801;US Geological Survey (USGS);The Potholes;;;25522;;34.672763;-118.5056395;6409642.57757622;2067595.32833956
157211717;-118.447861156387816;34.256391666283641;US Geological Survey (USGS);Pacoima Spreading Grounds;;;25647;;34.2563917;-118.4478611;6426339.22594139;1915987.58562389
157211762;-118.446194356417223;34.330555265885273;US Geological Survey (USGS);Wilson Debris Basin;;;25694;;34.3305553;-118.4461943;6426962.68762097;1942974.58315898
157211867;-118.504528555589715;34.183616066564042;US Geological Survey (USGS);Sepulveda Flood Control Basin;;;25806;;34.1836161;-118.5045285;6409083.1262673;1889584.68206498
157211870;-118.478695656618854;34.284723766032066;US Geological Survey (USGS);Lower Retention Basin;;;25810;;34.2847238;-118.4786956;6417071.07223363;1926340.97994331
157211887;-118.485362455969849;34.304167466185845;US Geological Survey (USGS);Yarnell Debris Basin;;;25829;;34.3041675;-118.4853624;6415091.41904072;1933426.47594289
157211935;-117.852285457140582;34.42027546622424;US Geological Survey (USGS);Devils Punchbowl;;;25877;;34.4202755;-117.8522854;6606218.02956888;1975359.27987239
157212333;-117.83561705719741;34.323890167159249;US Geological Survey (USGS);Yerba Santa Amphitheater;;;26276;;34.3238902;-117.835617;6611302.23954481;1940290.63708331
157212344;-117.936732957855966;34.462495466554046;US Geological Survey (USGS);Juniper Bowl;;;26287;;34.4624955;-117.9367329;6580740.72127163;1990697.29283148
157212401;-118.277021256830523;34.260835766533638;US Geological Survey (USGS);Haines Canyon Debris Basin;;;26345;;34.2608358;-118.2770212;6477966.55182038;1917418.72974323
157212402;-118.303688356378089;34.200560566756792;US Geological Survey (USGS);Stough Debris Basin;;;26346;;34.2005606;-118.3036883;6469842.66518106;1895506.8687114
157212403;-118.296188056307813;34.196394067010026;US Geological Survey (USGS);Sunset Debris Basin;;;26347;;34.1963941;-118.296188;6472106.09175655;1893983.84354223
157212404;-117.967842556936347;34.156395267230494;US Geological Survey (USGS);Bradbury Debris Basin;;;26348;;34.1563953;-117.9678425;6571399.09789455;1879297.1590049
157212405;-118.253131356101775;34.248058566684286;US Geological Survey (USGS);Dunsmore Debris Basin;;;26349;;34.2480586;-118.2531313;6485173.3166063;1912749.85358231
157212406;-118.056179156690703;34.174450066974366;US Geological Survey (USGS);Auburn Debris Basin;;;26350;;34.1744501;-118.0561791;6544677.85179646;1885870.81974205
157212407;-118.050345556514401;34.174172367142518;US Geological Survey (USGS);Carter Debris Basin;;;26351;;34.1741724;-118.0503455;6546442.28822821;1885768.82486731
157212408;-118.032844956616046;34.172783467039721;US Geological Survey (USGS);Lannan Debris Basin;;;26352;;34.1727835;-118.0328449;6551735.54142122;1885261.18874347
157212409;-117.998677057194541;34.164450266605748;US Geological Survey (USGS);Ruby Canyon Debris Basin;;;26353;;34.1644503;-117.998677;6562070.54174855;1882226.96580932
157212410;-117.992010157470986;34.169450166522942;US Geological Survey (USGS);Sawpit Debris Basin;;;26354;;34.1694502;-117.9920101;6564087.17354205;1884046.61374481
157212411;-118.042289757103461;34.176949966878468;US Geological Survey (USGS);Sierra Madre Debris Basin;;;26355;;34.17695;-118.0422897;6548879.35651681;1886778.52101064
157212418;-118.242573756719452;34.05001206687642;US Geological Survey (USGS);Los Angeles Basin;;;26362;;34.0500121;-118.2425737;6488189.92048122;1840669.42097181
157212465;-118.077291057056868;34.171672566438339;US Geological Survey (USGS);Sierra Madre Villa Debris Basin;;;26409;;34.1716726;-118.077291;6538291.3658818;1884864.27647956
157212505;-118.398685855739814;33.849736867359837;US Geological Survey (USGS);Basin One;;;26456;;33.8497369;-118.3986858;6440611.57206856;1767936.28527039
157212506;-118.396463556116515;33.84695916750416;US Geological Survey (USGS);Basin Two;;;26457;;33.8469592;-118.3964635;6441282.37059572;1766922.74891165
157211070;-118.574808556742241;34.79942366537589;US Geological Survey (USGS);Holiday Lake;;;24946;;34.7994237;-118.5748085;6389109.74036114;2113802.40521656
157211071;-118.445637656557125;34.675818365908128;US Geological Survey (USGS);Hughes Lake;;;24947;;34.6758184;-118.4456376;6427687.8095303;2068621.9040423
157211081;-118.402580856470564;34.665818865481555;US Geological Survey (USGS);Elizabeth Lake;;;24961;;34.6658189;-118.4025808;6440618.33977155;2064928.19850323
157211083;-118.567030056404988;34.730815765455155;US Geological Survey (USGS);Tweedy Lake;;;24963;;34.7308158;-118.56703;6391304.01189122;2088820.71666297
157211086;-118.432303956853801;34.672762965850346;US Geological Survey (USGS);Munz Lakes;;;24966;;34.672763;-118.4323039;6431691.82580046;2067492.4558419
157211104;-118.630642956219205;34.743037365750659;US Geological Survey (USGS);Gookins Dry Lake;;;24985;;34.7430374;-118.6306429;6372219.41948305;2093382.34205414
157211113;-118.546751756280258;34.708872365369437;US Geological Survey (USGS);Hidden Lake;;;24994;;34.7088724;-118.5467517;6397353.20451722;2080801.1654449
157211117;-118.459244955632784;33.971122567230736;US Geological Survey (USGS);Ballona Lagoon;;;25001;;33.9711226;-118.4592449;6422425.07792981;1812189.35818139
157211124;-118.452300256244328;33.961122866655792;US Geological Survey (USGS);Del Rey Lagoon;;;25010;;33.9611229;-118.4523002;6424514.35491922;1808540.74277523
157211132;-117.779227557808099;34.414165166223064;US Geological Survey (USGS);Caldwell Lake;;;25018;;34.4141652;-117.7792275;6628255.65511297;1973176.0086484
157211138;-118.059512156523169;34.033622267483729;US Geological Survey (USGS);Legg Lake;;;25025;;34.0336223;-118.0595121;6543639.38012014;1834621.52788389
157211151;-118.148678756589959;33.834738467486034;US Geological Survey (USGS);Bouton Lake;;;25039;;33.8347385;-118.1486787;6516516.68403755;1762271.30119357
157211158;-117.847006257804651;34.319445766506966;US Geological Survey (USGS);Crystal Lake;;;25047;;34.3194458;-117.8470062;6607865.97968505;1938667.80929223
157211162;-118.571198356057153;34.268613566638329;US Geological Survey (USGS);Monteria Lake;;;25051;;34.2686136;-118.5711983;6389095.80600581;1920624.2043034
157211167;-118.133399256125273;33.770850567433655;US Geological Survey (USGS);Colorado Lagoon;;;25057;;33.7708506;-118.1333992;6521126.20270564;1739014.26273398
157211170;-118.390908655456286;33.400305368135442;US Geological Survey (USGS);Echo Lake;;;25060;;33.4003054;-118.3909086;6442336.97216105;1604363.09568514
157211194;-118.3742472560007;34.263057966306754;US Geological Survey (USGS);Redwing Lake;;;25085;;34.263058;-118.3742472;6448592.20735396;1918322.5927649
157211200;-118.38008085638883;34.262780266369418;US Geological Survey (USGS);Middle Lake;;;25092;;34.2627803;-118.3800808;6446829.22170672;1918228.14708765
157211208;-118.55147115570891;34.043619667035607;US Geological Survey (USGS);Santa Ynez Lake;;;25101;;34.0436197;-118.5514711;6394606.65489222;1838712.71950464
157211250;-117.726169857962631;34.392499466483144;US Geological Survey (USGS);Jackson Lake;;;25164;;34.3924995;-117.7261698;6644279.38487647;1965330.82519181
157211271;-118.293405055953841;33.787239667573566;US Geological Survey (USGS);Harbor Lake;;;25189;;33.7872397;-118.293405;6472513.01482722;1745081.93793456
157211302;-118.348967056750581;34.146951366931312;US Geological Survey (USGS);Toluca Lake;;;25224;;34.1469514;-118.348967;6456083.85280372;1876042.07299539
157211304;-118.680918655801406;34.03278556673957;US Geological Survey (USGS);Malibu Lagoon;;;25226;;34.0327856;-118.6809186;6355365.42431971;1835010.46378581
157248919;-118.385517652991567;33.889405590144207;City of Manhattan Beach;Polliwog Lake;1601 Manhattan Beach Blvd;Manhattan Beach;62370;90266;33.88940562;-118.3855176;6444665.37268797;1782357.00150764
157209952;-118.316183655647933;33.302807368566654;US Geological Survey (USGS);Catalina Island East End Light;;;23647;;33.3028074;-118.3161836;6465036.7033363;1568797.78853506
157210136;-118.606194355351832;33.478358567961536;US Geological Survey (USGS);Catalina Island West End Light;;;23843;;33.4783586;-118.6061943;6376788.29223505;1633096.07069939
157210154;-118.595914954514257;33.030311168685699;US Geological Survey (USGS);North Head Lighthouse;;;23867;;33.0303112;-118.5959149;6378956.57037881;1470004.68264398
157210191;-118.410628855298256;33.741961067702817;US Geological Survey (USGS);Point Vicente Lighthouse;;;23912;;33.7419611;-118.4106288;6436824.93692531;1728728.62287223
157210411;-118.293682455907572;33.70529716730325;US Geological Survey (USGS);Point Fermin Lighthouse;;;24186;;33.7052972;-118.2936824;6472341.59325406;1715260.97854772
157248660;-118.25173705581885;33.708353067909535;US Geological Survey (USGS);Angels Gate Lighthouse;;;24279;;33.7083531;-118.251737;6485102.79148489;1716338.50132707
157253343;-118.284602221216275;33.711221273369958;LA City Department Recreation and Parks;Cabrillo Beach and Marine Aquarium;;;;;33.71122131;-118.28460217;6475109.60543455;1717408.99688947
157253344;-118.284602221216275;33.711221273369958;LA City Department Recreation and Parks;Cabrillo Beach and Marine Aquarium;;;;;33.71122131;-118.28460217;6475109.60543455;1717408.99688947
157253345;-118.284602221216275;33.711221273369958;LA City Department Recreation and Parks;Cabrillo Beach and Marine Aquarium;;Los Angeles;;;33.71122131;-118.28460217;6475109.60543455;1717408.99688947
157253346;-118.284602221216275;33.711221273369958;LA City Department Recreation and Parks;Cabrillo Beach and Marine Aquarium;;Los Angeles;;;33.71122131;-118.28460217;6475109.60543455;1717408.99688947
157253347;-118.284602221216275;33.711221273369958;LA City Department Recreation and Parks;Cabrillo Beach and Marine Aquarium;3800 Stephen M. White Drive;;;;33.71122131;-118.28460217;6475109.60543455;1717408.99688947
157253348;-118.284602221216275;33.711221273369958;LA City Department Recreation and Parks;Cabrillo Beach and Marine Aquarium;3800 Stephen M. White Drive;;;;33.71122131;-118.28460217;6475109.60543455;1717408.99688947
157253349;-118.284602221216275;33.711221273369958;LA City Department Recreation and Parks;Cabrillo Beach and Marine Aquarium;3800 Stephen M. White Drive;Los Angeles;;;33.71122131;-118.28460217;6475109.60543455;1717408.99688947
157253350;-118.284602221216275;33.711221273369958;LA City Department Recreation and Parks;Cabrillo Beach and Marine Aquarium;3800 Stephen M. White Drive;Los Angeles;;;33.71122131;-118.28460217;6475109.60543455;1717408.99688947
157210082;-118.719535155909682;34.810256165244361;US Geological Survey (USGS);Oso Pumping Plant;;;23781;;34.8102562;-118.7195351;6345690.93185772;2118024.39119515
157210341;-118.348611156189932;34.186111066946921;US Geological Survey (USGS);City Of Burbank Valley Pumping Plant;;;24101;;34.1861111;-118.3486111;6456240.96075723;1890292.54022931
157210342;-118.353333356616574;34.180833266616254;US Geological Survey (USGS);Jefferson Avenue Pumping Station;;;24102;;34.1808333;-118.3533333;6454806.09486055;1888376.85147539
157210695;-118.239444456806112;34.158888866609502;US Geological Survey (USGS);Verdugo Metropolitan Pumping Station;;;24525;;34.1588889;-118.2394444;6489232.22942021;1880289.34337223
157210700;-118.218888956961706;34.123333266650143;US Geological Survey (USGS);York Boulevard Puming Station;;;24530;;34.1233333;-118.2188889;6495422.61074021;1867335.8620614
157210701;-118.181388956083097;34.118333266958949;US Geological Survey (USGS);Garvanza Pumping Station;;;24531;;34.1183333;-118.1813889;6506768.85871696;1865493.67512898
157211023;-117.920621857356508;34.510549466288062;US Geological Survey (USGS);Pearblossom Pumping Plant;;;24891;;34.5105495;-117.9206218;6585583.22700655;2008188.65450223
157211082;-118.427303656628709;34.705261565687969;US Geological Survey (USGS);Fairmont Reservoir;;;24962;;34.7052616;-118.4273036;6433245.50773247;2079313.15956265
157211089;-118.115072357421155;34.791647865790246;US Geological Survey (USGS);Piute Ponds;;;24970;;34.7916479;-118.1150723;6527121.57686973;2110498.88885772
157211090;-118.630365656108978;34.56387886552757;US Geological Survey (USGS);Elderberry Forebay;;;24971;;34.5638789;-118.6303656;6371893.83647281;2028182.11779606
157211093;-118.171184757211677;34.718595065448078;US Geological Survey (USGS);Pond Two;;;24974;;34.7185951;-118.1711847;6510229.40461738;2083936.48168081
157211094;-118.369524656368384;34.584989066214362;US Geological Survey (USGS);Bouquet Reservoir;;;24975;;34.5849891;-118.3695246;6450449.81879622;2035474.02742481
157211098;-118.764258355673377;34.644152865330973;US Geological Survey (USGS);Pyramid Lake;;;24979;;34.6441529;-118.7642583;6331807.22078006;2057674.75598915
157211101;-118.760091556337244;34.772480165289565;US Geological Survey (USGS);Quail Lake;;;24982;;34.7724802;-118.7600915;6333413.57944398;2104366.30860323
157211102;-118.746202155961583;34.772480164946153;US Geological Survey (USGS);Quail Lake;;;24983;;34.7724802;-118.7462021;6337584.51204696;2104335.05636914
157211111;-118.499528056416011;34.747481765480316;US Geological Survey (USGS);Kings Canyon Percolation Basin;;;24992;;34.7474818;-118.499528;6411615.20617689;2094778.35927522
157211115;-118.630921256470344;34.561934365963687;US Geological Survey (USGS);Elderberry Lake;;;24998;;34.5619344;-118.6309212;6371722.12913905;2027475.52931423
157211120;-118.393686655674585;33.377528067850491;US Geological Survey (USGS);Cape Canyon Reservoir;;;25004;;33.3775281;-118.3936866;6441456.46342339;1596076.55090655
157211122;-118.450355255211974;33.426138168008343;US Geological Survey (USGS);Deep Tank Reservoir;;;25007;;33.4261382;-118.4503552;6424231.83908005;1613840.86872432
157211127;-118.410912655902038;34.094730666587367;US Geological Survey (USGS);Franklin Canyon Reservoir;;;25013;;34.0947307;-118.4109126;6437263.4655758;1857108.99603222
157211128;-118.188961156226725;34.076677166587395;US Geological Survey (USGS);Ascot Reservoir;;;25014;;34.0766772;-118.1889611;6504448.46571997;1850338.48693548
157211131;-118.610363855683929;34.151116766251278;US Geological Survey (USGS);Girard Reservoir;;;25017;;34.1511168;-118.6103638;6377003.34462647;1877935.32413015
157211134;-118.471745054714745;33.411971767953162;US Geological Survey (USGS);Lower Buffalo Corral Reservoir;;;25020;;33.4119718;-118.471745;6417679.99227564;1608714.96854307
157211135;-118.175905756400908;34.18528346664727;US Geological Survey (USGS);Devils Gate Reservoir;;;25021;;34.1852835;-118.1759057;6508471.1085933;1889855.08933257
157211136;-118.114791756602813;34.047788867097744;US Geological Survey (USGS);Garvey Reservoir;;;25023;;34.0477889;-118.1147917;6526896.68493105;1839791.54936798
157211137;-118.628977155618074;34.221392966133209;US Geological Survey (USGS);Lees Lake;;;25024;;34.221393;-118.6289771;6371531.95005748;1903544.32278082
157211143;-118.420631954807618;33.405305267676361;US Geological Survey (USGS);Buffalo Springs Reservoirs;;;25030;;33.4053053;-118.4206319;6433270.95321964;1606219.44170998
157211145;-118.621754856147575;34.232503765877375;US Geological Survey (USGS);Chatsworth Reservoir;;;25033;;34.2325038;-118.6217548;6373740.21762255;1907574.08309397
157211149;-118.461744554679512;33.433915767549486;US Geological Survey (USGS);Big Springs Reservoir;;;25037;;33.4339158;-118.4617445;6420769.10256723;1616687.27838582
157211155;-118.396470355892006;34.33472166668183;US Geological Survey (USGS);Pacoima Reservoir;;;25044;;34.3347217;-118.3964703;6441980.43678489;1944427.87946498
157211156;-118.323127656343956;33.772517267681138;US Geological Survey (USGS);Palos Verdes Reservoir;;;25045;;33.7725173;-118.3231276;6463463.97977573;1739751.76618023
157211157;-118.327297155822208;33.955291766588019;US Geological Survey (USGS);Morningside Park Reservoir;;;25046;;33.9552918;-118.3272971;6462413.35392421;1806271.69514798
157211159;-118.265352556074305;34.092232166651002;US Geological Survey (USGS);Silver Lake Reservoir;;;25048;;34.0922322;-118.2653525;6481330.34364922;1856051.50339656
157211164;-118.364241055087092;33.348917568134603;US Geological Survey (USGS);Patrick Reservoir;;;25054;;33.3489176;-118.364241;6450410.02917764;1585629.71189214
157211171;-118.189239356885068;34.146118467041823;US Geological Survey (USGS);Eagle Rock Reservoir;;;25061;;34.1461185;-118.1892393;6504411.79551771;1875609.58337481
157211174;-118.336190256512126;34.25694706683641;US Geological Survey (USGS);Green Verdugo Reservoir;;;25064;;34.2569471;-118.3361902;6460083.57807197;1916058.10221514
157211175;-118.383136456352261;34.268891066259485;US Geological Survey (USGS);Hansen Flood Control Basin;;;25065;;34.2688911;-118.3831364;6445914.45549163;1920455.46743615
157211176;-118.368691556470949;34.268891066833504;US Geological Survey (USGS);Hansen Flood Control Basin;;;25066;;34.2688911;-118.3686915;6450278.6304903;1920439.14660265
157211177;-118.385358756808358;34.260558066847466;US Geological Survey (USGS);Hansen Lake;;;25067;;34.2605581;-118.3853587;6445231.41584723;1917425.52598947
157211178;-118.361463255328005;33.351695267993399;US Geological Survey (USGS);Haypress Reservoir;;;25068;;33.3516953;-118.3614632;6451262.1619878;1586637.61079498
157211179;-118.204794856833416;34.058622466941891;US Geological Survey (USGS);Hazard Reservoir;;;25069;;34.0586225;-118.2047948;6499640.26897155;1843777.44001822
157211180;-118.778145554871969;34.11278376626796;US Geological Survey (USGS);Lake Enchanto;;;25070;;34.1127838;-118.7781455;6326133.51526397;1864336.26504223
157211184;-117.964509356711559;34.244447567222608;US Geological Survey (USGS);Cogswell Reservoir;;;25074;;34.2444476;-117.9645093;6572396.19202897;1911341.32227865
157211186;-118.522584856815442;34.529991565549672;US Geological Survey (USGS);Drinkwater Reservoir;;;25077;;34.5299916;-118.5225848;6404277.6496578;2015663.77898765
157211187;-118.513694756276777;34.148339266431485;US Geological Survey (USGS);Encino Reservoir;;;25078;;34.1483393;-118.5136947;6406245.36061738;1876761.02168873
157211191;-118.468689354992691;33.426415967682374;US Geological Survey (USGS);Upper Buffalo Corral Reservoir;;;25082;;33.426416;-118.4686893;6418637.18622738;1613967.5518699
157211197;-118.410357456228027;34.119451966405443;US Geological Survey (USGS);Upper Franklin Canyon Reservoir;;;25088;;34.119452;-118.4103574;6437468.28307955;1866104.77659707
157211198;-118.454803355674912;34.119173866834608;US Geological Survey (USGS);Upper Stone Canyon Reservoir;;;25089;;34.1191739;-118.4548033;6424015.56195356;1866061.46434772
157211199;-118.491473856398727;34.303334166609005;US Geological Survey (USGS);Upper Van Norman Lake;;;25090;;34.3033342;-118.4914738;6413244.3147953;1933132.19437923
157211201;-118.351184955887305;33.353084068136496;US Geological Survey (USGS);Wrigley Reservoir;;;25093;;33.3530841;-118.3511849;6454403.40012789;1587131.94445197
157211203;-118.271741856568326;34.110564766953054;US Geological Survey (USGS);Powena Reservoir;;;25095;;34.1105648;-118.2717418;6479413.91473931;1862728.22363889
157211204;-117.961453557567779;34.126118566818526;US Geological Survey (USGS);Santa Fe Flood Control Basin;;;25096;;34.1261186;-117.9614535;6573336.22000456;1868279.59344165
157211209;-117.80867035677926;34.090287266905435;US Geological Survey (USGS);Puddingstone Reservoir;;;25102;;34.0902873;-117.8086703;6619600.02970771;1855292.81429714
157211214;-118.61536535582691;34.49971506551374;US Geological Survey (USGS);Castaic Lagoon;;;25108;;34.4997151;-118.6153653;6376266.78540406;2004803.83909339
157211215;-118.45313635562124;34.10584096664482;US Geological Survey (USGS);Stone Canyon Reservoir;;;25110;;34.105841;-118.4531363;6424498.23421656;1861207.14466006
157211218;-118.481745355417431;33.438360168168849;US Geological Survey (USGS);Summit Reservoir;;;25113;;33.4383602;-118.4817453;6414673.6603618;1618333.44766565
157211219;-118.732865855033552;34.098339466653229;US Geological Survey (USGS);Contury Reservoir;;;25114;;34.0983395;-118.7328658;6339800.64967506;1858976.84006555
157211220;-118.750922054941796;34.105283766616949;US Geological Survey (USGS);Malibu Lake;;;25115;;34.1052838;-118.750922;6334353.24882448;1861544.27620365
157211221;-118.698697555509042;34.064729166281779;US Geological Survey (USGS);Malibu Reservoir;;;25116;;34.0647292;-118.6986975;6350059.65802839;1846672.04840223
157211222;-118.188407056317558;34.293334366686345;US Geological Survey (USGS);Big Tujunga Reservoir;;;25118;;34.2933344;-118.188407;6504764.04251663;1929183.55627914
157211224;-117.808948357752485;34.170006766710067;US Geological Survey (USGS);Big Dalton Reservoir;;;25120;;34.1700068;-117.8089483;6619460.71502572;1884303.99840064
157211225;-118.527585156395887;34.481660366080447;US Geological Survey (USGS);Dry Canyon Reservoir;;;25122;;34.4816604;-118.5275851;6402679.35003288;1998083.05857173
157211229;-118.022013656942477;34.485827265972084;US Geological Survey (USGS);Little Rock Reservoir;;;25126;;34.4858273;-118.0220136;6555036.69033071;1999182.96910156
157211233;-118.112572457583397;34.55054666602026;US Geological Survey (USGS);Una Lake;;;25137;;34.5505467;-118.1125724;6527773.87084071;2022754.12044998
157211239;-117.772835857348838;34.154729667414287;US Geological Survey (USGS);San Dimas Reservoir;;;25149;;34.1547297;-117.7728358;6630396.77419031;1878767.12331957
157211240;-117.860339056878018;34.206394166813325;US Geological Survey (USGS);San Gabriel Reservoir;;;25150;;34.2063942;-117.860339;6603897.38066688;1897520.44572097
157211244;-117.866728057430464;34.18833906659183;US Geological Survey (USGS);Morris Reservoir;;;25156;;34.1883391;-117.866728;6601974.35432921;1890947.25151831
157211248;-117.692279458363288;34.366111567237652;US Geological Survey (USGS);Pacific Crest Reservoir;;;25161;;34.3661116;-117.6922794;6654532.80564256;1955757.3722259
157211251;-118.393414655972819;34.341665866581934;US Geological Survey (USGS);Pacoima Reservoir;;;25165;;34.3416659;-118.3934146;6442912.80401464;1946951.36162272
157211253;-118.126183957476954;34.553879766450393;US Geological Survey (USGS);Lake Palmdale;;;25167;;34.5538798;-118.1261839;6523676.86427097;2023971.98382789
157211255;-118.154515956925081;34.161117667113167;US Geological Survey (USGS);Sunset Reservoir;;;25169;;34.1611177;-118.1545159;6514926.50874022;1881050.09480348
157211256;-118.445077655684941;33.355306467920784;US Geological Survey (USGS);Mcgee Lake;;;25171;;33.3553065;-118.4450776;6425728.28851497;1588054.38847323
157211270;-118.293404555615282;33.714185767259671;US Geological Survey (USGS);Gaffey Pool;;;25188;;33.7141858;-118.2934045;6472435.56353855;1718495.56295781
157211272;-118.342573555865911;33.845293467219065;US Geological Survey (USGS);Dominguez Reservoir;;;25190;;33.8452935;-118.3425735;6457644.18236022;1766256.40575615
157211275;-118.410913055567562;34.120007566731147;US Geological Survey (USGS);Upper Franklin Canyon Reservoir;;;25193;;34.1200076;-118.410913;6437300.94844048;1866307.65512832
157211279;-118.044233656176829;33.99667906684342;US Geological Survey (USGS);Hoover Reservoir;;;25197;;33.9966791;-118.0442336;6548262.53721239;1821174.76442315
157211282;-118.479251155669402;34.285001566560055;US Geological Survey (USGS);Lower Van Norman Lake;;;25200;;34.2850016;-118.4792511;6416903.75629531;1926442.87508073
157211283;-118.475913555539677;34.043898266505408;US Geological Survey (USGS);Mount Olivet Reservoir;;;25201;;34.0438983;-118.4759135;6417496.50937489;1838697.1299689
157211284;-118.486195855889932;34.292223466276049;US Geological Survey (USGS);Van Norman Bypass Reservoir;;;25202;;34.2922235;-118.4861958;6414818.71092471;1929081.10077539
157211285;-118.090624756611263;34.169172766915388;US Geological Survey (USGS);Eaton Canyon Reservoir;;;25203;;34.1691728;-118.0906247;6534257.37296556;1883957.92297731
157211286;-118.053678956989714;34.14167366688671;US Geological Survey (USGS);Baldwin Lake;;;25204;;34.1416737;-118.0536789;6545427.71709463;1873942.47909747
157211287;-118.787591255081765;34.147783266710832;US Geological Survey (USGS);Lake Lindero;;;25205;;34.1477833;-118.7875912;6323374.25273788;1877095.10501006
157211288;-118.179516556808991;34.119730667147692;US Geological Survey (USGS);Highland Reservoir;;;25206;;34.1197307;-118.1795165;6507336.49045572;1866001.19675173
157211289;-118.260630056650129;34.072788767210717;US Geological Survey (USGS);Echo Lake;;;25207;;34.0727888;-118.26063;6482741.81097063;1848971.96440606
157211290;-118.131737056519597;34.101397866498672;US Geological Survey (USGS);Garfield Reservoirs;;;25208;;34.1013979;-118.131737;6521789.04619622;1859307.16584848
157211291;-118.628699056496714;34.558045765790197;US Geological Survey (USGS);Castaic Lake;;;25211;;34.5580458;-118.628699;6372382.29546964;2026056.20702164
157211294;-118.823888954697395;34.135277766631134;US Geological Survey (USGS);Westlake Lake;;;25214;;34.1352778;-118.8238889;6312354.8453148;1872632.31078605
157211295;-118.249444456393533;34.168611066260219;US Geological Survey (USGS);Diederich Street Reservoir;;;25215;;34.1686111;-118.2494444;6486215.75809097;1883834.77460156
157211296;-118.281944456904185;34.179166666292765;US Geological Survey (USGS);Western Reservoir;;;25216;;34.1791667;-118.2819444;6476395.61467355;1887702.11922906
157211297;-118.175277856996459;34.121388866676931;US Geological Survey (USGS);Garvanza Reservoir;;;25217;;34.1213889;-118.1752778;6508620.4586883;1866602.3812449
157211298;-118.335355156470484;34.12611906671787;US Geological Survey (USGS);Hollywood Reservoir;;;25219;;34.1261191;-118.3353551;6460177.07854113;1868446.83917014
157211301;-118.264797156035115;34.10223176703952;US Geological Survey (USGS);Ivanhoe Reservoir;;;25223;;34.1022318;-118.2647971;6481508.08640397;1859690.08962332
157211305;-118.082846156556357;34.020011967489808;US Geological Survey (USGS);Whittier Narrows Reservoir;;;25227;;34.020012;-118.0828461;6536565.57471398;1829673.47610022
157211068;-117.830341658172273;34.605546366035874;US Geological Survey (USGS);Lovejoy Springs;;;24943;;34.6055464;-117.8303416;6612722.01918556;2042794.02328348
157211069;-118.288411256806555;34.559434465700001;US Geological Survey (USGS);Fryingpan Springs;;;24945;;34.5594345;-118.2884112;6474836.7860983;2026094.20104015
157211072;-118.395358156272863;34.694428765460415;US Geological Survey (USGS);Indian Spring;;;24948;;34.6944288;-118.3953581;6442831.07386313;2075331.50610864
157211073;-118.339245956229448;34.574156166208247;US Geological Survey (USGS);Big Oak Spring;;;24950;;34.5741562;-118.3392459;6459549.84127855;2031499.55046564
157211074;-118.504250755995571;34.594710865562874;US Geological Survey (USGS);Ruby Spring;;;24952;;34.5947109;-118.5042507;6409917.64100248;2039188.24440581
157211075;-118.398136357100228;34.627764965679617;US Geological Survey (USGS);Craig Spring;;;24953;;34.627765;-118.3981363;6441899.89560738;2051074.08218265
157211076;-117.709226458373621;34.612768766060917;US Geological Survey (USGS);Moody Springs;;;24954;;34.6127688;-117.7092264;6649158.96140338;2045505.90926389
157211077;-118.716201455551598;34.589988665291813;US Geological Survey (USGS);Fisher Spring;;;24955;;34.5899887;-118.7162014;6346120.41295414;2037856.98886622
157211078;-118.758424856056635;34.629431265502369;US Geological Survey (USGS);Royball Spring;;;24956;;34.6294313;-118.7584248;6333521.28329681;2052304.01541831
157211079;-118.638421355734934;34.618043065953046;US Geological Survey (USGS);Cienaga Spring;;;24958;;34.6180431;-118.6384213;6369593.83287072;2047908.79126914
157211080;-118.423137056683302;34.652208365552781;US Geological Survey (USGS);Clear Spring;;;24959;;34.6522084;-118.423137;6434416.48275273;2060000.37174472
157211084;-118.462026956305294;34.69942836586246;US Geological Survey (USGS);Troedel Spring;;;24964;;34.6994284;-118.4620269;6422799.83767897;2077236.46325673
157211085;-118.417858856532931;34.709983565986853;US Geological Survey (USGS);Mud Spring;;;24965;;34.7099836;-118.4178588;6436091.24121422;2081019.69683197
157211088;-118.72397945586394;34.598877165422984;US Geological Survey (USGS);Oak Flat Spring;;;24969;;34.5988772;-118.7239794;6343802.86345538;2041108.43282264
157211092;-118.353413156762542;34.566378765810775;US Geological Survey (USGS);Willow Spring;;;24973;;34.5663788;-118.3534131;6455275.2681348;2028683.86941722
157211095;-118.790926255969396;34.642208465135354;US Geological Survey (USGS);Beartrap Spring;;;24976;;34.6422085;-118.7909262;6323781.0114388;2057029.20347448
157211096;-118.48008345651003;34.592766565552509;US Geological Survey (USGS);Plum Spring;;;24977;;34.5927666;-118.4800834;6417187.27836606;2038445.05954048
157211099;-118.447860156073176;34.599432865573696;US Geological Survey (USGS);Aqueduct Spring;;;24980;;34.5994329;-118.4478601;6426895.75369972;2040826.3142924
157211103;-118.738702056030689;34.625542665296763;US Geological Survey (USGS);Quarry Spring;;;24984;;34.6255427;-118.738702;6339443.77965389;2050844.70075165
157211112;-118.315634256552656;34.570545265978986;US Geological Survey (USGS);Bear Spring;;;24993;;34.5705453;-118.3156342;6466653.33166473;2030162.30576481
157211116;-118.366191256573728;34.569711865473252;US Geological Survey (USGS);Artesian Spring;;;25000;;34.5697119;-118.3661912;6451432.85554406;2029910.62975898
157211118;-118.341746156194674;34.334999466262929;US Geological Survey (USGS);Barrel Spring;;;25002;;34.3349995;-118.3417461;6458501.32697138;1944468.31081456
157211119;-118.070626557350622;34.533602966501391;US Geological Survey (USGS);Barrel Springs;;;25003;;34.533603;-118.0706265;6540399.78128439;2016576.39166373
157211123;-118.182018457317369;34.375831066323094;US Geological Survey (USGS);Deer Spring;;;25009;;34.3758311;-118.1820184;6506748.01033346;1959202.06317115
157211125;-118.000622157328891;34.300000866413612;US Geological Survey (USGS);Doe Spring;;;25011;;34.3000009;-118.0006221;6561482.44023447;1931556.29005073
157211129;-117.809505358137557;34.345278567093949;US Geological Survey (USGS);Lily Spring;;;25015;;34.3452786;-117.8095053;6619171.34585381;1948088.18382414
157211130;-117.771449157694221;34.381110866482544;US Geological Survey (USGS);Icy Springs;;;25016;;34.3811109;-117.7714491;6630628.98074688;1961152.1626174
157211133;-117.829228157992986;34.345278366795924;US Geological Survey (USGS);Little Jimmy Spring;;;25019;;34.3452784;-117.8292281;6613218.00441405;1948077.41219215
157211139;-118.334801456112316;34.335832666299893;US Geological Survey (USGS);Indian Springs;;;25026;;34.3358327;-118.3348014;6460598.84967922;1944764.4709834
157211142;-117.827005757421531;34.329723366491628;US Geological Survey (USGS);Alexander Spring;;;25029;;34.3297234;-117.8270057;6613898.58048072;1942417.8083539
157211146;-117.887005657379945;33.975845967643146;US Geological Survey (USGS);Alvarado Hot Springs;;;25034;;33.975846;-117.8870056;6595928.95270614;1813609.47345139
157211147;-117.83061705743954;34.337223066356955;US Geological Survey (USGS);Big Cienega;;;25035;;34.3372231;-117.830617;6612803.70406155;1945145.23006439
157211152;-117.90811965772599;34.341944466555212;US Geological Survey (USGS);Buckhorn Spring;;;25041;;34.3419445;-117.9081196;6589405.63898113;1946833.02918223
157211160;-117.85200665699584;34.33805626653055;US Geological Survey (USGS);Snow Spring;;;25049;;34.3380563;-117.8520066;6606346.16513939;1945438.25277232
157211161;-118.322856456036035;34.29222336665368;US Geological Survey (USGS);Fascination Spring;;;25050;;34.2922234;-118.3228564;6464153.87800223;1928882.5184954
157211163;-118.629533155280868;34.278057765939323;US Geological Survey (USGS);Hialeah Springs;;;25053;;34.2780578;-118.6295331;6371493.02362613;1924166.32025065
157211165;-117.757003957588708;34.367500366415022;US Geological Survey (USGS);Lamel Spring;;;25055;;34.3675004;-117.7570039;6634999.37030005;1956209.27355306
157211166;-117.843673257467998;34.356111166601615;US Geological Survey (USGS);Cortelyou Spring;;;25056;;34.3561112;-117.8436732;6608851.60796313;1952012.57590973
157211172;-118.566750655525965;34.10667356622757;US Geological Survey (USGS);Eagle Spring;;;25062;;34.1066736;-118.5667506;6390107.28232931;1861684.61942689
157211181;-117.84033915759413;34.301946467083567;US Geological Survey (USGS);La Cienega Spring;;;25071;;34.3019465;-117.8403391;6609889.18889321;1932302.62746881
157211183;-118.44674975591272;34.35833186664977;US Geological Survey (USGS);Los Pinetos Spring;;;25073;;34.3583319;-118.4467497;6426839.93819456;1953083.66235022
157211188;-118.319800856402907;34.290001266851242;US Geological Survey (USGS);Goldenrod Spring;;;25079;;34.2900013;-118.3198008;6465074.22393055;1928070.90922622
157211192;-118.271188156838377;34.340276966605074;US Geological Survey (USGS);Yerba Buena Spring;;;25083;;34.340277;-118.2711881;6479807.05306064;1946323.94358623
157211193;-118.367018855326606;33.384750067875942;US Geological Survey (USGS);Torqua Spring;;;25084;;33.3847501;-118.3670188;6449609.1495458;1598674.21040939
157211195;-117.847562457529051;34.366944066409246;US Geological Survey (USGS);Reed Spring;;;25086;;34.3669441;-117.8475624;6607671.82324922;1955953.06999722
157211202;-117.950065557381023;34.347221767028792;US Geological Survey (USGS);Winston Spring;;;25094;;34.3472218;-117.9500655;6576742.76076363;1948744.60639581
157211206;-118.325634356763331;34.308056066649293;US Geological Survey (USGS);Oak Spring;;;25099;;34.3080561;-118.3256343;6463333.50169022;1934647.00729448
157211207;-117.887285857484713;34.359721766647105;US Geological Survey (USGS);Rattlesnake Spring;;;25100;;34.3597218;-117.8872858;6595687.34032847;1953308.92567922
157211210;-118.279522056370709;34.400274466213943;US Geological Survey (USGS);Quail Spring;;;25103;;34.4002745;-118.279522;6477352.03041163;1968165.00981215
157211217;-117.986455757167263;34.366665266558137;US Geological Survey (USGS);Sulphur Spring;;;25112;;34.3666653;-117.9864557;6565757.63739271;1955817.00104365
157211223;-117.814226257016742;34.15834046674086;US Geological Survey (USGS);Big Cienega Spring;;;25119;;34.1583405;-117.8142262;6617872.07515839;1880055.43439123
157211226;-118.110348957158038;34.355554266659603;US Geological Survey (USGS);Baughman Spring;;;25123;;34.3555543;-118.1103489;6528365.48481497;1951791.49761173
157211231;-118.074236857410355;34.395552866857919;US Geological Survey (USGS);Aliso Spring;;;25128;;34.3955529;-118.0742368;6539275.36785081;1966337.76018581
157211232;-117.667278257745977;34.32278006664793;US Geological Survey (USGS);Columbine Spring;;;25136;;34.3227801;-117.6672782;6662129.72286339;1940012.33580264
157211236;-118.028401757456805;34.379720166122034;US Geological Survey (USGS);Fountainhead Spring;;;25145;;34.3797202;-118.0284017;6553100.77622356;1960568.8685084
157211237;-117.698945157724197;34.217505966889121;US Geological Survey (USGS);Fallen Leaf Spring;;;25146;;34.217506;-117.6989451;6652683.24503721;1901671.19234073
157211238;-117.870617257497855;34.227782266498579;US Geological Survey (USGS);Fern Springs;;;25147;;34.2277823;-117.8706172;6600779.70875263;1905299.79597589
157211241;-118.377858456162897;34.523880566150915;US Geological Survey (USGS);Whisky Spring;;;25151;;34.5238806;-118.3778584;6447857.90304831;2013244.62240864
157211247;-117.819783457461142;34.345278467158614;US Geological Survey (USGS);White Fir Spring;;;25159;;34.3452785;-117.8197834;6616068.89438155;1948082.42628972
157211249;-118.109516357325447;34.445828466012728;US Geological Survey (USGS);Kentucky Springs;;;25163;;34.4458285;-118.1095163;6528652.56724605;1984643.79837681
157211257;-117.885618957546569;34.350833266989547;US Geological Survey (USGS);Cedar Spring;;;25174;;34.3508333;-117.8856189;6596194.08964305;1950074.80025773
157211258;-117.898953157526748;34.382776466579756;US Geological Survey (USGS);Moss Spring;;;25175;;34.3827765;-117.8989531;6592157.72894938;1961695.23174123
157211269;-118.037013257497463;34.385830966564562;US Geological Survey (USGS);Sheep Camp Spring;;;25187;;34.385831;-118.0370132;6550503.27715348;1962793.55434772
157211292;-118.202019357164659;34.399996766421246;US Geological Survey (USGS);Magnetic Springs;;;25212;;34.3999968;-118.2020193;6500730.61226331;1968007.95074306
157211293;-117.687556057446628;34.22278366719295;US Geological Survey (USGS);Forked Spruce Spring;;;25213;;34.2227837;-117.687556;6656120.34118138;1903602.34103748
157211300;-117.835617357186592;34.348333666710673;US Geological Survey (USGS);Windy Spring;;;25222;;34.3483337;-117.8356173;6611287.60112263;1949186.07729764
157211306;-118.353410156640095;34.044177666573333;US Geological Survey (USGS);Ballona Creek;;;25228;;34.0441777;-118.3534101;6454608.0175008;1838645.71504548
157211307;-117.870896457310835;34.362221866635316;US Geological Survey (USGS);Bear Creek;;;25229;;34.3622219;-117.8708964;6600632.4715143;1954224.70960881
157211308;-117.758112757112741;34.036678067664354;US Geological Survey (USGS);Chino Creek;;;25230;;34.0366781;-117.7581127;6634954.49046855;1835816.43789564
157211309;-118.012843956309567;34.044454767179772;US Geological Survey (USGS);Avocado Creek;;;25231;;34.0444548;-118.0128439;6557779.39350672;1838558.59940606
157211310;-118.011666757251021;33.979722167193145;US Geological Survey (USGS);Bacon Creek;;;25232;;33.9797222;-118.0116667;6558133.28157847;1815001.05170497
157211311;-118.602309156262891;34.195282365944649;US Geological Survey (USGS);Bell Creek;;;25233;;34.1952824;-118.6023091;6379536.59120038;1893992.99870764
157211312;-118.311745056049617;34.322499866309357;US Geological Survey (USGS);Center Creek;;;25234;;34.3224999;-118.311745;6467544.15665472;1939890.05225456
157211313;-118.39896935651312;34.184172066230666;US Geological Survey (USGS);Central Branch Tujunga Wash;;;25235;;34.1841721;-118.3989693;6441008.56176014;1889643.54185539
157211314;-118.258408956576076;34.195005366423608;US Geological Survey (USGS);Deer Creek;;;25236;;34.1950054;-118.2584089;6483528.7805253;1893446.95682073
157211315;-118.079722256726939;34.232499966803964;US Geological Survey (USGS);Deer Park Branch;;;25237;;34.2325;-118.0797222;6537573.53299989;1907001.0346994
157211316;-117.983055657213768;33.965277767237041;US Geological Survey (USGS);Arroyo Jalisco;;;25238;;33.9652778;-117.9830556;6566808.32984513;1809744.65670598
157211317;-117.975619756944496;33.971679167642236;US Geological Survey (USGS);Arroyo Pescadero;;;25239;;33.9716792;-117.9756197;6569062.53038922;1812074.72619282
157211318;-117.97722225675669;33.965555567291361;US Geological Survey (USGS);Arroyo Salinas;;;25240;;33.9655556;-117.9772222;6568577.15143871;1809846.10368156
157211319;-117.975619657107401;33.968068167310129;US Geological Survey (USGS);Arroyo San Miguel;;;25241;;33.9680682;-117.9756196;6569062.87946989;1810760.60644573
157211320;-118.553888956006048;34.119722166983181;US Geological Survey (USGS);Garapito Creek;;;25242;;34.1197222;-118.5538889;6394026.81878155;1866411.47250597
157211321;-118.5278624560965;34.185560466638961;US Geological Survey (USGS);Caballero Creek;;;25243;;34.1855605;-118.5278624;6402029.91169922;1890328.51489489
157211322;-118.562864555744966;34.321944666187143;US Geological Survey (USGS);Limekiln Canyon Wash;;;25244;;34.3219447;-118.5628645;6391722.32535905;1940017.86859998
157211323;-118.626754555458348;34.214448566746846;US Geological Survey (USGS);Dayton Creek;;;25245;;34.2144486;-118.6267545;6372188.07079247;1901012.98269914
157211324;-117.745612657279011;34.121953067623195;US Geological Survey (USGS);Live Oak Wash;;;25246;;34.1219531;-117.7456126;6638663.07524297;1866858.88434081
157211325;-118.058957056414854;34.15667306653576;US Geological Survey (USGS);Arcadia Wash;;;25247;;34.1566731;-118.058957;6543833.8272378;1879401.92848039
157211326;-117.977564057225536;33.958901566908359;US Geological Survey (USGS);Leffingwell Creek;;;25248;;33.9589016;-117.977564;6568474.04928271;1807424.5468449
157211327;-117.873888956703141;34.042222166893382;US Geological Survey (USGS);Lemon Creek;;;25249;;34.0422222;-117.8738889;6599875.47827764;1837769.83261089
157211328;-117.827777857112267;34.343333266376412;US Geological Survey (USGS);Cedar Creek;;;25250;;34.3433333;-117.8277778;6613656.99172506;1947370.30107357
157211329;-118.526474855541181;34.306667466194504;US Geological Survey (USGS);Bull Creek;;;25251;;34.3066675;-118.5264748;6402680.39432214;1934398.75057314
157211330;-117.854783057199271;34.095564667020753;US Geological Survey (USGS);Charter Oak Creek;;;25252;;34.0955647;-117.854783;6605635.52909347;1857189.98373115
157211331;-118.631477356080637;34.227503866119356;US Geological Survey (USGS);Chatsworth Creek;;;25253;;34.2275039;-118.6314773;6370790.12575372;1905772.88459665
157211332;-118.545919656020487;34.323055766200341;US Geological Survey (USGS);Aliso Canyon Wash;;;25254;;34.3230558;-118.5459196;6396840.7137443;1940393.99481623
157211333;-118.588698656106459;34.326944465726427;US Geological Survey (USGS);Browns Canyon Wash;;;25255;;34.3269445;-118.5886986;6383932.87243405;1941882.03908423
157211334;-118.048401256941517;34.246113966671281;US Geological Survey (USGS);Rush Creek;;;25256;;34.246114;-118.0484012;6547042.98715806;1911949.38208614
157211335;-118.062008756264362;33.834459867805876;US Geological Survey (USGS);Moody Creek;;;25257;;33.8344599;-118.0620087;6542838.25278538;1762142.32737014
157211336;-118.515277856567295;34.684444365880026;US Geological Survey (USGS);Fish Creek;;;25258;;34.6844444;-118.5152778;6406766.50261971;2071861.20300989
157211337;-118.396470355892006;34.33472166668183;US Geological Survey (USGS);Pacoima Wash;;;25259;;34.3347217;-118.3964703;6441980.43678489;1944427.87946498
157211338;-118.100624956610019;34.128618766604191;US Geological Survey (USGS);Rubio Wash;;;25260;;34.1286188;-118.1006249;6531217.65233897;1869202.46593973
157211339;-117.95867425656543;33.946957367395761;US Geological Survey (USGS);Coyote Creek;;;25261;;33.9469574;-117.9586742;6574204.17004031;1803079.61065289
157211340;-118.063055656825256;34.036111067301412;US Geological Survey (USGS);Mission Creek;;;25262;;34.0361111;-118.0630556;6542566.34027147;1835527.90566431
157211341;-117.864230757237905;34.461662766748582;US Geological Survey (USGS);Pallett Creek;;;25263;;34.4616628;-117.8642307;6602595.22841555;1990415.89378798
157211342;-118.073888956819658;34.368888866242592;US Geological Survey (USGS);Monte Cristo Creek;;;25264;;34.3688889;-118.0738889;6539373.18622471;1956634.13064298
157211343;-118.258965756420253;34.605265965825453;US Geological Survey (USGS);Rogers Creek;;;25265;;34.605266;-118.2589657;6483745.05338672;2042749.26877981
157211344;-118.021177757076771;34.097508467186998;US Geological Survey (USGS);Rio Hondo;;;25266;;34.0975085;-118.0211777;6555258.81587072;1857866.28355965
157211345;-117.941451956732891;33.971956967132137;US Geological Survey (USGS);La Mirada Creek;;;25267;;33.971957;-117.9414519;6579422.27837047;1812180.09737314
157211346;-117.848888957500719;34.316111066731061;US Geological Survey (USGS);Coldbrook Creek;;;25268;;34.3161111;-117.8488889;6607299.33350864;1937453.39111739
157211347;-118.104514257150228;34.190282966899495;US Geological Survey (USGS);Eaton Wash;;;25269;;34.190283;-118.1045142;6530063.94401647;1891644.38102956
157211348;-117.744783658491187;34.628323765903652;US Geological Survey (USGS);Eller Slough;;;25270;;34.6283238;-117.7447836;6638446.07862972;2051137.72411573
157211349;-118.642311255349455;34.293334866082446;US Geological Survey (USGS);Falls Creek;;;25271;;34.2933349;-118.6423112;6367668.43186589;1929750.24543448
157211350;-117.99423175671032;33.984456567137535;US Geological Survey (USGS);La Canada Verde Creek;;;25272;;33.9844566;-117.9942317;6563419.03380223;1816723.84419115
157211351;-118.602309156262891;34.195282365944649;US Geological Survey (USGS);Los Angeles River;;;25273;;34.1952824;-118.6023091;6379536.59120038;1893992.99870764
157211352;-118.273684456141368;33.938626167350492;US Geological Survey (USGS);Compton Creek;;;25274;;33.9386262;-118.2736844;6478655.52452381;1800158.13716514
157211353;-118.038888956591478;34.156944366649;US Geological Survey (USGS);East Branch Arcadia Wash;;;25275;;34.1569444;-118.0388889;6549905.14842847;1879497.70486364
157211354;-118.456111156205694;34.294444366359969;US Geological Survey (USGS);East Canyon Channel;;;25276;;34.2944444;-118.4561111;6423909.16059156;1929846.72654073
157211355;-118.884444455586333;34.102499965873982;US Geological Survey (USGS);East Fork Arroyo Sequit;;;25277;;34.1025;-118.8844444;6293925.75881347;1860860.04003932
157211356;-118.476749556234566;34.169449866706721;US Geological Survey (USGS);Encino Creek;;;25278;;34.1694499;-118.4767495;6417459.95859496;1884388.39521348
157211357;-118.265555656458446;34.345277766076478;US Geological Survey (USGS);Gold Creek;;;25279;;34.3452778;-118.2655556;6481512.13396806;1948139.28378756
157211358;-118.083958156596395;34.2075044667206;US Geological Survey (USGS);Harvard Branch;;;25280;;34.2075045;-118.0839581;6536285.59495898;1897905.76614456
157211359;-118.067777856732803;34.275277766951461;US Geological Survey (USGS);Trail Fork;;;25281;;34.2752778;-118.0677778;6541194.33710997;1922566.00127281
157211360;-117.970342757142376;34.207504466690253;US Geological Survey (USGS);Sawpit Wash;;;25282;;34.2075045;-117.9703427;6570637.21096689;1897896.48926023
157211361;-118.330000056448711;34.246388866318775;US Geological Survey (USGS);Mcdonald Creek;;;25283;;34.2463889;-118.33;6461941.45263705;1912209.60367855
157211362;-118.385358755823461;34.260280366388095;US Geological Survey (USGS);Tujunga Wash;;;25284;;34.2602804;-118.3853587;6445231.02870889;1917324.46648031
157211363;-118.019166757255789;34.37027776618438;US Geological Survey (USGS);Middle Fork Alder Creek;;;25285;;34.3702778;-118.0191667;6555886.56559947;1957131.93542165
157211364;-118.003611156948537;33.990833267533112;US Geological Survey (USGS);Worsham Creek;;;25286;;33.9908333;-118.0036111;6560575.68089314;1819044.42747648
157211365;-118.79397985533484;34.12278366636319;US Geological Survey (USGS);Potrero Valley Creek;;;25287;;34.1227837;-118.7939798;6321369.47557947;1868012.78163931
157211366;-118.571473756139142;34.137506066835527;US Geological Survey (USGS);Santa Maria Creek;;;25288;;34.1375061;-118.5714737;6388741.34313205;1872913.05038206
157211367;-118.624531955594222;34.197504566296452;US Geological Survey (USGS);South Branch Bell Creek;;;25289;;34.1975046;-118.6245319;6372821.69354098;1894842.69156206
157211368;-118.160833356926318;34.073888867065676;US Geological Survey (USGS);Luguna Channel;;;25290;;34.0738889;-118.1608333;6512964.59304464;1849308.95257723
157211369;-117.809444457472907;34.33888886638232;US Geological Survey (USGS);South Fork Iron Fork;;;25291;;34.3388889;-117.8094444;6619194.1371468;1945762.88926214
157211370;-118.051179857202243;34.318889066345825;US Geological Survey (USGS);Mule Fork;;;25292;;34.3188891;-118.0511798;6546216.74930923;1938433.99020606
157211371;-118.631477755322237;34.269446965931301;US Geological Survey (USGS);Santa Susana Pass Wash;;;25293;;34.269447;-118.6314777;6370885.89590339;1921036.43937132
157211372;-117.894166757222138;34.038055567603394;US Geological Survey (USGS);Puente Creek;;;25294;;34.0380556;-117.8941667;6593733.95119064;1836246.4380199
157211373;-118.010277856510356;33.982499966920457;US Geological Survey (USGS);Savage Creek;;;25295;;33.9825;-118.0102778;6558554.46446313;1816011.90532631
157211374;-117.856174857275462;34.453607566187017;US Geological Survey (USGS);Sandrock Creek;;;25296;;34.4536076;-117.8561748;6605027.70944297;1987487.81401423
157211375;-118.05312365705241;34.228059166432317;US Geological Survey (USGS);Santa Anita Wash;;;25297;;34.2280592;-118.0531236;6545612.35747339;1905379.63505507
157211376;-118.30174495648815;34.388052766677674;US Geological Survey (USGS);Spring Creek;;;25298;;34.3880528;-118.3017449;6470635.12225756;1963736.69222523
157211377;-118.660366155788097;34.710261065517841;US Geological Survey (USGS);Castaic Creek;;;25299;;34.7102611;-118.6603661;6363212.05921698;2081511.56986398
157211378;-117.730612257616585;34.126952967533562;US Geological Survey (USGS);Thompson Wash;;;25300;;34.126953;-117.7306122;6643198.20068714;1868690.26256782
157211379;-118.921666754869008;34.062222165935935;US Geological Survey (USGS);Willow Creek;;;25301;;34.0622222;-118.9216667;6282523.50045006;1846304.03437448
157211380;-118.545919855956825;34.273891066605152;US Geological Survey (USGS);Wilbur Wash;;;25302;;34.2738911;-118.5459198;6396743.48132722;1922502.31537656
157211381;-118.917222255281388;34.083888866656515;US Geological Survey (USGS);Arroyo Sequit;;;25303;;34.0838889;-118.9172222;6283941.52550113;1854176.31948289
157211382;-118.167572956991975;34.303889566482667;US Geological Survey (USGS);Big Tujunga Creek;;;25304;;34.3038896;-118.1675729;6511063.15262181;1933013.64081056
157211383;-117.907840357356278;34.062787767105249;US Geological Survey (USGS);Vine Creek;;;25305;;34.0627878;-117.9078403;6589583.09859997;1845242.88328156
157211384;-118.918151255010585;34.083895866739049;US Geological Survey (USGS);West Fork Arroyo Sequit;;;25306;;34.0838959;-118.9181512;6283660.26162797;1854181.43495823
157211385;-118.338333355968743;34.351388866424209;US Geological Survey (USGS);Little Tujunga Creek;;;25307;;34.3513889;-118.3383333;6459551.68149798;1950429.20637307
157211386;-117.983055656508228;33.967499967343237;US Geological Survey (USGS);Tacobi Creek;;;25308;;33.9675;-117.9830556;6566808.19369055;1810553.36276573
157211387;-118.602309156262891;34.195282365944649;US Geological Survey (USGS);Arroyo Calabasas;;;25309;;34.1952824;-118.6023091;6379536.59120038;1893992.99870764
157211388;-118.649166755668929;34.081111066296479;US Geological Survey (USGS);Cold Creek;;;25310;;34.0811111;-118.6491667;6365099.06430122;1852533.03372748
157211389;-118.721198854996501;34.097228466018628;US Geological Survey (USGS);Las Virgenes Creek;;;25311;;34.0972285;-118.7211988;6343329.78533331;1858546.98921923
157211390;-118.750922355573138;34.12139466601149;US Geological Survey (USGS);Medea Creek;;;25312;;34.1213947;-118.7509223;6334396.95772655;1867407.16900539
157211391;-117.792558756992719;34.11111986750582;US Geological Survey (USGS);Walnut Creek;;;25313;;34.1111199;-117.7925587;6624462.55377531;1862883.84832764
157211392;-117.79444445709666;34.055555566989362;US Geological Survey (USGS);South San Jose Creek;;;25314;;34.0555556;-117.7944444;6623933.1079838;1842661.8149529
157211393;-117.832837957822719;34.154451567236286;US Geological Survey (USGS);Big Dalton Wash;;;25315;;34.1544516;-117.8328379;6612243.87644105;1878630.3096168
157211394;-117.872565357586367;34.666376866005095;US Geological Survey (USGS);Big Rock Wash;;;25316;;34.6663769;-117.8725653;6599988.47805163;2064913.15555431
157211395;-117.804722257782245;34.137499966821132;US Geological Survey (USGS);East Branch Big Dalton Wash;;;25317;;34.1375;-117.8047222;6620762.03066455;1872476.65985064
157211396;-118.048679757001963;34.323333266253925;US Geological Survey (USGS);East Fork Alder Creek;;;25318;;34.3233333;-118.0486797;6546972.42955638;1940050.94268081
157211397;-117.838115957682064;34.15695146694371;US Geological Survey (USGS);Little Dalton Wash;;;25319;;34.1569515;-117.8381159;6610645.59617305;1879537.45379989
157211398;-118.019791257663073;34.469161366014816;US Geological Survey (USGS);Little Rock Creek;;;25320;;34.4691614;-118.0197912;6555705.19949238;1993117.74238689
157211399;-118.027569757128518;34.704707365986152;US Geological Survey (USGS);Little Rock Wash;;;25321;;34.7047074;-118.0275697;6553384.24612905;2078839.63951232
157211400;-118.129794857651788;34.781925865682105;US Geological Survey (USGS);Amargosa Creek;;;25322;;34.7819259;-118.1297948;6522696.79995814;2106966.0855559
157211401;-118.133406357208742;34.569712365958303;US Geological Survey (USGS);Anaverde Creek;;;25323;;34.5697124;-118.1334063;6521509.87746322;2029736.66357148
157211402;-117.72783595735909;34.343056867091406;US Geological Survey (USGS);Prairie Fork;;;25324;;34.3430569;-117.7278359;6643825.47731972;1947336.40317547
157211403;-118.211185556857956;34.276668466237616;US Geological Survey (USGS);Vasquez Creek;;;25325;;34.2766685;-118.2111855;6497871.31187956;1923132.21733198
157211404;-118.28083335599112;34.234722166662799;US Geological Survey (USGS);Verdugo Wash;;;25326;;34.2347222;-118.2808333;6476788.15358664;1907918.75038365
157211405;-117.668946758368847;34.570825666242435;US Geological Survey (USGS);Le Montaine Creek;;;25327;;34.5708257;-117.6689467;6661328.64441305;2030279.29109514
157211406;-118.244242956894325;34.601932766318356;US Geological Survey (USGS);Pine Creek;;;25328;;34.6019328;-118.2442429;6488172.32865289;2041525.14327531
157211407;-118.75120235600609;34.635264365784352;US Geological Survey (USGS);Piru Creek;;;25329;;34.6352644;-118.7512023;6335709.77662322;2054410.46888256
157211408;-118.105348056390909;34.2694464668674;US Geological Survey (USGS);Arroyo Seco;;;25330;;34.2694465;-118.105348;6529841.9851428;1920453.65969698
157211409;-118.536474755981928;34.391663966239626;US Geological Survey (USGS);Placerita Creek;;;25331;;34.391664;-118.5364747;6399825.64248572;1965346.13159165
157211410;-118.050000057578075;34.351666666206846;US Geological Survey (USGS);Alder Creek;;;25332;;34.3516667;-118.05;6546578.91886047;1950362.19830498
157211411;-117.708888957851386;34.140555566911146;US Geological Survey (USGS);Thompson Creek;;;25333;;34.1405556;-117.7088889;6649758.2138138;1873658.80807689
157211412;-117.889786957685274;34.444440966751806;US Geological Survey (USGS);Cruthers Creek;;;25334;;34.444441;-117.8897869;6594898.70476663;1984139.09138098
157211413;-118.152222256442457;34.283611066852593;US Geological Survey (USGS);Clear Creek;;;25335;;34.2836111;-118.1522222;6515687.89927781;1925626.55486298
157211414;-117.987844457562247;34.345277166722084;US Geological Survey (USGS);Chilao Creek;;;25336;;34.3452772;-117.9878444;6565339.50568305;1948033.40670273
157211415;-118.180555656826812;34.373055566694944;US Geological Survey (USGS);Fox Creek;;;25337;;34.3730556;-118.1805556;6507187.58163281;1958191.21020597
157211416;-118.171111156999245;34.346111066675341;US Geological Survey (USGS);Fall Creek;;;25338;;34.3461111;-118.1711111;6510020.76953597;1948380.61598206
157211417;-117.731724557271278;34.305835967127251;US Geological Survey (USGS);Fish Fork;;;25339;;34.305836;-117.7317245;6642687.8244113;1933787.91124365
157211418;-118.857040256175807;34.793312565093075;US Geological Survey (USGS);Gorman Creek;;;25340;;34.7933126;-118.8570402;6304365.0325543;2112181.88975681
157211419;-118.157572656807972;34.306111666369432;US Geological Survey (USGS);Lucas Creek;;;25341;;34.3061117;-118.1575726;6514084.51764205;1933817.41873056
157211420;-117.717282058175897;34.54499366643271;US Geological Survey (USGS);Mescal Creek;;;25342;;34.5449937;-117.717282;6646804.55535105;2020833.9999464
157211421;-118.538974856623994;34.39388616647485;US Geological Survey (USGS);Newhall Creek;;;25343;;34.3938862;-118.5389748;6399075.75094089;1966158.85765648
157211422;-117.772558157995903;34.154729667327054;US Geological Survey (USGS);San Dimas Wash;;;25344;;34.1547297;-117.7725581;6630480.78944223;1878767.31327981
157211423;-118.037846556665272;34.378053566454703;US Geological Survey (USGS);North Fork Alder Creek;;;25345;;34.3780536;-118.0378465;6550250.80160855;1959963.29918148
157211424;-118.103681356933862;34.258058066346983;US Geological Survey (USGS);West Fork San Gabriel River;;;25346;;34.2580581;-118.1036813;6530341.26301564;1916308.69193706
157211425;-117.89589835790116;34.453051766057619;US Geological Survey (USGS);Holmes Creek;;;25347;;34.4530518;-117.8958983;6593052.92072855;1987270.7777029
157211426;-118.168129056935072;34.376386666114634;US Geological Survey (USGS);North Fork Mill Creek;;;25348;;34.3763867;-118.168129;6510939.33823688;1959396.95713831
157211427;-118.118960156457959;34.310000466985187;US Geological Survey (USGS);Grotto Creek;;;25349;;34.3100005;-118.1189601;6525746.88703381;1935216.58522356
157211428;-118.747035755598361;34.565267565513075;US Geological Survey (USGS);Michael Creek;;;25350;;34.5652676;-118.7470357;6336773.74463964;2028928.14287882
157211429;-118.126183157098225;34.374720166367624;US Geological Survey (USGS);Middle Fork Mill Creek;;;25351;;34.3747202;-118.1261831;6523595.26010346;1958771.95707598
157211430;-118.087015157017831;34.396941566544598;US Geological Survey (USGS);Mill Creek;;;25352;;34.3969416;-118.0870151;6535420.98710814;1966846.22734472
157211431;-117.934511458105746;34.638321865957415;US Geological Survey (USGS);Rock Creek;;;25353;;34.6383219;-117.9345114;6581368.64849347;2054685.25770307
157211432;-118.706944455884468;34.714166665285404;US Geological Survey (USGS);Salt Creek;;;25354;;34.7141667;-118.7069444;6349224.21284889;2083028.11309072
157211433;-118.364247057027001;34.433606466298414;US Geological Survey (USGS);Santa Clara River;;;25355;;34.4336065;-118.364247;6451838.64311831;1980376.9666874
157211434;-118.576475955995718;34.376109066200122;US Geological Survey (USGS);Walker Basin Creek;;;25356;;34.3761091;-118.5764759;6387725.66963847;1959752.2973069
157211435;-117.879230857159229;34.436107966467176;US Geological Survey (USGS);Watkins Creek;;;25357;;34.436108;-117.8792308;6598084.92838106;1981110.19684823
157211436;-118.215352356326875;34.275835066903205;US Geological Survey (USGS);Silver Creek;;;25358;;34.2758351;-118.2153523;6496611.8764063;1922831.59949489
157211437;-117.747001958041494;34.216672367119337;US Geological Survey (USGS);Hummingbird Creek;;;25359;;34.2166724;-117.7470019;6638155.82921022;1901327.79046848
157211438;-118.173684356997526;34.301111866479637;US Geological Survey (USGS);Josephine Creek;;;25360;;34.3011119;-118.1736843;6509215.75933497;1932005.91874464
157211439;-117.757222257102995;34.217777766623605;US Geological Survey (USGS);Tanbark Creek;;;25361;;34.2177778;-117.7572222;6635065.09851505;1901722.44420673
157211440;-117.775337757607701;34.36055606676473;US Geological Survey (USGS);Iron Fork;;;25362;;34.3605561;-117.7753377;6629472.42892614;1953669.24418432
157211441;-117.840338957186447;34.290835767261775;US Geological Survey (USGS);North Fork San Gabriel River;;;25363;;34.2908358;-117.8403389;6609895.67214797;1928259.2438233
157211442;-117.967566756967386;34.408886066096585;US Geological Survey (USGS);South Fork Little Rock Creek;;;25364;;34.4088861;-117.9675667;6571452.88387622;1971183.28920865
157211443;-118.558419656544359;34.423607065666857;US Geological Survey (USGS);South Fork Santa Clara River;;;25365;;34.4236071;-118.5584196;6393269.91117464;1977006.74803415
157211444;-117.819444457969382;34.323611066904746;US Geological Survey (USGS);Soldier Creek;;;25366;;34.3236111;-117.8194444;6616185.38594647;1940197.44599673
157211445;-117.725058158286615;34.34305686659556;US Geological Survey (USGS);San Gabriel River;;;25367;;34.3430569;-117.7250581;6644663.97859547;1947338.68499506
157211446;-117.760612957594134;34.080565567472163;US Geological Survey (USGS);San Jose Creek;;;25368;;34.0805656;-117.7606129;6634158.97270264;1851786.08935523
157211447;-117.822839957220864;34.408609466463716;US Geological Survey (USGS);South Fork Big Rock Creek;;;25369;;34.4086095;-117.8228399;6615105.66566497;1971128.1426654
157211448;-118.059236257180373;34.381942166344992;US Geological Survey (USGS);West Fork Alder Creek;;;25370;;34.3819422;-118.0592362;6543797.66720514;1961381.55323473
157211449;-118.20083335712394;34.357777766161647;US Geological Survey (USGS);West Fork Fox Creek;;;25371;;34.3577778;-118.2008333;6501057.67492938;1952642.9414469
157211450;-117.930555657602142;34.316944366642339;US Geological Survey (USGS);West Fork Bear Creek;;;25372;;34.3169444;-117.9305556;6582639.32246131;1937729.58872773
157211451;-118.143959856298096;34.121397166484066;US Geological Survey (USGS);Alhambra Wash;;;25373;;34.1213972;-118.1439598;6518099.21368089;1866590.35010098
157211452;-118.059166757384403;34.220833266675996;US Geological Survey (USGS);Winter Creek;;;25374;;34.2208333;-118.0591667;6543784.12819022;1902751.02023356
157211453;-117.782222257686939;34.019166667617419;US Geological Survey (USGS);Diamond Bar Creek;;;25375;;34.0191667;-117.7822222;6627663.89776631;1829427.00382414
157211454;-118.79397985533484;34.12278366636319;US Geological Survey (USGS);Malibu Creek;;;25376;;34.1227837;-118.7939798;6321369.47557947;1868012.78163931
157211455;-117.858397358147045;34.469440266047421;US Geological Survey (USGS);Big Rock Creek;;;25377;;34.4694403;-117.8583973;6604349.5999068;1993248.71751864
157211456;-117.745890658052645;34.165840567070902;US Geological Survey (USGS);Marshall Creek;;;25378;;34.1658406;-117.7458906;6638538.55875972;1882830.08533798
157260192;-118.318033274177267;33.71608511556007;Los Angeles County Department of Beaches and Harbors;White Point - Royal Palms;1799 Paseo Del Mar;San Pedro;;90732;33.71608515;-118.31803322;6464947.30292456;1719209.57399698
